id,ident,type,name,latitude_deg,longitude_deg,elevation_ft,continent,iso_country,iso_region,municipality,scheduled_service,gps_code,iata_code,local_code,home_link,wikipedia_link,keywords
12243,5A8,medium_airport,Aleknagik / New Airport,59.2826004,-158.6179962,66,NA,US,US-AK,Aleknagik,yes,5A8,WKK,5A8,,https://en.wikipedia.org/wiki/Aleknagik_Airport,
18945,K61B,medium_airport,Boulder City Municipal Airport,35.947498,-114.861,2201,NA,US,US-NV,Boulder City,no,KBVU,BLD,BVU,,https://en.wikipedia.org/wiki/Boulder_City_Municipal_Airport,61B
18966,K67L,medium_airport,Mesquite International Airport,36.833105,-114.055928,1978,NA,US,US-NV,Mesquite,no,,MFH,67L,http://www.cityofmesquite.com/457/Airport-Mesquite-Metro-Airport,https://en.wikipedia.org/wiki/Mesquite_Airport,
19042,K79J,medium_airport,South Alabama Regional At Bill Benton Field Airport,31.3088,-86.393799,310,NA,US,US-AL,Andalusia/Opp,no,K79J,,79J,,https://en.wikipedia.org/wiki/Andalusia-Opp_Airport,Andalusia Opp Airport
3356,KABE,medium_airport,Lehigh Valley International Airport,40.651773,-75.442797,393,NA,US,US-PA,Allentown,yes,KABE,ABE,ABE,,https://en.wikipedia.org/wiki/Lehigh_Valley_International_Airport,
3357,KABI,medium_airport,Abilene Regional Airport,32.41130066,-99.68190002,1791,NA,US,US-TX,Abilene,yes,KABI,ABI,ABI,,https://en.wikipedia.org/wiki/Abilene_Regional_Airport,
16091,KABQ,medium_airport,Albuquerque International Sunport,35.040199,-106.609001,5355,NA,US,US-NM,Albuquerque,yes,KABQ,ABQ,ABQ,http://www.abqsunport.com/,https://en.wikipedia.org/wiki/Albuquerque_International_Sunport,
3358,KABR,medium_airport,Aberdeen Regional Airport,45.44910049,-98.42179871,1302,NA,US,US-SD,Aberdeen,yes,KABR,ABR,ABR,,https://en.wikipedia.org/wiki/Aberdeen_Regional_Airport,
3359,KABY,medium_airport,Southwest Georgia Regional Airport,31.532946,-84.196215,197,NA,US,US-GA,Albany,yes,KABY,ABY,ABY,,https://en.wikipedia.org/wiki/Southwest_Georgia_Regional_Airport,
3360,KACK,medium_airport,Nantucket Memorial Airport,41.25310135,-70.06020355,47,NA,US,US-MA,Nantucket,yes,KACK,ACK,ACK,,https://en.wikipedia.org/wiki/Nantucket_Memorial_Airport,
3361,KACT,medium_airport,Waco Regional Airport,31.61129951,-97.23049927,516,NA,US,US-TX,Waco,yes,KACT,ACT,ACT,,https://en.wikipedia.org/wiki/Waco_Regional_Airport,
3362,KACV,medium_airport,California Redwood Coast-Humboldt County Airport,40.978101,-124.109,221,NA,US,US-CA,Arcata/Eureka,yes,KACV,ACV,ACV,,https://en.wikipedia.org/wiki/Arcata-Eureka_Airport,Arcata Airport
3363,KACY,medium_airport,Atlantic City International Airport,39.45759964,-74.57720184,75,NA,US,US-NJ,Atlantic City,yes,KACY,ACY,ACY,,https://en.wikipedia.org/wiki/Atlantic_City_International_Airport,
3364,KADW,large_airport,Joint Base Andrews,38.810799,-76.866997,280,NA,US,US-MD,Camp Springs,no,KADW,ADW,ADW,http://www.jba.af.mil/,https://en.wikipedia.org/wiki/Joint_Base_Andrews,Andrews Air Force Base
3365,KAEX,medium_airport,Alexandria International Airport,31.3274,-92.549797,89,NA,US,US-LA,Alexandria,yes,KAEX,AEX,AEX,,https://en.wikipedia.org/wiki/Alexandria_International_Airport_(Louisiana),"England Air Park, England Air Force Base"
3366,KAFW,medium_airport,Perot Field/Fort Worth Alliance Airport,32.99044,-97.31947,722,NA,US,US-TX,Fort Worth,no,KAFW,AFW,AFW,http://www.allianceairport.com/,https://en.wikipedia.org/wiki/Fort_Worth_Alliance_Airport,
3367,KAGC,medium_airport,Allegheny County Airport,40.354401,-79.930199,1252,NA,US,US-PA,Pittsburgh,no,KAGC,AGC,AGC,,https://en.wikipedia.org/wiki/Allegheny_County_Airport,
3368,KAGS,medium_airport,Augusta Regional At Bush Field,33.3699,-81.9645,144,NA,US,US-GA,Augusta,yes,KAGS,AGS,AGS,,https://en.wikipedia.org/wiki/Augusta_Regional_Airport,
3369,KAHN,medium_airport,Athens Ben Epps Airport,33.94860077,-83.32630157,808,NA,US,US-GA,Athens,yes,KAHN,AHN,AHN,,https://en.wikipedia.org/wiki/Athens-Ben_Epps_Airport,
3370,KAKR,medium_airport,Akron Executive Airport,41.037498,-81.466904,1067,NA,US,US-OH,Akron,no,KAKR,AKC,AKR,,https://en.wikipedia.org/wiki/Akron_Executive_Airport,"akron executive, akron fulton international"
3371,KALB,medium_airport,Albany International Airport,42.74829865,-73.80169678,285,NA,US,US-NY,Albany,yes,KALB,ALB,ALB,http://www.albanyairport.com/,https://en.wikipedia.org/wiki/Albany_International_Airport,
3372,KALI,medium_airport,Alice International Airport,27.7409,-98.026901,178,NA,US,US-TX,Alice,no,KALI,ALI,ALI,,https://en.wikipedia.org/wiki/Alice_International_Airport,
3373,KALM,medium_airport,Alamogordo White Sands Regional Airport,32.84051,-105.98794,4200,NA,US,US-NM,Alamogordo,no,KALM,ALM,ALM,,https://en.wikipedia.org/wiki/Alamogordo-White_Sands_Regional_Airport,
3374,KALN,medium_airport,St Louis Regional Airport,38.89030075,-90.04599762,544,NA,US,US-IL,Alton/St Louis,no,KALN,ALN,ALN,,https://en.wikipedia.org/wiki/St._Louis_Regional_Airport,Civic Memorial Airport
3375,KALO,medium_airport,Waterloo Regional Airport,42.55709839,-92.40029907,873,NA,US,US-IA,Waterloo,yes,KALO,ALO,ALO,,https://en.wikipedia.org/wiki/Waterloo_Regional_Airport,
19275,KALS,medium_airport,San Luis Valley Regional Airport/Bergman Field,37.434898,-105.866997,7539,NA,US,US-CO,Alamosa,yes,KALS,ALS,ALS,https://www.sanluisvalleyairport.org/,https://en.wikipedia.org/wiki/San_Luis_Valley_Regional_Airport,
3376,KALW,medium_airport,Walla Walla Regional Airport,46.09489822,-118.288002,1194,NA,US,US-WA,Walla Walla,yes,KALW,ALW,ALW,,https://en.wikipedia.org/wiki/Walla_Walla_Regional_Airport,
3377,KAMA,medium_airport,Rick Husband Amarillo International Airport,35.219398,-101.706001,3607,NA,US,US-TX,Amarillo,yes,KAMA,AMA,AMA,http://airport.amarillo.gov/,https://en.wikipedia.org/wiki/Rick_Husband_Amarillo_International_Airport,
3378,KANB,medium_airport,Anniston Regional Airport,33.5882,-85.8581,612,NA,US,US-AL,Anniston,no,KANB,ANB,ANB,,https://en.wikipedia.org/wiki/Anniston_Metropolitan_Airport,Anniston Metropolitan
3379,KAND,medium_airport,Anderson Regional Airport,34.49459839,-82.70939636,782,NA,US,US-SC,Anderson,no,KAND,AND,AND,,https://en.wikipedia.org/wiki/Anderson_Regional_Airport,
3380,KAOO,medium_airport,Altoona Blair County Airport,40.296398,-78.32,1503,NA,US,US-PA,Altoona,yes,KAOO,AOO,AOO,,https://en.wikipedia.org/wiki/Altoona-Blair_County_Airport,
19291,KAPA,medium_airport,Centennial Airport,39.57009888,-104.848999,5885,NA,US,US-CO,Denver,no,KAPA,APA,APA,,https://en.wikipedia.org/wiki/Centennial_Airport,Arapahoe County Airport
19293,KAPF,medium_airport,Naples Municipal Airport,26.15259933,-81.77529907,8,NA,US,US-FL,Naples,no,KAPF,APF,APF,,https://en.wikipedia.org/wiki/Naples_Municipal_Airport,
3381,KAPG,medium_airport,Phillips Army Air Field,39.466202,-76.1688,57,NA,US,US-MD,Aberdeen Proving Grounds(Aberdeen),no,KAPG,APG,APG,,https://en.wikipedia.org/wiki/Phillips_Army_Airfield,
3382,KAPN,medium_airport,Alpena County Regional Airport,45.0780983,-83.56030273,690,NA,US,US-MI,Alpena,yes,KAPN,APN,APN,,https://en.wikipedia.org/wiki/Alpena_County_Regional_Airport,
19301,KARA,medium_airport,Acadiana Regional Airport,30.0378,-91.883904,24,NA,US,US-LA,New Iberia,no,KARA,ARA,ARA,http://www.flyiberiaparish.com/,https://en.wikipedia.org/wiki/Acadiana_Regional_Airport,
3383,KART,medium_airport,Watertown International Airport,43.991901,-76.021698,325,NA,US,US-NY,Watertown,yes,KART,ART,ART,,https://en.wikipedia.org/wiki/Watertown_International_Airport,
19308,KASE,medium_airport,Aspen-Pitkin County Airport (Sardy Field),39.223202,-106.869003,7820,NA,US,US-CO,Aspen,yes,KASE,ASE,ASE,http://aspenairport.com/,https://en.wikipedia.org/wiki/Aspen%E2%80%93Pitkin_County_Airport,
19314,KAST,medium_airport,Astoria Regional Airport,46.15800095,-123.8789978,15,NA,US,US-OR,Astoria,no,KAST,AST,AST,,https://en.wikipedia.org/wiki/Astoria_Regional_Airport,
3384,KATL,large_airport,Hartsfield Jackson Atlanta International Airport,33.6367,-84.428101,1026,NA,US,US-GA,Atlanta,yes,KATL,ATL,ATL,http://www.atlanta-airport.com/,https://en.wikipedia.org/wiki/Hartsfieldâ€“Jackson_Atlanta_International_Airport,
3385,KATY,medium_airport,Watertown Regional Airport,44.91400146,-97.15470123,1749,NA,US,US-SD,Watertown,yes,KATY,ATY,ATY,,https://en.wikipedia.org/wiki/Watertown_Regional_Airport,
19321,KAUG,medium_airport,Augusta State Airport,44.3205986,-69.79730225,352,NA,US,US-ME,Augusta,yes,KAUG,AUG,AUG,,https://en.wikipedia.org/wiki/Augusta_State_Airport,
3386,KAUS,large_airport,Austin Bergstrom International Airport,30.197535,-97.662015,542,NA,US,US-TX,Austin,yes,KAUS,AUS,AUS,http://www.ci.austin.tx.us/austinairport/,https://en.wikipedia.org/wiki/Austin-Bergstrom_International_Airport,
19326,KAUW,medium_airport,Wausau Downtown Airport,44.92620087,-89.62660217,1201,NA,US,US-WI,Wausau,no,KAUW,AUW,AUW,http://www.ci.wausau.wi.us/Departments/Airport/GeneralInformation.aspx,https://en.wikipedia.org/wiki/Wausau_Downtown_Airport,
3387,KAVL,medium_airport,Asheville Regional Airport,35.436199,-82.541801,2165,NA,US,US-NC,Asheville,yes,KAVL,AVL,AVL,,https://en.wikipedia.org/wiki/Asheville_Regional_Airport,
3388,KAVP,medium_airport,Wilkes Barre Scranton International Airport,41.33850098,-75.7233963,962,NA,US,US-PA,Wilkes-Barre/Scranton,yes,KAVP,AVP,AVP,http://www.flyavp.com/,https://en.wikipedia.org/wiki/Wilkes-Barre/Scranton_International_Airport,
3389,KAXN,medium_airport,Chandler Field,45.866299,-95.394699,1425,NA,US,US-MN,Alexandria,no,KAXN,AXN,AXN,,https://en.wikipedia.org/wiki/Alexandria_Municipal_Airport,
3390,KAZO,medium_airport,Kalamazoo Battle Creek International Airport,42.23490143,-85.55210114,874,NA,US,US-MI,Kalamazoo,yes,KAZO,AZO,AZO,,https://en.wikipedia.org/wiki/Kalamazoo-Battle_Creek_International_Airport,
3391,KBAB,medium_airport,Beale Air Force Base,39.136101,-121.436996,113,NA,US,US-CA,Marysville,no,KBAB,BAB,BAB,,https://en.wikipedia.org/wiki/Beale_Air_Force_Base,
3392,KBAD,medium_airport,Barksdale Air Force Base,32.501801,-93.662697,166,NA,US,US-LA,Bossier City,no,KBAD,BAD,BAD,,https://en.wikipedia.org/wiki/Barksdale_Air_Force_Base,
3393,KBAF,medium_airport,Westfield-Barnes Regional Airport,42.157799,-72.715599,271,NA,US,US-MA,Westfield,no,KBAF,BAF,BAF,,https://en.wikipedia.org/wiki/Westfield-Barnes_Regional_Airport,"Barnes Municipal Airport, Springfield"
3394,KBAK,medium_airport,Columbus Municipal Airport,39.262386,-85.895576,656,NA,US,US-IN,Columbus,no,KBAK,CLU,BAK,,https://en.wikipedia.org/wiki/Columbus_Municipal_Airport_(Indiana),
19351,KBAZ,medium_airport,New Braunfels Municipal Airport,29.7045,-98.042198,651,NA,US,US-TX,New Braunfels,no,KBAZ,,BAZ,https://www.nbtexas.org/2393/Airport---KBAZ,https://en.wikipedia.org/wiki/New_Braunfels_Regional_Airport,"3R5, Clear Springs AFB"
19353,KBBD,medium_airport,Curtis Field,31.17930031,-99.32389832,1827,NA,US,US-TX,Brady,no,KBBD,BBD,BBD,,https://en.wikipedia.org/wiki/Curtis_Field,
19357,KBCE,medium_airport,Bryce Canyon Airport,37.70640183,-112.1449966,7590,NA,US,US-UT,Bryce Canyon,no,KBCE,BCE,BCE,http://www.brycecanyonairport.com/,https://en.wikipedia.org/wiki/Bryce_Canyon_Airport,
3395,KBDE,medium_airport,Baudette International Airport,48.72840118,-94.61219788,1086,NA,US,US-MN,Baudette,no,KBDE,BDE,BDE,,https://en.wikipedia.org/wiki/Baudette_International_Airport,
3396,KBDL,medium_airport,Bradley International Airport,41.93851,-72.688066,173,NA,US,US-CT,Hartford,yes,KBDL,BDL,BDL,http://www.bradleyairport.com/,https://en.wikipedia.org/wiki/Bradley_International_Airport,"HFD, Hartford"
3397,KBDR,medium_airport,Igor I Sikorsky Memorial Airport,41.16350174,-73.12619781,9,NA,US,US-CT,Bridgeport,yes,KBDR,BDR,BDR,,https://en.wikipedia.org/wiki/Sikorsky_Memorial_Airport,
3398,KBED,medium_airport,Laurence G Hanscom Field,42.47000122,-71.28900146,133,NA,US,US-MA,Bedford,no,KBED,BED,BED,http://www.massport.com/hansc/,https://en.wikipedia.org/wiki/Hanscom_Field,Hanscom Air Force Base
3399,KBFD,medium_airport,Bradford Regional Airport,41.80310059,-78.64009857,2143,NA,US,US-PA,Bradford,yes,KBFD,BFD,BFD,,https://en.wikipedia.org/wiki/Bradford_Regional_Airport,
3400,KBFF,medium_airport,Western Neb. Rgnl/William B. Heilig Airport,41.87400055,-103.5960007,3967,NA,US,US-NE,Scottsbluff,yes,KBFF,BFF,BFF,,https://en.wikipedia.org/wiki/Western_Nebraska_Regional_Airport,William B. Heilig Field
3401,KBFI,medium_airport,Boeing Field King County International Airport,47.529999,-122.302002,21,NA,US,US-WA,Seattle,yes,KBFI,BFI,BFI,,https://en.wikipedia.org/wiki/Boeing_Field,
3402,KBFL,medium_airport,Meadows Field,35.433601,-119.056999,510,NA,US,US-CA,Bakersfield,yes,KBFL,BFL,BFL,,https://en.wikipedia.org/wiki/Meadows_Field_Airport,
3403,KBFM,medium_airport,Mobile Downtown Airport,30.62680054,-88.06809998,26,NA,US,US-AL,Mobile,no,KBFM,BFM,BFM,,https://en.wikipedia.org/wiki/Mobile_Downtown_Airport,
3404,KBGM,medium_airport,Greater Binghamton/Edwin A Link field,42.20869827,-75.97979736,1636,NA,US,US-NY,Binghamton,yes,KBGM,BGM,BGM,http://binghamtonairport.com/,https://en.wikipedia.org/wiki/Greater_Binghamton_Airport,"Broome County Airport, Edwin A Link Field"
3405,KBGR,medium_airport,Bangor International Airport,44.8074,-68.828102,192,NA,US,US-ME,Bangor,yes,KBGR,BGR,BGR,,https://en.wikipedia.org/wiki/Bangor_International_Airport,
19373,KBHB,medium_airport,Hancock County-Bar Harbor Airport,44.45000076,-68.3615036,83,NA,US,US-ME,Bar Harbor,yes,KBHB,BHB,BHB,,https://en.wikipedia.org/wiki/Hancock_County-Bar_Harbor_Airport,
3406,KBHM,medium_airport,Birmingham-Shuttlesworth International Airport,33.562901,-86.753502,650,NA,US,US-AL,Birmingham,yes,KBHM,BHM,BHM,http://www.flybirmingham.com/,https://en.wikipedia.org/wiki/Birmingham_International_Airport_(US),
3407,KBIF,medium_airport,Biggs Army Air Field (Fort Bliss),31.84950066,-106.3799973,3946,NA,US,US-TX,Fort Bliss/El Paso,no,KBIF,BIF,BIF,https://www.bliss.army.mil/biggs/,https://en.wikipedia.org/wiki/Biggs_Army_Airfield,Fort Bliss
19377,KBIH,medium_airport,Eastern Sierra Regional Airport,37.37310028,-118.3639984,4124,NA,US,US-CA,Bishop,no,KBIH,BIH,BIH,http://www.inyocounty.us/Airport/index.html,https://en.wikipedia.org/wiki/Eastern_Sierra_Regional_Airport,
3408,KBIL,medium_airport,Billings Logan International Airport,45.807701,-108.542999,3652,NA,US,US-MT,Billings,yes,KBIL,BIL,BIL,,https://en.wikipedia.org/wiki/Billings_Logan_International_Airport,
3409,KBIS,medium_airport,Bismarck Municipal Airport,46.77270126,-100.7460022,1661,NA,US,US-ND,Bismarck,yes,KBIS,BIS,BIS,http://bismarckairport.com/,https://en.wikipedia.org/wiki/Bismarck_Municipal_Airport,
3410,KBIX,medium_airport,Keesler Air Force Base,30.41040039,-88.92440033,33,NA,US,US-MS,Biloxi,no,KBIX,BIX,BIX,,https://en.wikipedia.org/wiki/Keesler_Air_Force_Base,
3411,KBJC,medium_airport,Rocky Mountain Metropolitan Airport,39.90879822,-105.1169968,5673,NA,US,US-CO,Denver,no,KBJC,BJC,BJC,,https://en.wikipedia.org/wiki/Rocky_Mountain_Metropolitan_Airport,"Jefferson County Airport, Jeffco Airport"
19380,KBJI,medium_airport,Bemidji Regional Airport,47.50939941,-94.93370056,1391,NA,US,US-MN,Bemidji,no,KBJI,BJI,BJI,http://www.bemidjiairport.org/,https://en.wikipedia.org/wiki/Bemidji_Regional_Airport,
3412,KBKE,medium_airport,Baker City Municipal Airport,44.83729935,-117.8089981,3373,NA,US,US-OR,Baker City,no,KBKE,BKE,BKE,http://www.bakeraircraft.com/,https://en.wikipedia.org/wiki/Baker_City_Municipal_Airport,
3413,KBKF,medium_airport,Buckley Space Force Base,39.701698,-104.751999,5662,NA,US,US-CO,Aurora,no,KBKF,BFK,BKF,https://www.buckley.spaceforce.mil/,https://en.wikipedia.org/wiki/Buckley_Space_Force_Base,"Buckley AFB, Buckley ANGB, Denver NAS, Buckley Field, Demolition Bombing Rangeâ€“Lowry Auxiliary Field"
3414,KBKL,medium_airport,Burke Lakefront Airport,41.51750183,-81.6832962,583,NA,US,US-OH,Cleveland,no,KBKL,BKL,BKL,http://www.clevelandairport.com/site/470/default.aspx,https://en.wikipedia.org/wiki/Cleveland_Burke_Lakefront_Airport,
3415,KBKW,medium_airport,Raleigh County Memorial Airport,37.78730011,-81.12419891,2504,NA,US,US-WV,Beckley,yes,KBKW,BKW,BKW,,https://en.wikipedia.org/wiki/Beckley_Raleigh_County_Memorial_Airport,
19387,KBLF,medium_airport,Mercer County Airport,37.295799,-81.207703,2857,NA,US,US-WV,Bluefield,yes,KBLF,BLF,BLF,,https://en.wikipedia.org/wiki/Mercer_County_Airport_(West_Virginia),
19388,KBLH,medium_airport,Blythe Airport,33.61920166,-114.7170029,399,NA,US,US-CA,Blythe,no,KBLH,BLH,BLH,,https://en.wikipedia.org/wiki/Blythe_Airport,
3416,KBLI,medium_airport,Bellingham International Airport,48.7928009,-122.538002,170,NA,US,US-WA,Bellingham,yes,KBLI,BLI,BLI,,https://en.wikipedia.org/wiki/Bellingham_International_Airport,
3417,KBLV,medium_airport,Scott AFB/Midamerica Airport,38.5452,-89.835197,459,NA,US,US-IL,Belleville,yes,KBLV,BLV,BLV,,https://en.wikipedia.org/wiki/Scott_Air_Force_Base,Scott Air Force Base
3418,KBMG,medium_airport,Monroe County Airport,39.14599991,-86.61669922,846,NA,US,US-IN,Bloomington,no,KBMG,BMG,BMG,,https://en.wikipedia.org/wiki/Monroe_County_Airport_(Indiana),
3419,KBMI,medium_airport,Central Illinois Regional Airport at Bloomington-Normal,40.4771,-88.915901,871,NA,US,US-IL,Bloomington/Normal,yes,KBMI,BMI,BMI,,https://en.wikipedia.org/wiki/Central_Illinois_Regional_Airport,
3420,KBNA,large_airport,Nashville International Airport,36.12450027,-86.67819977,599,NA,US,US-TN,Nashville,yes,KBNA,BNA,BNA,,https://en.wikipedia.org/wiki/Nashville_International_Airport,
19397,KBNO,medium_airport,Burns Municipal Airport,43.590463,-118.955154,4148,NA,US,US-OR,Burns,no,KBNO,BNO,BNO,http://www.ci.burns.or.us/airport.html,https://en.wikipedia.org/wiki/Burns_Municipal_Airport,
3421,KBOI,medium_airport,Boise Air Terminal/Gowen Field,43.5644,-116.223,2871,NA,US,US-ID,Boise,yes,KBOI,BOI,BOI,http://www.cityofboise.org/departments/airport/,https://en.wikipedia.org/wiki/Boise_Airport,"Boise Air Terminal, Gowen Field"
3422,KBOS,large_airport,Logan International Airport,42.3643,-71.005203,20,NA,US,US-MA,Boston,yes,KBOS,BOS,BOS,http://www.massport.com/logan/,https://en.wikipedia.org/wiki/Logan_International_Airport,General Edward Lawrence Logan International Airport
19401,KBPI,medium_airport,Miley Memorial Field,42.58509827,-110.1110001,6990,NA,US,US-WY,Big Piney,no,KBPI,BPI,BPI,,https://en.wikipedia.org/wiki/Miley_Memorial_Field,Big Piney-Marbleton Airport
19402,KBPK,medium_airport,Ozark Regional Airport,36.3689003,-92.47049713,928,NA,US,US-AR,Mountain Home,no,KBPK,WMH,BPK,http://www.flytheozarks.com/,https://en.wikipedia.org/wiki/Ozark_Regional_Airport,Baxter County Regional Airport
3423,KBPT,medium_airport,Jack Brooks Regional Airport,29.9508,-94.020699,15,NA,US,US-TX,Beaumont/Port Arthur,yes,KBPT,BPT,BPT,https://flysetx.com/,https://en.wikipedia.org/wiki/Jack_Brooks_Regional_Airport,Southeast Texas Regional
3424,KBQK,medium_airport,Brunswick Golden Isles Airport,31.25880051,-81.46649933,26,NA,US,US-GA,Brunswick,yes,KBQK,BQK,BQK,,https://en.wikipedia.org/wiki/Brunswick_Golden_Isles_Airport,
19406,KBRD,medium_airport,Brainerd Lakes Regional Airport,46.402861,-94.129727,1232,NA,US,US-MN,Brainerd,yes,KBRD,BRD,BRD,http://brainerdairport.com/,https://en.wikipedia.org/wiki/Brainerd_Lakes_Regional_Airport,Crow Wing County Airport
3425,KBRL,medium_airport,Southeast Iowa Regional Airport,40.78319931,-91.12550354,698,NA,US,US-IA,Burlington,yes,KBRL,BRL,BRL,,https://en.wikipedia.org/wiki/Southeast_Iowa_Regional_Airport,
3426,KBRO,medium_airport,Brownsville South Padre Island International Airport,25.90679932,-97.42590332,22,NA,US,US-TX,Brownsville,yes,KBRO,BRO,BRO,,https://en.wikipedia.org/wiki/Brownsville/South_Padre_Island_International_Airport,
3427,KBTL,medium_airport,Battle Creek Executive Airport at Kellogg Field,42.307301,-85.251503,952,NA,US,US-MI,Battle Creek,no,KBTL,BTL,BTL,http://www.battlecreekmi.gov/City_Government/Departments/W_K__Kellogg_Airport.htm,https://en.wikipedia.org/wiki/W.K._Kellogg_Regional_Airport,W K Kellogg
3428,KBTM,medium_airport,Bert Mooney Airport,45.95479965,-112.4970016,5550,NA,US,US-MT,Butte,yes,KBTM,BTM,BTM,,https://en.wikipedia.org/wiki/Bert_Mooney_Airport,
3429,KBTR,medium_airport,Baton Rouge Metropolitan Airport,30.533199,-91.149597,70,NA,US,US-LA,Baton Rouge,yes,KBTR,BTR,BTR,,https://en.wikipedia.org/wiki/Baton_Rouge_Metropolitan_Airport,
3430,KBTV,medium_airport,Burlington International Airport,44.471901,-73.153297,335,NA,US,US-VT,South Burlington,yes,KBTV,BTV,BTV,http://www.vermontairports.com/btv.html,https://en.wikipedia.org/wiki/Burlington_International_Airport,
3431,KBUF,large_airport,Buffalo Niagara International Airport,42.94049835,-78.73220062,728,NA,US,US-NY,Buffalo,yes,KBUF,BUF,BUF,,https://en.wikipedia.org/wiki/Buffalo_Niagara_International_Airport,
3432,KBUR,medium_airport,Bob Hope Airport,34.197703,-118.356378,778,NA,US,US-CA,Burbank,yes,KBUR,BUR,BUR,,,
19417,KBVI,medium_airport,Beaver County Airport,40.772499,-80.391403,1253,NA,US,US-PA,Beaver Falls,no,KBVI,BFP,BVI,,https://en.wikipedia.org/wiki/Beaver_County_Airport,
3433,KBVY,medium_airport,Beverly Regional Airport,42.584202,-70.916496,107,NA,US,US-MA,Beverly / Danvers,no,KBVY,BVY,BVY,http://www.beverlyairport.com/,https://en.wikipedia.org/wiki/Beverly_Municipal_Airport,
3434,KBWG,medium_airport,Bowling Green Warren County Regional Airport,36.96450043,-86.41970062,547,NA,US,US-KY,Bowling Green,no,KBWG,BWG,BWG,,https://en.wikipedia.org/wiki/Bowling_Green-Warren_County_Regional_Airport,
3435,KBWI,large_airport,Baltimore/Washington International Thurgood Marshall Airport,39.1754,-76.668297,146,NA,US,US-MD,Baltimore,yes,KBWI,BWI,BWI,https://www.bwiairport.com/,https://en.wikipedia.org/wiki/Baltimore%E2%80%93Washington_International_Airport,WAS
3436,KBYH,medium_airport,Arkansas International Airport,35.96429825,-89.94400024,254,NA,US,US-AR,Blytheville,no,KBYH,BYH,BYH,,https://en.wikipedia.org/wiki/Arkansas_International_Airport,"Blytheville AFB, Eaker AFB"
19429,KBYI,medium_airport,Burley Municipal Airport,42.54259872,-113.7720032,4150,NA,US,US-ID,Burley,no,KBYI,BYI,BYI,http://burleyidaho.org/city-of-burley/airport/,https://en.wikipedia.org/wiki/Burley_Municipal_Airport,J R Jack Simplot Airport
19430,KBYS,medium_airport,Bicycle Lake Army Air Field,35.2804985,-116.6299973,2350,NA,US,US-CA,Fort Irwin/Barstow,no,KBYS,BYS,BYS,,https://en.wikipedia.org/wiki/Bicycle_Lake_Army_Airfield,
3437,KBZN,medium_airport,Gallatin Field,45.77750015,-111.1529999,4473,NA,US,US-MT,Bozeman,yes,KBZN,BZN,BZN,,https://en.wikipedia.org/wiki/Gallatin_Field_Airport,
3438,KCAE,medium_airport,Columbia Metropolitan Airport,33.938801,-81.119499,236,NA,US,US-SC,Columbia,yes,KCAE,CAE,CAE,,https://en.wikipedia.org/wiki/Columbia_Metropolitan_Airport,
3439,KCAK,medium_airport,Akron Canton Regional Airport,40.91609955,-81.44219971,1228,NA,US,US-OH,Akron,yes,KCAK,CAK,CAK,,https://en.wikipedia.org/wiki/Akron-Canton_Regional_Airport,
3440,KCAR,medium_airport,Caribou Municipal Airport,46.871498,-68.017899,626,NA,US,US-ME,Caribou,no,KCAR,CAR,CAR,,https://en.wikipedia.org/wiki/Caribou_Municipal_Airport,
3441,KCBM,medium_airport,Columbus Air Force Base,33.643799,-88.443802,219,NA,US,US-MS,Columbus,no,KCBM,CBM,CBM,,https://en.wikipedia.org/wiki/Columbus_Air_Force_Base,
19470,KCCY,medium_airport,Northeast Iowa Regional Airport,43.07260132,-92.6108017,1125,NA,US,US-IA,Charles City,no,KCCY,CCY,CCY,,https://en.wikipedia.org/wiki/Northeast_Iowa_Regional_Airport,Charles City Municipal Airport
3442,KCDC,medium_airport,Cedar City Regional Airport,37.70100021,-113.098999,5622,NA,US,US-UT,Cedar City,yes,KCDC,CDC,CDC,,https://en.wikipedia.org/wiki/Cedar_City_Regional_Airport,
19474,KCDR,medium_airport,Chadron Municipal Airport,42.83760071,-103.0950012,3297,NA,US,US-NE,Chadron,no,KCDR,CDR,CDR,,https://en.wikipedia.org/wiki/Chadron_Municipal_Airport,
19475,KCDS,medium_airport,Childress Municipal Airport,34.43379974,-100.288002,1954,NA,US,US-TX,Childress,no,KCDS,CDS,CDS,,https://en.wikipedia.org/wiki/Childress_Municipal_Airport,
3443,KCEC,medium_airport,Jack Mc Namara Field Airport,41.78020096,-124.2369995,61,NA,US,US-CA,Crescent City,yes,KCEC,CEC,CEC,,https://en.wikipedia.org/wiki/Del_Norte_County_Airport,Jack McNamara Field
3444,KCEF,medium_airport,Westover Metropolitan Airport / Westover Air Reserve Base,42.194,-72.534798,241,NA,US,US-MA,Chicopee,no,KCEF,CEF,CEF,,https://en.wikipedia.org/wiki/Westover_Air_Reserve_Base/Metropolitan_Airport,
3445,KCEW,medium_airport,Bob Sikes Airport,30.77879906,-86.52210236,213,NA,US,US-FL,Crestview,no,KCEW,CEW,CEW,http://www.flycew.com/,https://en.wikipedia.org/wiki/Bob_Sikes_Airport,
3446,KCGF,medium_airport,Cuyahoga County Airport,41.56510162,-81.48639679,879,NA,US,US-OH,Cleveland,no,KCGF,CGF,CGF,http://publicworks.cuyahogacounty.us/en-US/County-Airport.aspx,https://en.wikipedia.org/wiki/Cuyahoga_County_Airport,
3447,KCGI,medium_airport,Cape Girardeau Regional Airport,37.2253,-89.570801,342,NA,US,US-MO,Cape Girardeau,yes,KCGI,CGI,CGI,,https://en.wikipedia.org/wiki/Cape_Girardeau_Regional_Airport,
3448,KCHA,medium_airport,Chattanooga Metropolitan Airport (Lovell Field),35.035301,-85.203796,683,NA,US,US-TN,Chattanooga,yes,KCHA,CHA,CHA,,https://en.wikipedia.org/wiki/Chattanooga_Metropolitan_Airport,
3449,KCHO,medium_airport,Charlottesville Albemarle Airport,38.1385994,-78.45290375,639,NA,US,US-VA,Charlottesville,yes,KCHO,CHO,CHO,,https://en.wikipedia.org/wiki/Charlottesville-Albemarle_Airport,
3450,KCHS,medium_airport,Charleston International Airport,32.898602,-80.040497,46,NA,US,US-SC,Charleston,yes,KCHS,CHS,CHS,,https://en.wikipedia.org/wiki/Charleston_International_Airport,Charleston Air Force Base
3451,KCID,medium_airport,The Eastern Iowa Airport,41.884701,-91.7108,869,NA,US,US-IA,Cedar Rapids,yes,KCID,CID,CID,,https://en.wikipedia.org/wiki/The_Eastern_Iowa_Airport,Cedar Rapids Municipal
3452,KCIU,medium_airport,Chippewa County International Airport,46.25080109,-84.47239685,800,NA,US,US-MI,Sault Ste Marie,yes,KCIU,CIU,CIU,,https://en.wikipedia.org/wiki/Chippewa_County_International_Airport,
3453,KCKB,medium_airport,North Central West Virginia Airport,39.2966,-80.228104,1217,NA,US,US-WV,Bridgeport,yes,KCKB,CKB,CKB,,https://en.wikipedia.org/wiki/Harrison/Marion_Regional_Airport,
3454,KCLE,large_airport,Cleveland Hopkins International Airport,41.4117012,-81.84980011,791,NA,US,US-OH,Cleveland,yes,KCLE,CLE,CLE,http://www.clevelandairport.com/,https://en.wikipedia.org/wiki/Cleveland_Hopkins_International_Airport,
3455,KCLL,medium_airport,Easterwood Field,30.58860016,-96.36380005,320,NA,US,US-TX,College Station,yes,KCLL,CLL,CLL,,https://en.wikipedia.org/wiki/Easterwood_Airport,
3456,KCLM,medium_airport,William R Fairchild International Airport,48.12020111,-123.5,291,NA,US,US-WA,Port Angeles,yes,KCLM,CLM,CLM,,https://en.wikipedia.org/wiki/William_R._Fairchild_International_Airport,
3457,KCLT,large_airport,Charlotte Douglas International Airport,35.2140007,-80.94309998,748,NA,US,US-NC,Charlotte,yes,KCLT,CLT,CLT,http://www.charlotteairport.com/,https://en.wikipedia.org/wiki/Charlotte/Douglas_International_Airport,
19517,KCMA,large_airport,Camarillo International Airport,34.213699,-119.094002,77,NA,US,US-CA,Camarillo,no,KCMA,,CMA,,https://en.wikipedia.org/wiki/Camarillo_Airport,
3458,KCMH,large_airport,John Glenn Columbus International Airport,39.998001,-82.891899,815,NA,US,US-OH,Columbus,yes,KCMH,CMH,CMH,https://flycolumbus.com/,https://en.wikipedia.org/wiki/Port_Columbus_International_Airport,
3459,KCMI,medium_airport,University of Illinois Willard Airport,40.039819,-88.276249,755,NA,US,US-IL,Savoy,yes,KCMI,CMI,CMI,,https://en.wikipedia.org/wiki/University_of_Illinois_Willard_Airport,"Champaign, Urbana"
3460,KCMX,medium_airport,Houghton County Memorial Airport,47.16839981,-88.4890976,1095,NA,US,US-MI,Hancock,yes,KCMX,CMX,CMX,,https://en.wikipedia.org/wiki/Houghton_County_Memorial_Airport,
3461,KCNM,medium_airport,Cavern City Air Terminal,32.33750153,-104.2630005,3295,NA,US,US-NM,Carlsbad,yes,KCNM,CNM,CNM,,https://en.wikipedia.org/wiki/Cavern_City_Air_Terminal,
19527,KCNU,medium_airport,Chanute Martin Johnson Airport,37.668173,-95.486727,1002,NA,US,US-KS,Chanute,no,KCNU,CNU,CNU,http://www.chanute.org/index.aspx?NID=65,https://en.wikipedia.org/wiki/Chanute_Martin_Johnson_Airport,
19530,KCOD,medium_airport,Yellowstone Regional Airport,44.52019882,-109.0240021,5102,NA,US,US-WY,Cody,no,KCOD,COD,COD,http://www.flyyra.com/,https://en.wikipedia.org/wiki/Yellowstone_Regional_Airport,
19531,KCOE,medium_airport,Coeur D'Alene - Pappy Boyington Field,47.77429962,-116.8199997,2320,NA,US,US-ID,Coeur d'Alene,no,KCOE,COE,COE,http://www.cdaairport.com/,https://en.wikipedia.org/wiki/Coeur_d'Alene_Airport,Coeur d'Alene Air Terminal
3462,KCOF,medium_airport,Patrick Space Force Base,28.2349,-80.6101,8,NA,US,US-FL,Cocoa Beach,no,KCOF,COF,COF,http://www.patrick.af.mil/,https://en.wikipedia.org/wiki/Patrick_Air_Force_Base,Naval Air Station Banana River
19534,KCON,medium_airport,Concord Municipal Airport,43.20270157,-71.50229645,342,NA,US,US-NH,Concord,no,KCON,CON,CON,http://www.concordnh.gov/facilities/facility/details/Concord-Municipal-Airport-31,https://en.wikipedia.org/wiki/Concord_Municipal_Airport,
3463,KCOS,medium_airport,City of Colorado Springs Municipal Airport,38.805801,-104.700996,6187,NA,US,US-CO,Colorado Springs,yes,KCOS,COS,COS,https://flycos.coloradosprings.gov/,https://en.wikipedia.org/wiki/Colorado_Springs_Airport,
3464,KCOU,medium_airport,Columbia Regional Airport,38.8181,-92.219597,889,NA,US,US-MO,Columbia,yes,KCOU,COU,COU,,https://en.wikipedia.org/wiki/Columbia_Regional_Airport,
348516,KCPF,medium_airport,Wendell H Ford Airport,37.386666,-83.261666,1256,NA,US,US-KY,Hazard,no,,,CPF,,,
3465,KCPR,medium_airport,Casper-Natrona County International Airport,42.908001,-106.463997,5350,NA,US,US-WY,Casper,yes,KCPR,CPR,CPR,,https://en.wikipedia.org/wiki/Natrona_County_International_Airport,
19549,KCRE,medium_airport,Grand Strand Airport,33.81169891,-78.72389984,32,NA,US,US-SC,North Myrtle Beach,no,KCRE,CRE,CRE,,https://en.wikipedia.org/wiki/Grand_Strand_Airport,
19550,KCRG,medium_airport,Jacksonville Executive at Craig Airport,30.3362999,-81.51439667,41,NA,US,US-FL,Jacksonville,no,KCRG,CRG,CRG,http://www.flyjacksonville.com/content.aspx?id=86,https://en.wikipedia.org/wiki/Jacksonville_Executive_at_Craig_Airport,Craig Municipal Airport
3466,KCRP,medium_airport,Corpus Christi International Airport,27.770399,-97.501198,44,NA,US,US-TX,Corpus Christi,yes,KCRP,CRP,CRP,,https://en.wikipedia.org/wiki/Corpus_Christi_International_Airport,
19552,KCRQ,medium_airport,McClellan-Palomar Airport,33.1283,-117.279999,331,NA,US,US-CA,Carlsbad,no,KCRQ,CLD,CRQ,,https://en.wikipedia.org/wiki/McClellan-Palomar_Airport,
3467,KCRW,medium_airport,Yeager Airport,38.3731,-81.593201,981,NA,US,US-WV,Charleston,yes,KCRW,CRW,CRW,,https://en.wikipedia.org/wiki/Yeager_Airport,
3468,KCSG,medium_airport,Columbus Metropolitan Airport,32.5163002,-84.93890381,397,NA,US,US-GA,Columbus,yes,KCSG,CSG,CSG,,https://en.wikipedia.org/wiki/Columbus_Metropolitan_Airport,
3469,KCSV,medium_airport,Crossville Memorial Whitson Field,35.95130157,-85.08499908,1881,NA,US,US-TN,Crossville,no,KCSV,CSV,CSV,http://www.crossvilletn.gov/index.php/departments/airport,,
3470,KCTB,medium_airport,Cut Bank International Airport,48.608657,-112.378183,3854,NA,US,US-MT,Cut Bank,no,KCTB,CTB,CTB,http://www.cutbankairport.org/,https://en.wikipedia.org/wiki/Cut_Bank_Municipal_Airport,
19564,KCUB,medium_airport,Jim Hamilton L.B. Owens Airport,33.97050095,-80.99520111,193,NA,US,US-SC,Columbia,no,KCUB,CUB,CUB,http://www.columbiasouthcarolina.com/owens.html,https://en.wikipedia.org/wiki/Jim_Hamilton_%E2%80%93_L.B._Owens_Airport,
3471,KCVG,large_airport,Cincinnati Northern Kentucky International Airport,39.048801,-84.667801,896,NA,US,US-KY,Cincinnati / Covington,yes,KCVG,CVG,CVG,,https://en.wikipedia.org/wiki/Cincinnati/Northern_Kentucky_International_Airport,
3472,KCVO,medium_airport,Corvallis Municipal Airport,44.49720001,-123.2900009,250,NA,US,US-OR,Corvallis,no,KCVO,CVO,CVO,http://www.corvallisoregon.gov/index.aspx?page=160,https://en.wikipedia.org/wiki/Corvallis_Municipal_Airport,Albany Oregon
3473,KCVS,medium_airport,Cannon Air Force Base,34.382801,-103.321999,4295,NA,US,US-NM,Clovis,no,KCVS,CVS,CVS,http://www.cannon.af.mil/,https://en.wikipedia.org/wiki/Cannon_Air_Force_Base,
19571,KCWA,medium_airport,Central Wisconsin Airport,44.77759933,-89.66680145,1277,NA,US,US-WI,Mosinee,no,KCWA,CWA,CWA,,,
3475,KCXO,medium_airport,Conroe-North Houston Regional Airport,30.351801,-95.414497,245,NA,US,US-TX,Houston,no,KCXO,CXO,CXO,https://web.archive.org/web/20160301220928/http://www.lonestarairport.org:80/,https://en.wikipedia.org/wiki/Lone_Star_Executive_Airport,"Montgomery County Airport, Lone Star Executive Airport"
3476,KCYS,medium_airport,Cheyenne Regional Jerry Olson Field,41.155701,-104.811997,6159,NA,US,US-WY,Cheyenne,yes,KCYS,,CYS,,https://en.wikipedia.org/wiki/Cheyenne_Regional_Airport,
3477,KDAA,medium_airport,Davison Army Air Field,38.71500015,-77.18099976,73,NA,US,US-VA,Fort Belvoir,no,KDAA,DAA,DAA,,https://en.wikipedia.org/wiki/Davison_Army_Airfield,
3478,KDAB,medium_airport,Daytona Beach International Airport,29.179899,-81.058098,34,NA,US,US-FL,Daytona Beach,yes,KDAB,DAB,DAB,,https://en.wikipedia.org/wiki/Daytona_Beach_International_Airport,
19615,KDAG,medium_airport,Barstow Daggett Airport,34.85369873,-116.7870026,1930,NA,US,US-CA,Daggett,no,KDAG,DAG,DAG,,https://en.wikipedia.org/wiki/Barstow-Daggett_Airport,
3479,KDAL,medium_airport,Dallas Love Field,32.847099,-96.851799,487,NA,US,US-TX,Dallas,yes,KDAL,DAL,DAL,http://www.dallas-lovefield.com/,https://en.wikipedia.org/wiki/Dallas_Love_Field,QDF
3480,KDAN,medium_airport,Danville Regional Airport,36.572899,-79.336098,571,NA,US,US-VA,Danville,no,KDAN,DAN,DAN,,,
3481,KDAY,medium_airport,James M Cox Dayton International Airport,39.902401,-84.219398,1009,NA,US,US-OH,Dayton,yes,KDAY,DAY,DAY,,https://en.wikipedia.org/wiki/Dayton_International_Airport,
3482,KDBQ,medium_airport,Dubuque Regional Airport,42.402,-90.709503,1077,NA,US,US-IA,Dubuque,yes,KDBQ,DBQ,DBQ,,https://en.wikipedia.org/wiki/Dubuque_Regional_Airport,
3483,KDCA,large_airport,Ronald Reagan Washington National Airport,38.8521,-77.037697,15,NA,US,US-DC,Washington,yes,KDCA,DCA,DCA,http://www.flyreagan.com/dca/reagan-national-airport,https://en.wikipedia.org/wiki/Ronald_Reagan_Washington_National_Airport,WAS
3484,KDDC,medium_airport,Dodge City Regional Airport,37.76340103,-99.96559906,2594,NA,US,US-KS,Dodge City,yes,KDDC,DDC,DDC,,https://en.wikipedia.org/wiki/Dodge_City_Regional_Airport,
3485,KDEC,medium_airport,Decatur Airport,39.83459854,-88.86569977,682,NA,US,US-IL,Decatur,yes,KDEC,DEC,DEC,,https://en.wikipedia.org/wiki/Decatur_Airport,
3486,KDEN,large_airport,Denver International Airport,39.86169815,-104.6729965,5431,NA,US,US-CO,Denver,yes,KDEN,DEN,DEN,http://www.flydenver.com/,https://en.wikipedia.org/wiki/Denver_International_Airport,"DVX, KVDX"
3487,KDET,medium_airport,Coleman A. Young Municipal Airport,42.40919876,-83.00990295,626,NA,US,US-MI,Detroit,no,KDET,DET,DET,,https://en.wikipedia.org/wiki/Coleman_A._Young_International_Airport,
3488,KDFW,large_airport,Dallas Fort Worth International Airport,32.896801,-97.038002,607,NA,US,US-TX,Dallas-Fort Worth,yes,KDFW,DFW,DFW,https://www.dfwairport.com/,https://en.wikipedia.org/wiki/Dallas/Fort_Worth_International_Airport,QDF
3489,KDHN,medium_airport,Dothan Regional Airport,31.32130051,-85.44960022,401,NA,US,US-AL,Dothan,yes,KDHN,DHN,DHN,,https://en.wikipedia.org/wiki/Dothan_Regional_Airport,
19628,KDHT,medium_airport,Dalhart Municipal Airport,36.02259827,-102.5469971,3991,NA,US,US-TX,Dalhart,no,KDHT,DHT,DHT,,https://en.wikipedia.org/wiki/Dalhart_Municipal_Airport,
19630,KDIK,medium_airport,Dickinson Theodore Roosevelt Regional Airport,46.79740143,-102.802002,2592,NA,US,US-ND,Dickinson,no,KDIK,DIK,DIK,http://dickinsonairport.com/,https://en.wikipedia.org/wiki/Dickinson_Theodore_Roosevelt_Regional_Airport,
3490,KDLF,medium_airport,Laughlin Air Force Base,29.359501,-100.778002,1082,NA,US,US-TX,Del Rio,no,KDLF,DLF,DLF,http://www.laughlin.af.mil/,https://en.wikipedia.org/wiki/Laughlin_Air_Force_Base,"Laughlin AFB, Laughlin Field, DLF Airport"
3491,KDLH,medium_airport,Duluth International Airport,46.842098,-92.193604,1428,NA,US,US-MN,Duluth,yes,KDLH,DLH,DLH,http://www.duluthairport.com/,https://en.wikipedia.org/wiki/Duluth_International_Airport,"LKI, Duluth Air National Guard Base, Lakeside AFB"
19640,KDLS,medium_airport,Columbia Gorge Regional Airport,45.620979,-121.170777,247,NA,US,US-OR,Dallesport / The Dalles,no,KDLS,DLS,DLS,http://www.columbiagorgeairport.com/,https://en.wikipedia.org/wiki/Columbia_Gorge_Regional_Airport,The Dalles Municipal Airport
3492,KDMA,medium_airport,Davis Monthan Air Force Base,32.16650009,-110.8830032,2704,NA,US,US-AZ,Tucson,no,KDMA,DMA,DMA,,https://en.wikipedia.org/wiki/Davis-Monthan_Air_Force_Base,
3493,KDMN,medium_airport,Deming Municipal Airport,32.26229858,-107.7210007,4314,NA,US,US-NM,Deming,no,KDMN,DMN,DMN,http://www.cityofdeming.org/deming-community/municipal-airport,https://en.wikipedia.org/wiki/Deming_Municipal_Airport,
19644,KDNL,medium_airport,Daniel Field,33.46649933,-82.03939819,423,NA,US,US-GA,Augusta,no,KDNL,DNL,DNL,http://www.augustaga.gov/index.aspx?NID=486,https://en.wikipedia.org/wiki/Daniel_Field,
3494,KDOV,medium_airport,Dover Air Force Base,39.129501,-75.466003,24,NA,US,US-DE,Dover,no,KDOV,DOV,DOV,http://www.dover.af.mil/,https://en.wikipedia.org/wiki/Dover_Air_Force_Base,"Municipal Airport - Dover Airdrome, Dover Army Airbase, Dover Army Airfield"
19648,KDPA,medium_airport,Dupage Airport,41.90779877,-88.24859619,759,NA,US,US-IL,Chicago/West Chicago,no,KDPA,DPA,DPA,http://www.dupageairport.com/,https://en.wikipedia.org/wiki/DuPage_Airport,
19652,KDRA,medium_airport,Desert Rock Airport,36.6194,-116.032997,3314,NA,US,US-NV,Mercury,no,KDRA,DRA,NV65,,https://en.wikipedia.org/wiki/Desert_Rock_Airport,Formerly DRA
3495,KDRI,medium_airport,Beauregard Regional Airport,30.831699,-93.339897,202,NA,US,US-LA,DeRidder,no,KDRI,DRI,DRI,,https://en.wikipedia.org/wiki/Beauregard_Regional_Airport,"Beauregard Parish, DeRidder Army Air Base"
19655,KDRT,medium_airport,Del Rio International Airport,29.37420082,-100.927002,1002,NA,US,US-TX,Del Rio,no,KDRT,DRT,DRT,http://www.cityofdelrio.com/index.aspx?NID=412,https://en.wikipedia.org/wiki/Del_Rio_International_Airport,
3496,KDSM,medium_airport,Des Moines International Airport,41.534,-93.663101,958,NA,US,US-IA,Des Moines,yes,KDSM,DSM,DSM,,https://en.wikipedia.org/wiki/Des_Moines_International_Airport,
3497,KDTW,large_airport,Detroit Metropolitan Wayne County Airport,42.21239853,-83.35340118,645,NA,US,US-MI,Detroit,yes,KDTW,DTW,DTW,http://www.metroairport.com/,https://en.wikipedia.org/wiki/Detroit_Metropolitan_Wayne_County_Airport,"DTT, Detroit Metro Airport"
19664,KDUG,medium_airport,Bisbee Douglas International Airport,31.46899986,-109.6039963,4154,NA,US,US-AZ,Douglas Bisbee,no,KDUG,DUG,DUG,http://www.azdot.gov/mpd/airport_development/airports/airports_list.asp?FAA=DUG,https://en.wikipedia.org/wiki/Bisbee-Douglas_International_Airport,
3498,KDUJ,medium_airport,DuBois Regional Airport,41.17829895,-78.8986969,1817,NA,US,US-PA,Dubois,yes,KDUJ,DUJ,DUJ,,https://en.wikipedia.org/wiki/DuBois_Regional_Airport,DuBois Jefferson County
3499,KDYS,medium_airport,Dyess Air Force Base,32.420799,-99.854599,1789,NA,US,US-TX,Abilene,no,KDYS,DYS,DYS,http://www.dyess.af.mil/,https://en.wikipedia.org/wiki/Dyess_Air_Force_Base,
19716,KEAR,medium_airport,Kearney Regional Airport,40.727001,-99.006798,2131,NA,US,US-NE,Kearney,yes,KEAR,EAR,EAR,,https://en.wikipedia.org/wiki/Kearney_Municipal_Airport,
19717,KEAT,medium_airport,Pangborn Memorial Airport,47.39889908,-120.2070007,1249,NA,US,US-WA,Wenatchee,no,KEAT,EAT,EAT,http://www.pangbornairport.com/,https://en.wikipedia.org/wiki/Pangborn_Memorial_Airport,
3501,KEAU,medium_airport,Chippewa Valley Regional Airport,44.86579895,-91.48429871,913,NA,US,US-WI,Eau Claire,yes,KEAU,EAU,EAU,,https://en.wikipedia.org/wiki/Chippewa_Valley_Regional_Airport,
3502,KECG,medium_airport,Elizabeth City Regional Airport & Coast Guard Air Station,36.260601,-76.174599,11,NA,US,US-NC,Elizabeth City,no,KECG,ECG,ECG,http://www.ecgairport.com/,https://en.wikipedia.org/wiki/Elizabeth_City_Regional_Airport,
46530,KECP,medium_airport,Northwest Florida Beaches International Airport,30.357106,-85.795414,69,NA,US,US-FL,Panama City Beach,yes,KECP,ECP,ECP,http://iflybeaches.com,https://en.wikipedia.org/wiki/Northwest_Florida_Beaches_International_Airport,Northwest Florida Beaches International Airport
3503,KEDW,medium_airport,Edwards Air Force Base,34.905399,-117.884003,2312,NA,US,US-CA,Edwards,no,KEDW,EDW,EDW,,https://en.wikipedia.org/wiki/Edwards_Air_Force_Base,
19727,KEED,medium_airport,Needles Airport,34.7663002,-114.6230011,983,NA,US,US-CA,Needles,no,KEED,EED,EED,http://cms.sbcounty.gov/airports/Airports/Needles.aspx,https://en.wikipedia.org/wiki/Needles_Airport,Needles AAF
3504,KEEN,medium_airport,Dillant Hopkins Airport,42.898399,-72.270798,488,NA,US,US-NH,Keene,no,KEEN,EEN,EEN,https://ci.keene.nh.us/keene-dillant-hopkins-airport,https://en.wikipedia.org/wiki/Dillant-Hopkins_Airport,
19729,KEET,medium_airport,Shelby County Airport,33.17699814,-86.78279877,586,NA,US,US-AL,Alabaster,no,KEET,,EET,https://al-shelbycountytourism.civicplus.com/index.aspx?nid=109,https://en.wikipedia.org/wiki/Shelby_County_Airport_(Alabama),21A
19731,KEFD,medium_airport,Ellington Airport,29.6072998,-95.15879822,32,NA,US,US-TX,Houston,no,KEFD,EFD,EFD,,https://en.wikipedia.org/wiki/Ellington_Airport_(Texas),Ellington Field
3505,KEGE,medium_airport,Eagle County Regional Airport,39.64260101,-106.9179993,6548,NA,US,US-CO,Eagle,yes,KEGE,EGE,EGE,http://www.eaglecounty.us/airport/,https://en.wikipedia.org/wiki/Eagle_County_Regional_Airport,
19735,KEGI,medium_airport,Duke Field,30.65040016,-86.52290344,191,NA,US,US-FL,Crestview,no,KEGI,EGI,EGI,http://www.919sow.afrc.af.mil/,https://en.wikipedia.org/wiki/Duke_Field,Eglin AF Auxiliary Number 3
3506,KEKA,medium_airport,Murray Field,40.80339813,-124.112999,7,NA,US,US-CA,Eureka,no,KEKA,EKA,EKA,,https://en.wikipedia.org/wiki/Murray_Field,
3507,KEKN,medium_airport,Elkins-Randolph County Regional Airport,38.889759,-79.857651,1987,NA,US,US-WV,Elkins,no,KEKN,EKN,EKN,http://www.elkinsairport.com/,,
3508,KEKO,medium_airport,Elko Regional Airport,40.82490158,-115.7919998,5140,NA,US,US-NV,Elko,yes,KEKO,EKO,EKO,,https://en.wikipedia.org/wiki/Elko_Regional_Airport,
3509,KELD,medium_airport,South Arkansas Regional Airport at Goodwin Field,33.221001,-92.813301,277,NA,US,US-AR,El Dorado,yes,KELD,ELD,ELD,,https://en.wikipedia.org/wiki/South_Arkansas_Regional_Airport_at_Goodwin_Field,
3510,KELM,medium_airport,Elmira Corning Regional Airport,42.15990067,-76.89160156,954,NA,US,US-NY,Elmira/Corning,yes,KELM,ELM,ELM,,https://en.wikipedia.org/wiki/Elmira-Corning_Regional_Airport,
3511,KELO,medium_airport,Ely Municipal Airport,47.82450104,-91.83070374,1456,NA,US,US-MN,Ely,no,KELO,LYU,ELO,http://www.ely.mn.us/index.asp?Type=B_BASIC&SEC=%7B936B252D-C48B-42BD-B996-37F320A6CFF7%7D,https://en.wikipedia.org/wiki/Ely_Municipal_Airport,
3512,KELP,medium_airport,El Paso International Airport,31.80719948,-106.3779984,3959,NA,US,US-TX,El Paso,yes,KELP,ELP,ELP,,https://en.wikipedia.org/wiki/El_Paso_International_Airport,
19753,KELY,medium_airport,Ely Airport Yelland Field,39.29970169,-114.8420029,6259,NA,US,US-NV,Ely,no,KELY,ELY,ELY,,https://en.wikipedia.org/wiki/Ely_Airport,
3513,KEND,medium_airport,Vance Air Force Base,36.339199,-97.916496,1307,NA,US,US-OK,Enid,no,KEND,END,END,http://www.vance.af.mil/,https://en.wikipedia.org/wiki/Vance_Air_Force_Base,
19760,KENV,medium_airport,Wendover Airport,40.71870041,-114.0309982,4237,NA,US,US-UT,Wendover,no,KENV,ENV,ENV,,https://en.wikipedia.org/wiki/Wendover_Airport,Wendover AFB
3514,KENW,medium_airport,Kenosha Regional Airport,42.59569931,-87.92780304,742,NA,US,US-WI,Kenosha,no,KENW,ENW,ENW,http://www.kenosha.org/departments/airport/,https://en.wikipedia.org/wiki/Kenosha_Regional_Airport,
3515,KERI,medium_airport,Erie International Tom Ridge Field,42.083127,-80.173867,732,NA,US,US-PA,Erie,yes,KERI,ERI,ERI,,https://en.wikipedia.org/wiki/Erie_International_Airport,
3516,KESF,medium_airport,Esler Army Airfield / Esler Regional Airport,31.394266,-92.294082,112,NA,US,US-LA,Alexandria,no,KESF,ESF,ESF,http://www.alexandria-louisiana.com/esler-field-louisiana.htm,https://en.wikipedia.org/wiki/Esler_Airfield,"Camp Beauregard Army Field, Esler Army Airfield"
3517,KEUG,medium_airport,Mahlon Sweet Field,44.12459946,-123.211998,374,NA,US,US-OR,Eugene,yes,KEUG,EUG,EUG,,https://en.wikipedia.org/wiki/Eugene_Airport,
3518,KEVV,medium_airport,Evansville Regional Airport,38.03699875,-87.53240204,418,NA,US,US-IN,Evansville,yes,KEVV,EVV,EVV,,https://en.wikipedia.org/wiki/Evansville_Regional_Airport,
19782,KEVW,medium_airport,Evanston-Uinta County Airport-Burns Field,41.27479935,-111.0350037,7143,NA,US,US-WY,Evanston,no,KEVW,EVW,EVW,,,
3519,KEWB,medium_airport,New Bedford Regional Airport,41.67610168,-70.95690155,80,NA,US,US-MA,New Bedford,yes,KEWB,EWB,EWB,,https://en.wikipedia.org/wiki/New_Bedford_Regional_Airport,
3520,KEWN,medium_airport,Coastal Carolina Regional Airport,35.07300186,-77.04290009,18,NA,US,US-NC,New Bern,yes,KEWN,EWN,EWN,,https://en.wikipedia.org/wiki/Craven_County_Regional_Airport,
3521,KEWR,large_airport,Newark Liberty International Airport,40.692501,-74.168701,18,NA,US,US-NJ,Newark,yes,KEWR,EWR,EWR,http://www.panynj.gov/CommutingTravel/airports/html/newarkliberty.html,https://en.wikipedia.org/wiki/Newark_Liberty_International_Airport,"Manhattan, New York City, NYC"
3522,KEYW,medium_airport,Key West International Airport,24.556101,-81.759598,3,NA,US,US-FL,Key West,yes,KEYW,EYW,EYW,,https://en.wikipedia.org/wiki/Key_West_International_Airport,
19843,KFAF,medium_airport,Felker Army Air Field,37.1325,-76.608803,12,NA,US,US-VA,Newport News (Fort Eustis),no,KFAF,FAF,FAF,,,
3523,KFAR,medium_airport,Hector International Airport,46.92070007,-96.81580353,902,NA,US,US-ND,Fargo,yes,KFAR,FAR,FAR,http://www.fargoairport.com/,https://en.wikipedia.org/wiki/Hector_International_Airport,"119th Wing, Happy Hooligans"
3524,KFAT,medium_airport,Fresno Yosemite International Airport,36.776199,-119.718002,336,NA,US,US-CA,Fresno,yes,KFAT,FAT,FAT,https://flyfresno.com/,https://en.wikipedia.org/wiki/Fresno_Yosemite_International_Airport,
3525,KFAY,medium_airport,Fayetteville Regional Airport - Grannis Field,34.991199,-78.880302,189,NA,US,US-NC,Fayetteville,yes,KFAY,FAY,FAY,,https://en.wikipedia.org/wiki/Fayetteville_Regional_Airport,
3526,KFBG,medium_airport,Simmons Army Air Field,35.13180161,-78.93669891,244,NA,US,US-NC,Fort Bragg,no,KFBG,FBG,FBG,,https://en.wikipedia.org/wiki/Simmons_Army_Airfield,
19851,KFCS,medium_airport,Butts AAF (Fort Carson) Air Field,38.67839813,-104.7570038,5838,NA,US,US-CO,Fort Carson,no,KFCS,FCS,FCS,,,
19857,KFDY,medium_airport,Findlay Airport,41.01350021,-83.66870117,813,NA,US,US-OH,Findlay,no,KFDY,FDY,FDY,http://www.ci.findlay.oh.us/?id=56,https://en.wikipedia.org/wiki/Findlay_Airport,
3528,KFFO,medium_airport,Wright-Patterson Air Force Base,39.826099,-84.048302,823,NA,US,US-OH,Dayton,no,KFFO,FFO,FFO,http://www.wpafb.af.mil/,https://en.wikipedia.org/wiki/Wright-Patterson_Air_Force_Base,"Wilbur Wright Field, Fairfield Air Depot"
3529,KFHU,medium_airport,Sierra Vista Municipal Airport / Libby Army Air Field,31.587383,-110.348225,4719,NA,US,US-AZ,Fort Huachuca / Sierra Vista,yes,KFHU,FHU,FHU,,https://en.wikipedia.org/wiki/Sierra_Vista_Municipal_Airport,"fort huachuca, sierra vista, libby"
19872,KFKL,medium_airport,Venango Regional Airport,41.37789917,-79.86039734,1540,NA,US,US-PA,Franklin,no,KFKL,FKL,FKL,,https://en.wikipedia.org/wiki/Venango_Regional_Airport,
3530,KFLG,medium_airport,Flagstaff Pulliam International Airport,35.1385,-111.670998,7014,NA,US,US-AZ,Flagstaff,yes,KFLG,FLG,FLG,,https://en.wikipedia.org/wiki/Flagstaff_Pulliam_Airport,
3531,KFLL,large_airport,Fort Lauderdale Hollywood International Airport,26.072599,-80.152702,9,NA,US,US-FL,Fort Lauderdale,yes,KFLL,FLL,FLL,http://www.broward.org/airport,https://en.wikipedia.org/wiki/Fort_Lauderdaleâ€“Hollywood_International_Airport,"MFW, South Florida"
3532,KFLO,medium_airport,Florence Regional Airport,34.1853981,-79.72389984,146,NA,US,US-SC,Florence,yes,KFLO,FLO,FLO,,https://en.wikipedia.org/wiki/Florence_Regional_Airport,
3534,KFME,medium_airport,Tipton Airport,39.08539963,-76.75939941,150,NA,US,US-MD,Fort Meade(Odenton),no,KFME,FME,FME,http://tiptonairport.org/,https://en.wikipedia.org/wiki/Tipton_Airport,Fort George G. Meade Army Airfield
19881,KFMN,medium_airport,Four Corners Regional Airport,36.741199,-108.230003,5506,NA,US,US-NM,Farmington,no,KFMN,FMN,FMN,,https://en.wikipedia.org/wiki/Four_Corners_Regional_Airport,
19882,KFMY,medium_airport,Page Field,26.58659935,-81.86329651,17,NA,US,US-FL,Fort Myers,no,KFMY,FMY,FMY,http://www.flylcpa.com/aboutfmy,https://en.wikipedia.org/wiki/Page_Field,
3535,KFNT,medium_airport,Bishop International Airport,42.9654007,-83.74359894,782,NA,US,US-MI,Flint,yes,KFNT,FNT,FNT,,https://en.wikipedia.org/wiki/Bishop_International_Airport,
3536,KFOD,medium_airport,Fort Dodge Regional Airport,42.55149841,-94.19259644,1156,NA,US,US-IA,Fort Dodge,yes,KFOD,FOD,FOD,,https://en.wikipedia.org/wiki/Fort_Dodge_Regional_Airport,
3537,KFOE,medium_airport,Topeka Regional Airport,38.950901,-95.663597,1078,NA,US,US-KS,Topeka,no,KFOE,FOE,FOE,,https://en.wikipedia.org/wiki/Topeka_Regional_Airport,"Topeka Army Airfield, Forbes AFB, Forbes Field"
3538,KFPR,medium_airport,St Lucie County International Airport,27.49510002,-80.36830139,24,NA,US,US-FL,Fort Pierce,no,KFPR,FPR,FPR,,https://en.wikipedia.org/wiki/St._Lucie_County_International_Airport,
3539,KFRG,medium_airport,Republic Airport,40.72880173,-73.41339874,82,NA,US,US-NY,Farmingdale,no,KFRG,FRG,FRG,http://www.republicairport.net/,https://en.wikipedia.org/wiki/Republic_Airport,Fairchild Flying Field
3540,KFRI,medium_airport,Marshall Army Air Field,39.053021,-96.764202,1065,NA,US,US-KS,Fort Riley (Junction City),no,KFRI,FRI,FRI,,https://en.wikipedia.org/wiki/Marshall_Army_Airfield,
3541,KFSD,medium_airport,Sioux Falls Regional Airport / Joe Foss Field,43.585463,-96.741152,1429,NA,US,US-SD,Sioux Falls,yes,KFSD,FSD,FSD,http://www.sfairport.com/,https://en.wikipedia.org/wiki/Sioux_Falls_Regional_Airport,"Joe Foss Field, Fighting Lobos, Sioux Falls Army Air Base, 114th Fighter Wing, Sioux Falls Regional Airport"
3542,KFSI,medium_airport,Henry Post Army Air Field (Fort Sill),34.64979935,-98.40219879,1189,NA,US,US-OK,Fort Sill,no,KFSI,FSI,FSI,http://sill-www.army.mil/History/Airfield/henrypost.htm,https://en.wikipedia.org/wiki/Henry_Post_Army_Airfield,
3543,KFSM,medium_airport,Fort Smith Regional Airport,35.336601,-94.367401,469,NA,US,US-AR,Fort Smith,yes,KFSM,FSM,FSM,,https://en.wikipedia.org/wiki/Fort_Smith_Regional_Airport,
19900,KFST,medium_airport,Fort Stockton Pecos County Airport,30.91570091,-102.9160004,3011,NA,US,US-TX,Fort Stockton,no,KFST,FST,FST,,https://en.wikipedia.org/wiki/Fort_Stockton%E2%80%93Pecos_County_Airport,"Gibbs Field, Fort Stockton Field"
3544,KFTK,medium_airport,Godman Army Air Field,37.90710068,-85.9720993,756,NA,US,US-KY,Fort Knox,no,KFTK,FTK,FTK,,https://en.wikipedia.org/wiki/Godman_Army_Airfield,
3545,KFTW,medium_airport,Fort Worth Meacham International Airport,32.819801,-97.362396,710,NA,US,US-TX,Fort Worth,no,KFTW,FTW,FTW,http://meacham.com/,https://en.wikipedia.org/wiki/Fort_Worth_Meacham_International_Airport,
3546,KFTY,medium_airport,Fulton County Airport Brown Field,33.77909851,-84.52140045,841,NA,US,US-GA,Atlanta,no,KFTY,FTY,FTY,http://www.fultoncountyga.gov/component/content/article/223-general-services/2098-fulton-county-airport-brown-field,https://en.wikipedia.org/wiki/Fulton_County_Airport_(Georgia),
3547,KFWA,medium_airport,Fort Wayne International Airport,40.9785,-85.195099,814,NA,US,US-IN,Fort Wayne,yes,KFWA,FWA,FWA,https://fwairport.com/,https://en.wikipedia.org/wiki/Fort_Wayne_International_Airport,Baer Field
19912,KFXE,medium_airport,Fort Lauderdale Executive Airport,26.19729996,-80.17070007,13,NA,US,US-FL,Fort Lauderdale,no,KFXE,FXE,FXE,http://www.fortlauderdale.gov/fxE/index.htm,https://en.wikipedia.org/wiki/Fort_Lauderdale_Executive_Airport,West Prospect Satellite Field
3548,KFYV,medium_airport,Drake Field,36.00510025,-94.17009735,1251,NA,US,US-AR,Fayetteville,no,KFYV,FYV,FYV,,https://en.wikipedia.org/wiki/Drake_Field,
19929,KGCC,medium_airport,Northeast Wyoming Regional Airport,44.3489,-105.539001,4365,NA,US,US-WY,Gillette,yes,KGCC,GCC,GCC,http://www.iflygillette.com/,https://en.wikipedia.org/wiki/Gillette%E2%80%93Campbell_County_Airport,Gillette Campbell County Airport
3550,KGCK,medium_airport,Garden City Regional Airport,37.92750168,-100.723999,2891,NA,US,US-KS,Garden City,yes,KGCK,GCK,GCK,,https://en.wikipedia.org/wiki/Garden_City_Regional_Airport,
3551,KGCN,medium_airport,Grand Canyon National Park Airport,35.9524,-112.147003,6609,NA,US,US-AZ,Grand Canyon - Tusayan,yes,KGCN,GCN,GCN,http://www.azdot.gov/aviation/airports/airports_list.asp?FAA=GCN,https://en.wikipedia.org/wiki/Grand_Canyon_National_Park_Airport,
19936,KGDV,medium_airport,Dawson Community Airport,47.13869858,-104.8069992,2458,NA,US,US-MT,Glendive,no,KGDV,GDV,GDV,,,
3552,KGEG,medium_airport,Spokane International Airport,47.6199,-117.533997,2376,NA,US,US-WA,Spokane,yes,KGEG,GEG,GEG,,https://en.wikipedia.org/wiki/Spokane_International_Airport,
3553,KGFK,medium_airport,Grand Forks International Airport,47.949299,-97.176102,845,NA,US,US-ND,Grand Forks,yes,KGFK,GFK,GFK,http://www.gfkairport.com/,https://en.wikipedia.org/wiki/Grand_Forks_International_Airport,
3554,KGFL,medium_airport,Floyd Bennett Memorial Airport,43.34120178,-73.61029816,328,NA,US,US-NY,Glens Falls,no,KGFL,GFL,GFL,http://www.warrencountydpw.com/airport_07/,https://en.wikipedia.org/wiki/Floyd_Bennett_Memorial_Airport,
3555,KGGG,medium_airport,East Texas Regional Airport,32.38399887,-94.71150208,365,NA,US,US-TX,Longview,yes,KGGG,GGG,GGG,,https://en.wikipedia.org/wiki/East_Texas_Regional_Airport,
3556,KGGW,medium_airport,Wokal Field/Glasgow-Valley County Airport,48.212502,-106.614998,2296,NA,US,US-MT,Glasgow,yes,KGGW,GGW,GGW,http://www.glasgowmtairport.com/,https://en.wikipedia.org/wiki/Glasgow_Airport_(US),"Glascow / Valley County, Glasgow AAF, Wokal Field Glasgow International"
3557,KGJT,medium_airport,Grand Junction Regional Airport,39.126663,-108.529387,4858,NA,US,US-CO,Grand Junction,yes,KGJT,GJT,GJT,http://www.gjairport.com/,https://en.wikipedia.org/wiki/Grand_Junction_Regional_Airport,
19956,KGLD,medium_airport,Goodland Municipal Airport,39.370701,-101.699753,3656,NA,US,US-KS,Goodland,no,KGLD,GLD,GLD,,https://en.wikipedia.org/wiki/Goodland_Municipal_Airport,Renner Field
19958,KGLH,medium_airport,Mid Delta Regional Airport,33.48289871,-90.98560333,131,NA,US,US-MS,Greenville,yes,KGLH,GLH,GLH,,,
3558,KGLS,medium_airport,Scholes International At Galveston Airport,29.26530075,-94.86039734,6,NA,US,US-TX,Galveston,no,KGLS,GLS,GLS,,,
19963,KGMU,medium_airport,Greenville Downtown Airport,34.847903,-82.350217,1048,NA,US,US-SC,Greenville,no,KGMU,GMU,GMU,http://www.greenvilledowntownairport.com/,https://en.wikipedia.org/wiki/Greenville_Downtown_Airport,
3559,KGNV,medium_airport,Gainesville Regional Airport,29.69009972,-82.27179718,152,NA,US,US-FL,Gainesville,yes,KGNV,GNV,GNV,,https://en.wikipedia.org/wiki/Gainesville_Regional_Airport,
3560,KGON,medium_airport,Groton New London Airport,41.330101,-72.045097,9,NA,US,US-CT,Groton,no,KGON,GON,GON,,https://en.wikipedia.org/wiki/Groton-New_London_Airport,New London
3527,KGPI,medium_airport,Glacier Park International Airport,48.3105011,-114.2559967,2977,NA,US,US-MT,Kalispell,yes,KGPI,FCA,GPI,http://www.iflyglacier.com/,https://en.wikipedia.org/wiki/Glacier_Park_International_Airport,Formerly KFCA
3561,KGPT,medium_airport,Gulfport Biloxi International Airport,30.407301,-89.070099,28,NA,US,US-MS,Gulfport,yes,KGPT,GPT,GPT,,https://en.wikipedia.org/wiki/Gulfport-Biloxi_International_Airport,
3562,KGRB,medium_airport,Austin Straubel International Airport,44.483459,-88.130805,695,NA,US,US-WI,Green Bay,yes,KGRB,GRB,GRB,,https://en.wikipedia.org/wiki/Austin_Straubel_International_Airport,
3563,KGRF,medium_airport,Gray Army Air Field,47.07920074,-122.5810013,300,NA,US,US-WA,Fort Lewis/Tacoma,no,KGRF,GRF,GRF,,https://en.wikipedia.org/wiki/Gray_Army_Airfield,
3564,KGRI,medium_airport,Central Nebraska Regional Airport,40.96749878,-98.30960083,1847,NA,US,US-NE,Grand Island,yes,KGRI,GRI,GRI,,https://en.wikipedia.org/wiki/Central_Nebraska_Regional_Airport,
3565,KGRK,medium_airport,Killeen-Fort Hood Regional Airport / Robert Gray Army Air Field,31.0672,-97.828903,1015,NA,US,US-TX,Killeen,yes,KGRK,GRK,GRK,,https://en.wikipedia.org/wiki/Killeen-Fort_Hood_Regional_Airport,Robert Gray Army Air Field
3566,KGRR,medium_airport,Gerald R. Ford International Airport,42.88079834,-85.52279663,794,NA,US,US-MI,Grand Rapids,yes,KGRR,GRR,GRR,,https://en.wikipedia.org/wiki/Gerald_R._Ford_International_Airport,
3567,KGSB,medium_airport,Seymour Johnson Air Force Base,35.339401,-77.960602,109,NA,US,US-NC,Goldsboro,no,KGSB,GSB,GSB,http://www.seymourjohnson.af.mil/,https://en.wikipedia.org/wiki/Seymour_Johnson_Air_Force_Base,
3568,KGSO,medium_airport,Piedmont Triad International Airport,36.097801,-79.937302,925,NA,US,US-NC,Greensboro,yes,KGSO,GSO,GSO,,https://en.wikipedia.org/wiki/Piedmont_Triad_International_Airport,
3569,KGSP,medium_airport,Greenville Spartanburg International Airport,34.895699,-82.218903,964,NA,US,US-SC,Greer,yes,KGSP,GSP,GSP,,https://en.wikipedia.org/wiki/Greenville-Spartanburg_International_Airport,
3570,KGTB,medium_airport,Wheeler Sack Army Air Field,44.05559921,-75.71949768,688,NA,US,US-NY,Fort Drum,no,KGTB,,GTB,,https://en.wikipedia.org/wiki/Wheeler-Sack_Army_Airfield,
3571,KGTF,medium_airport,Great Falls International Airport,47.48199844,-111.3710022,3680,NA,US,US-MT,Great Falls,yes,KGTF,GTF,GTF,,https://en.wikipedia.org/wiki/Great_Falls_International_Airport,
19982,KGTR,medium_airport,Golden Triangle Regional Airport,33.45029831,-88.59140015,264,NA,US,US-MS,Columbus/W Point/Starkville,yes,KGTR,GTR,GTR,,,
3572,KGUP,medium_airport,Gallup Municipal Airport,35.51110077,-108.7890015,6472,NA,US,US-NM,Gallup,no,KGUP,GUP,GUP,,https://en.wikipedia.org/wiki/Gallup_Municipal_Airport,
3573,KGUS,medium_airport,Grissom Air Reserve Base,40.648102,-86.1521,812,NA,US,US-IN,Peru,no,KGUS,GUS,GUS,http://www.grissom.afrc.af.mil/,https://en.wikipedia.org/wiki/Grissom_Air_Reserve_Base,
19985,KGUY,medium_airport,Guymon Municipal Airport,36.68510056,-101.5080032,3123,NA,US,US-OK,Guymon,no,KGUY,GUY,GUY,http://www.guymonok.org/index.aspx?NID=179,https://en.wikipedia.org/wiki/Guymon_Municipal_Airport,
3574,KGWO,medium_airport,Greenwoodâ€“Leflore Airport,33.49430084,-90.08470154,162,NA,US,US-MS,Greenwood,no,KGWO,GWO,GWO,http://greenwoodms.com/index.aspx?nid=113,https://en.wikipedia.org/wiki/Greenwood%E2%80%93Leflore_Airport,
3575,KGYY,medium_airport,Gary Chicago International Airport,41.61629868,-87.41280365,591,NA,US,US-IN,Gary,no,KGYY,GYY,GYY,,https://en.wikipedia.org/wiki/Gary/Chicago_International_Airport,
20027,KHBG,medium_airport,Hattiesburg Bobby L Chain Municipal Airport,31.26479912,-89.25279999,151,NA,US,US-MS,Hattiesburg,no,KHBG,HBG,HBG,,https://en.wikipedia.org/wiki/Hattiesburg_Bobby_L._Chain_Municipal_Airport,
20029,KHBR,medium_airport,Hobart Regional Airport,34.991317,-99.051313,1563,NA,US,US-OK,Hobart,no,KHBR,HBR,HBR,,https://en.wikipedia.org/wiki/Hobart_Regional_Airport,
3576,KHFD,medium_airport,Hartford Brainard Airport,41.73669815,-72.6493988,18,NA,US,US-CT,Hartford,no,KHFD,HFD,HFD,,https://en.wikipedia.org/wiki/Hartford-Brainard_Airport,
3577,KHGR,medium_airport,Hagerstown Regional Richard A Henson Field,39.707901,-77.72949982,703,NA,US,US-MD,Hagerstown,no,KHGR,HGR,HGR,,https://en.wikipedia.org/wiki/Hagerstown_Regional_Airport,
3578,KHHR,medium_airport,Jack Northrop Field Hawthorne Municipal Airport,33.922798,-118.334999,66,NA,US,US-CA,Hawthorne,no,KHHR,HHR,HHR,,https://en.wikipedia.org/wiki/Hawthorne_Municipal_Airport_(California),
3579,KHIB,medium_airport,Range Regional Airport,47.3866,-92.838997,1354,NA,US,US-MN,Hibbing,yes,KHIB,HIB,HIB,,https://en.wikipedia.org/wiki/Range_Regional_Airport,Chisholm Hibbing Airport
3580,KHIF,medium_airport,Hill Air Force Base,41.12403,-111.973086,4789,NA,US,US-UT,Ogden,no,KHIF,HIF,HIF,http://www.hill.af.mil/,https://en.wikipedia.org/wiki/Hill_Air_Force_Base,Hill Field
20053,KHII,medium_airport,Lake Havasu City International Airport,34.571098,-114.358002,783,NA,US,US-AZ,Lake Havasu City,yes,KHII,HII,HII,,https://en.wikipedia.org/wiki/Lake_Havasu_City_Airport,
20054,KHIO,medium_airport,Portland Hillsboro Airport,45.540401,-122.949997,208,NA,US,US-OR,Portland,no,KHIO,HIO,HIO,http://www.flypdx.com/Airports/Hillsboro/,https://en.wikipedia.org/wiki/Hillsboro_Airport,
3581,KHKY,medium_airport,Hickory Regional Airport,35.74110031,-81.38950348,1190,NA,US,US-NC,Hickory,no,KHKY,HKY,HKY,,https://en.wikipedia.org/wiki/Hickory_Regional_Airport,
20061,KHLG,medium_airport,Wheeling Ohio County Airport,40.17499924,-80.64630127,1195,NA,US,US-WV,Wheeling,no,KHLG,HLG,HLG,,https://en.wikipedia.org/wiki/Wheeling_Ohio_County_Airport,
3582,KHLN,medium_airport,Helena Regional Airport,46.6068,-111.983002,3877,NA,US,US-MT,Helena,yes,KHLN,HLN,HLN,,https://en.wikipedia.org/wiki/Helena_Regional_Airport,
3583,KHLR,medium_airport,Hood Army Air Field,31.1387,-97.7145,924,NA,US,US-TX,Fort Hood,no,KHLR,HLR,HLR,,https://en.wikipedia.org/wiki/Hood_Army_Airfield,
3584,KHMN,medium_airport,Holloman Air Force Base,32.852501,-106.107002,4093,NA,US,US-NM,Alamogordo,no,KHMN,HMN,HMN,http://www.holloman.af.mil/,https://en.wikipedia.org/wiki/Holloman_Air_Force_Base,Alamogordo AAF
20071,KHOB,medium_airport,Lea County Regional Airport,32.6875,-103.2170029,3661,NA,US,US-NM,Hobbs,no,KHOB,HOB,HOB,,https://en.wikipedia.org/wiki/Lea_County_Regional_Airport,
3585,KHON,medium_airport,Huron Regional Airport,44.3852005,-98.22850037,1289,NA,US,US-SD,Huron,yes,KHON,HON,HON,,https://en.wikipedia.org/wiki/Huron_Regional_Airport,
3586,KHOP,medium_airport,Campbell Army Airfield (Fort Campbell),36.674154,-87.48974,573,NA,US,US-KY,Fort Campbell,no,KHOP,HOP,HOP,,https://en.wikipedia.org/wiki/Campbell_Army_Airfield,"Campbell AFB, Hopkinsville"
3587,KHOT,medium_airport,Memorial Field Airport,34.4788,-93.096262,540,NA,US,US-AR,Hot Springs,yes,KHOT,HOT,HOT,,https://en.wikipedia.org/wiki/Hot_Springs_Memorial_Field_Airport,
3588,KHOU,medium_airport,William P Hobby Airport,29.645399,-95.2789,46,NA,US,US-TX,Houston,yes,KHOU,HOU,HOU,http://www.fly2houston.com/hobbyHome,https://en.wikipedia.org/wiki/William_P._Hobby_Airport,QHO
3589,KHPN,medium_airport,Westchester County Airport,41.06700134,-73.70760345,439,NA,US,US-NY,White Plains,yes,KHPN,HPN,HPN,,https://en.wikipedia.org/wiki/Westchester_County_Airport,"Manhattan, New York City, NYC"
3590,KHQM,medium_airport,Bowerman Airport,46.97119904,-123.9369965,18,NA,US,US-WA,Hoquiam,no,KHQM,HQM,HQM,http://www.portofgraysharbor.com/airport/airport.php,https://en.wikipedia.org/wiki/Bowerman_Airport,
3591,KHRL,medium_airport,Valley International Airport,26.22850037,-97.65440369,36,NA,US,US-TX,Harlingen,yes,KHRL,HRL,HRL,,https://en.wikipedia.org/wiki/Valley_International_Airport,
3592,KHRO,medium_airport,Boone County Airport,36.26150131,-93.15470123,1365,NA,US,US-AR,Harrison,yes,KHRO,HRO,HRO,,https://en.wikipedia.org/wiki/Boone_County_Airport,
20081,KHRT,medium_airport,Hurlburt Field,30.42779922,-86.68930054,38,NA,US,US-FL,Mary Esther,no,KHRT,,HRT,,,
3593,KHST,medium_airport,Homestead ARB Airport,25.48859978,-80.38359833,5,NA,US,US-FL,Homestead,no,KHST,HST,HST,http://www.homestead.afrc.af.mil/,https://en.wikipedia.org/wiki/Homestead_Air_Reserve_Base,Dade County Airport
3594,KHSV,medium_airport,Huntsville International Carl T Jones Field,34.637199,-86.775101,629,NA,US,US-AL,Huntsville,yes,KHSV,HSV,HSV,http://www.flyhuntsville.com/portal/#.VbaG-_lVhBc,https://en.wikipedia.org/wiki/Huntsville_International_Airport,
3595,KHTS,medium_airport,Tri-State Airport / Milton J. Ferguson Field,38.366699,-82.557999,828,NA,US,US-WV,Huntington,yes,KHTS,HTS,HTS,,https://en.wikipedia.org/wiki/Tri-State_Airport,
3596,KHUA,medium_airport,Redstone Army Air Field,34.67869949,-86.68479919,684,NA,US,US-AL,Redstone Arsnl Huntsville,no,KHUA,HUA,HUA,,https://en.wikipedia.org/wiki/Redstone_Army_Airfield,
3597,KHUF,medium_airport,"Terre Haute Regional Airport, Hulman Field",39.4515,-87.307602,589,NA,US,US-IN,Terre Haute,no,KHUF,HUF,HUF,http://huf.com/,https://en.wikipedia.org/wiki/Terre_Haute_Regional_Airport,
20095,KHUL,medium_airport,Houlton International Airport,46.12310028,-67.792099,489,NA,US,US-ME,Houlton,no,KHUL,HUL,HUL,,https://en.wikipedia.org/wiki/Houlton_International_Airport,Houlton AAF
3598,KHUT,medium_airport,Hutchinson Municipal Airport,38.06549835,-97.86060333,1543,NA,US,US-KS,Hutchinson,no,KHUT,HUT,HUT,http://www.hutchgov.com/department/?fDD=20-0,https://en.wikipedia.org/wiki/Hutchinson_Municipal_Airport_(Kansas),
3599,KHVN,medium_airport,Tweed New Haven Airport,41.26369858,-72.88680267,12,NA,US,US-CT,New Haven,yes,KHVN,HVN,HVN,,https://en.wikipedia.org/wiki/Tweed_New_Haven_Regional_Airport,
20099,KHVR,medium_airport,Havre City County Airport,48.542999,-109.762001,2591,NA,US,US-MT,Havre,no,KHVR,HVR,HVR,,,
3600,KHYA,medium_airport,Cape Cod Gateway Airport,41.6693,-70.280403,54,NA,US,US-MA,Hyannis,yes,KHYA,HYA,HYA,,https://en.wikipedia.org/wiki/Barnstable_Municipal_Airport,
20107,KHYI,medium_airport,San Marcos Regional Airport,29.8927,-97.862999,597,NA,US,US-TX,San Marcos,no,KHYI,,HYI,,,San Marcos Municipal
20108,KHYR,medium_airport,Sawyer County Airport,46.02519989,-91.44429779,1216,NA,US,US-WI,Hayward,no,KHYR,HYR,HYR,http://sawyercountygov.org/Departments/Airport/tabid/93/Default.aspx,https://en.wikipedia.org/wiki/Sawyer_County_Airport,
20109,KHYS,medium_airport,Hays Regional Airport,38.84220123,-99.27320099,1999,NA,US,US-KS,Hays,no,KHYS,HYS,HYS,,https://en.wikipedia.org/wiki/Hays_Regional_Airport,
20117,KHZY,medium_airport,Northeast Ohio Regional Airport,41.778,-80.695503,924,NA,US,US-OH,Ashtabula,no,KHZY,JFN,HZY,http://www.neohioregionalairport.com/,https://en.wikipedia.org/wiki/Ashtabula_County_Airport,Ashtabula County
20129,KI39,medium_airport,Central Kentucky Regional Airport,37.630798,-84.332298,1002,NA,US,US-KY,Richmond,no,KRGA,,RGA,,https://en.wikipedia.org/wiki/Central_Kentucky_Regional_Airport,"I39, Madison"
3601,KIAB,medium_airport,McConnell Air Force Base,37.621899,-97.268204,1371,NA,US,US-KS,Wichita,no,KIAB,IAB,IAB,http://public.mcconnell.amc.af.mil/,https://en.wikipedia.org/wiki/McConnell_Air_Force_Base,"22nd Air Refueling Wing, 931st Air Refueling Group, 184th Intelligence Wing"
3602,KIAD,large_airport,Washington Dulles International Airport,38.9445,-77.455803,312,NA,US,US-VA,Dulles,yes,KIAD,IAD,IAD,http://www.mwaa.com/dulles/,https://en.wikipedia.org/wiki/Washington_Dulles_International_Airport,WAS
3603,KIAG,medium_airport,Niagara Falls International Airport,43.1073,-78.946198,589,NA,US,US-NY,Niagara Falls,yes,KIAG,IAG,IAG,,https://en.wikipedia.org/wiki/Niagara_Falls_International_Airport,
3604,KIAH,large_airport,George Bush Intercontinental Houston Airport,29.9843998,-95.34140015,97,NA,US,US-TX,Houston,yes,KIAH,IAH,IAH,http://www.fly2houston.com/iah,https://en.wikipedia.org/wiki/George_Bush_Intercontinental_Airport,QHO
3605,KICT,medium_airport,Wichita Eisenhower National Airport,37.649899,-97.433098,1333,NA,US,US-KS,Wichita,yes,KICT,ICT,ICT,,https://en.wikipedia.org/wiki/Wichita_Dwight_D._Eisenhower_National_Airport,
3606,KIDA,medium_airport,Idaho Falls Regional Airport,43.514599,-112.070999,4744,NA,US,US-ID,Idaho Falls,yes,KIDA,IDA,IDA,,https://en.wikipedia.org/wiki/Idaho_Falls_Regional_Airport,Fanning Field
20160,KIFP,medium_airport,Laughlin Bullhead International Airport,35.157398,-114.559998,701,NA,US,US-AZ,Bullhead City,no,KIFP,IFP,IFP,,https://en.wikipedia.org/wiki/Laughlin/Bullhead_International_Airport,
20161,KIGM,medium_airport,Kingman Airport,35.259499,-113.938004,3449,NA,US,US-AZ,Kingman,no,KIGM,IGM,IGM,,https://en.wikipedia.org/wiki/Kingman_Airport_(Arizona),
3607,KIKK,medium_airport,Greater Kankakee Airport,41.07139969,-87.84629822,630,NA,US,US-IL,Kankakee,no,KIKK,IKK,IKK,http://kvaa.com/,https://en.wikipedia.org/wiki/Greater_Kankakee_Airport,
3608,KILG,medium_airport,New Castle Airport,39.67869949,-75.60649872,80,NA,US,US-DE,Wilmington,yes,KILG,ILG,ILG,,https://en.wikipedia.org/wiki/New_Castle_Airport,
3609,KILM,medium_airport,Wilmington International Airport,34.27059937,-77.90260315,32,NA,US,US-NC,Wilmington,yes,KILM,ILM,ILM,,https://en.wikipedia.org/wiki/Wilmington_International_Airport,
20173,KILN,medium_airport,Wilmington Airpark,39.42789841,-83.792099,1077,NA,US,US-OH,Wilmington,no,KILN,ILN,ILN,http://www.wilmingtonairpark.com/,https://en.wikipedia.org/wiki/Airborne_Airpark,"Clinton Field, Clinton County AFB, Airborne Airpark"
3610,KIND,large_airport,Indianapolis International Airport,39.7173,-86.294403,797,NA,US,US-IN,Indianapolis,yes,KIND,IND,IND,http://www.indianapolisairport.com/,https://en.wikipedia.org/wiki/Indianapolis_International_Airport,
3611,KINK,medium_airport,Winkler County Airport,31.77960014,-103.2009964,2822,NA,US,US-TX,Wink,no,KINK,INK,INK,http://www.co.winkler.tx.us/default.aspx?Winkler_County/County.Airport,https://en.wikipedia.org/wiki/Winkler_County_Airport,
3612,KINL,medium_airport,Falls International Airport,48.56620026,-93.40309906,1185,NA,US,US-MN,International Falls,yes,KINL,INL,INL,,https://en.wikipedia.org/wiki/Falls_International_Airport,
3613,KINT,medium_airport,Smith Reynolds Airport,36.13370132,-80.22200012,969,NA,US,US-NC,Winston Salem,no,KINT,INT,INT,,https://en.wikipedia.org/wiki/Smith_Reynolds_Airport,
20180,KINW,medium_airport,Winslow Lindbergh Regional Airport,35.02190018,-110.7229996,4941,NA,US,US-AZ,Winslow,no,KINW,INW,INW,,https://en.wikipedia.org/wiki/Winslow-Lindbergh_Regional_Airport,
20184,KIPL,medium_airport,Imperial County Airport,32.83420181,-115.5790024,-54,NA,US,US-CA,Imperial,no,KIPL,IPL,IPL,,https://en.wikipedia.org/wiki/Imperial_County_Airport,
3614,KIPT,medium_airport,Williamsport Regional Airport,41.2417984,-76.9210968,529,NA,US,US-PA,Williamsport,yes,KIPT,IPT,IPT,,https://en.wikipedia.org/wiki/Williamsport_Regional_Airport,
3615,KIRK,medium_airport,Kirksville Regional Airport,40.09349823,-92.54489899,966,NA,US,US-MO,Kirksville,yes,KIRK,IRK,IRK,,https://en.wikipedia.org/wiki/Kirksville_Regional_Airport,
20187,KISM,medium_airport,Kissimmee Gateway Airport,28.28980064,-81.43710327,82,NA,US,US-FL,Orlando,no,KISM,ISM,ISM,http://www.kissimmee.org/index.aspx?page=111,https://en.wikipedia.org/wiki/Kissimmee_Gateway_Airport,
20189,KISO,medium_airport,Kinston Regional Jetport At Stallings Field,35.33140183,-77.6088028,93,NA,US,US-NC,Kinston,no,KISO,ISO,ISO,http://www.jetkinston.com/,https://en.wikipedia.org/wiki/Kinston_Regional_Jetport,
3616,KISP,medium_airport,Long Island Mac Arthur Airport,40.79520035,-73.10019684,99,NA,US,US-NY,Islip,yes,KISP,ISP,ISP,,https://en.wikipedia.org/wiki/Long_Island_MacArthur_Airport,
20193,KITH,medium_airport,Ithaca Tompkins Regional Airport,42.49100113,-76.45839691,1099,NA,US,US-NY,Ithaca,yes,KITH,ITH,ITH,,https://en.wikipedia.org/wiki/Ithaca_Tompkins_Regional_Airport,
3617,KIWA,medium_airport,Phoenixâ€“Mesa Gateway Airport,33.3078,-111.654999,1382,NA,US,US-AZ,Mesa,yes,KIWA,AZA,IWA,http://www.flywga.org/,https://en.wikipedia.org/wiki/Phoenix%E2%80%93Mesa_Gateway_Airport,"Williams Air Force Base, Williams Gateway Airport"
3618,KJAC,medium_airport,Jackson Hole Airport,43.6072998,-110.737999,6451,NA,US,US-WY,Jackson,yes,KJAC,JAC,JAC,,https://en.wikipedia.org/wiki/Jackson_Hole_Airport,
3619,KJAN,medium_airport,Jackson-Medgar Wiley Evers International Airport,32.311199,-90.075897,346,NA,US,US-MS,Jackson,yes,KJAN,JAN,JAN,,https://en.wikipedia.org/wiki/Jackson-Evers_International_Airport,
3620,KJAX,large_airport,Jacksonville International Airport,30.49410057,-81.68789673,30,NA,US,US-FL,Jacksonville,yes,KJAX,JAX,JAX,,https://en.wikipedia.org/wiki/Jacksonville_International_Airport,
3621,KJBR,medium_airport,Jonesboro Municipal Airport,35.83169937,-90.64640045,262,NA,US,US-AR,Jonesboro,yes,KJBR,JBR,JBR,,https://en.wikipedia.org/wiki/Jonesboro_Municipal_Airport,
20205,KJCT,medium_airport,Kimble County Airport,30.51129913,-99.7634964,1749,NA,US,US-TX,Junction,no,KJCT,JCT,JCT,,,
3622,KJFK,large_airport,John F Kennedy International Airport,40.639447,-73.779317,13,NA,US,US-NY,New York,yes,KJFK,JFK,JFK,https://www.jfkairport.com/,https://en.wikipedia.org/wiki/John_F._Kennedy_International_Airport,"Manhattan, New York City, NYC, Idlewild, IDL, KIDL"
20213,KJHW,medium_airport,Chautauqua County-Jamestown Airport,42.15425,-79.254008,1723,NA,US,US-NY,Jamestown,no,KJHW,JHW,JHW,,https://en.wikipedia.org/wiki/Chautauqua_County-Jamestown_Airport,
20216,KJKL,medium_airport,Julian Carroll Airport,37.59389877,-83.31729889,1381,NA,US,US-KY,Jackson,no,KJKL,,JKL,,,
3623,KJLN,medium_airport,Joplin Regional Airport,37.151798,-94.498299,981,NA,US,US-MO,Joplin,yes,KJLN,JLN,JLN,,https://en.wikipedia.org/wiki/Joplin_Regional_Airport,
3624,KJMS,medium_airport,Jamestown Regional Airport,46.92969894,-98.67819977,1500,NA,US,US-ND,Jamestown,yes,KJMS,JMS,JMS,,https://en.wikipedia.org/wiki/Jamestown_Regional_Airport,
20220,KJQF,medium_airport,Concord-Padgett Regional Airport,35.387798,-80.709099,705,NA,US,US-NC,Concord,yes,KJQF,USA,JQF,http://www.concordnc.gov/Departments/Concord-Regional-Airport,https://en.wikipedia.org/wiki/Concord_Regional_Airport,"3N8, ""NASCAR's Airport"""
3625,KJST,medium_airport,John Murtha Johnstown Cambria County Airport,40.31610107,-78.83390045,2284,NA,US,US-PA,Johnstown,yes,KJST,JST,JST,,https://en.wikipedia.org/wiki/Johnstown-Cambria_County_Airport,
3626,KJXN,medium_airport,Jackson County Airport/Reynolds Field,42.260509,-84.463019,1001,NA,US,US-MI,Jackson,no,KJXN,JXN,JXN,http://www.co.jackson.mi.us/airport/,https://en.wikipedia.org/wiki/Jackson_County_Airport_(Michigan),
20277,KKLS,medium_airport,Southwest Washington Regional Airport,46.11800003,-122.8980026,20,NA,US,US-WA,Kelso,no,KKLS,KLS,KLS,http://www.kelso.gov/Departments%20%2526%20Services/Airport,https://en.wikipedia.org/wiki/Southwest_Washington_Regional_Airport,"Molt Taylor Field, Kelso-Longview Regional"
20300,KL45,medium_airport,Bakersfield International Airport,35.324799,-118.996002,378,NA,US,US-CA,Bakersfield,no,,,L45,https://www.bakersfieldcity.us/565/Bakersfield-Municipal-Airport,https://en.wikipedia.org/wiki/Bakersfield_Municipal_Airport,
20317,KLAA,medium_airport,Southeast Colorado Regional Airport,38.066126,-102.690169,3706,NA,US,US-CO,Lamar,no,KLAA,LAA,LAA,http://www.ci.lamar.co.us/index.asp?Type=B_BASIC&SEC={C91FC3CC-5A83-4F9C-9AF7-A96F374C2EE5}&DE=,https://en.wikipedia.org/wiki/Lamar_Municipal_Airport,Lamar Municipal
3627,KLAF,medium_airport,Purdue University Airport,40.4123,-86.936897,606,NA,US,US-IN,West Lafayette,no,KLAF,LAF,LAF,,https://en.wikipedia.org/wiki/Purdue_University_Airport,
3628,KLAL,medium_airport,Lakeland Linder International Airport,27.988899,-82.018602,142,NA,US,US-FL,Lakeland,no,KLAL,LAL,LAL,,https://en.wikipedia.org/wiki/Lakeland_Linder_Regional_Airport,
3629,KLAN,medium_airport,Capital City Airport,42.77870178,-84.58740234,861,NA,US,US-MI,Lansing,yes,KLAN,LAN,LAN,,https://en.wikipedia.org/wiki/Lansing_Capital_City_Airport,
3630,KLAR,medium_airport,Laramie Regional Airport,41.31209946,-105.6750031,7284,NA,US,US-WY,Laramie,yes,KLAR,LAR,LAR,,https://en.wikipedia.org/wiki/Laramie_Regional_Airport,
3631,KLAS,large_airport,Harry Reid International Airport,36.083361,-115.151817,2181,NA,US,US-NV,Las Vegas,yes,KLAS,LAS,LAS,https://www.harryreidairport.com/,https://en.wikipedia.org/wiki/Harry_Reid_International_Airport,McCarran International Airport
20319,KLAW,medium_airport,Lawton Fort Sill Regional Airport,34.56769943,-98.41660309,1110,NA,US,US-OK,Lawton,no,KLAW,LAW,LAW,,https://en.wikipedia.org/wiki/Lawton-Fort_Sill_Regional_Airport,
3632,KLAX,large_airport,Los Angeles International Airport,33.942501,-118.407997,125,NA,US,US-CA,Los Angeles,yes,KLAX,LAX,LAX,https://www.flylax.com/,https://en.wikipedia.org/wiki/Los_Angeles_International_Airport,
3633,KLBB,medium_airport,Lubbock Preston Smith International Airport,33.663601,-101.822998,3282,NA,US,US-TX,Lubbock,yes,KLBB,LBB,LBB,http://www.flylia.com/,https://en.wikipedia.org/wiki/Lubbock_Preston_Smith_International_Airport,
3634,KLBE,medium_airport,Arnold Palmer Regional Airport,40.275902,-79.4048,1199,NA,US,US-PA,Latrobe,yes,KLBE,LBE,LBE,,https://en.wikipedia.org/wiki/Arnold_Palmer_Regional_Airport,
3635,KLBF,medium_airport,North Platte Regional Airport Lee Bird Field,41.12620163,-100.6839981,2777,NA,US,US-NE,North Platte,yes,KLBF,LBF,LBF,,https://en.wikipedia.org/wiki/North_Platte_Regional_Airport,
3636,KLBL,medium_airport,Liberal Mid-America Regional Airport,37.0442009,-100.9599991,2885,NA,US,US-KS,Liberal,yes,KLBL,LBL,LBL,,https://en.wikipedia.org/wiki/Liberal_Municipal_Airport,
20322,KLBT,medium_airport,Lumberton Regional Airport,34.610773,-79.05943,126,NA,US,US-NC,Lumberton,no,KLBT,LBT,LBT,http://www.lumbertonmunicipalairport.com/default.htm,https://en.wikipedia.org/wiki/Lumberton_Municipal_Airport,
20323,KLBX,medium_airport,Texas Gulf Coast Regional Airport,29.108601,-95.462097,25,NA,US,US-TX,Angleton,no,KLBX,LJN,LBX,http://www.flylbx.org/,https://en.wikipedia.org/wiki/Texas_Gulf_Coast_Regional_Airport,Texas Gulf Coast Regional Airport
3637,KLCH,medium_airport,Lake Charles Regional Airport,30.12610054,-93.22329712,15,NA,US,US-LA,Lake Charles,yes,KLCH,LCH,LCH,,https://en.wikipedia.org/wiki/Lake_Charles_Regional_Airport,
3638,KLCK,medium_airport,Rickenbacker International Airport,39.813801,-82.927803,744,NA,US,US-OH,Columbus,yes,KLCK,LCK,LCK,http://rickenbackerinlandport.com/en/rickenbacker-international-airport/,https://en.wikipedia.org/wiki/Rickenbacker_International_Airport,Lockbourne Army Air Field
3639,KLEB,medium_airport,Lebanon Municipal Airport,43.62609863,-72.30419922,603,NA,US,US-NH,Lebanon,yes,KLEB,LEB,LEB,http://flyleb.com/,https://en.wikipedia.org/wiki/Lebanon_Municipal_Airport_(New_Hampshire),
20329,KLEE,medium_airport,Leesburg International Airport,28.82309914,-81.80870056,76,NA,US,US-FL,Leesburg,no,KLEE,LEE,LEE,http://www.leesburgflorida.gov/index.aspx?page=45,https://en.wikipedia.org/wiki/Leesburg_International_Airport,Leesburg AAF
3640,KLEX,medium_airport,Blue Grass Airport,38.036499,-84.605904,979,NA,US,US-KY,Lexington,yes,KLEX,LEX,LEX,http://www.bluegrassairport.com/,https://en.wikipedia.org/wiki/Blue_Grass_Airport,
3641,KLFI,medium_airport,Langley Air Force Base,37.082901,-76.360497,11,NA,US,US-VA,Hampton,no,KLFI,LFI,LFI,http://www.langleyafb.us/,https://en.wikipedia.org/wiki/Langley_Field,Langley Field
20332,KLFK,medium_airport,Angelina County Airport,31.23399925,-94.75,296,NA,US,US-TX,Lufkin,no,KLFK,LFK,LFK,http://www.angelinacounty.net/departments/airport,https://en.wikipedia.org/wiki/Angelina_County_Airport,
3642,KLFT,medium_airport,Lafayette Regional Airport,30.205299,-91.987602,42,NA,US,US-LA,Lafayette,yes,KLFT,LFT,LFT,http://www.lftairport.com/Home,https://en.wikipedia.org/wiki/Lafayette_Regional_Airport,
3643,KLGA,large_airport,La Guardia Airport,40.777199,-73.872597,21,NA,US,US-NY,New York,yes,KLGA,LGA,LGA,https://www.laguardiaairport.com/,https://en.wikipedia.org/wiki/LaGuardia_Airport,"Manhattan, New York City, NYC, Glenn H. Curtiss Airport, North Beach Airport, La Guardia"
3644,KLGB,medium_airport,Long Beach Airport (Daugherty Field),33.816523,-118.149891,60,NA,US,US-CA,Long Beach,yes,KLGB,LGB,LGB,http://www.lgb.org/,https://en.wikipedia.org/wiki/Long_Beach_Airport,Daugherty Field
20337,KLGU,medium_airport,Logan-Cache Airport,41.79119873,-111.8519974,4457,NA,US,US-UT,Logan,no,KLGU,LGU,LGU,http://logan-cacheairport.org/,https://en.wikipedia.org/wiki/Logan-Cache_Airport,
3645,KLIT,medium_airport,Bill & Hillary Clinton National Airport/Adams Field,34.729582,-92.223728,262,NA,US,US-AR,Little Rock,yes,KLIT,LIT,LIT,,https://en.wikipedia.org/wiki/Little_Rock_National_Airport,
20354,KLLQ,medium_airport,Monticello Municipal Ellis Field,33.638599,-91.750999,270,NA,US,US-AR,Monticello,no,KLLQ,,LLQ,,https://en.wikipedia.org/wiki/Monticello_Municipal_Airport_(Arkansas),M76
3646,KLMT,medium_airport,Crater Lake-Klamath Regional Airport,42.156101,-121.733002,4095,NA,US,US-OR,Klamath Falls,yes,KLMT,LMT,LMT,,https://en.wikipedia.org/wiki/Klamath_Falls_Airport,Klamath Falls Airport
20359,KLND,medium_airport,Hunt Field,42.815201,-108.730003,5586,NA,US,US-WY,Lander,no,KLND,LND,LND,,,
3647,KLNK,medium_airport,Lincoln Airport,40.85100174,-96.75920105,1219,NA,US,US-NE,Lincoln,yes,KLNK,LNK,LNK,http://www.lincolnairport.com/,https://en.wikipedia.org/wiki/Lincoln_Airport_%28Nebraska%29,"Lincoln Army Air Field, Lincoln Air Force Base, 155th Air Refueling Wing"
3648,KLNS,medium_airport,Lancaster Airport,40.12170029,-76.2960968,403,NA,US,US-PA,Lancaster,yes,KLNS,LNS,LNS,,https://en.wikipedia.org/wiki/Lancaster_Airport_(Pennsylvania),
20364,KLOL,medium_airport,Derby Field,40.06639862,-118.5650024,3904,NA,US,US-NV,Lovelock,no,KLOL,LOL,LOL,http://pershingcounty.net/index.php/Derby-Field-Airport/derby-field-airport.html,https://en.wikipedia.org/wiki/Derby_Field,
3649,KLOU,medium_airport,Bowman Field,38.22800064,-85.66369629,546,NA,US,US-KY,Louisville,no,KLOU,LOU,LOU,http://www.flylouisville.com/bowman-field/fast-facts/,https://en.wikipedia.org/wiki/Bowman_Field_(airport),
3650,KLOZ,medium_airport,London-Corbin Airport/Magee Field,37.0821991,-84.0848999,1212,NA,US,US-KY,London,no,KLOZ,LOZ,LOZ,http://www.london-corbinairport.com/,https://en.wikipedia.org/wiki/London-Corbin_Airport,
3651,KLRD,medium_airport,Laredo International Airport,27.54380035,-99.46160126,508,NA,US,US-TX,Laredo,yes,KLRD,LRD,LRD,,https://en.wikipedia.org/wiki/Laredo_International_Airport,
3652,KLRF,medium_airport,Little Rock Air Force Base,34.91690063,-92.14969635,311,NA,US,US-AR,Jacksonville,no,KLRF,LRF,LRF,http://www.littlerock.af.mil/,https://en.wikipedia.org/wiki/Little_Rock_Air_Force_Base,
3653,KLRU,medium_airport,Las Cruces International Airport,32.28939819,-106.9219971,4456,NA,US,US-NM,Las Cruces,no,KLRU,LRU,LRU,,https://en.wikipedia.org/wiki/Las_Cruces_International_Airport,
3654,KLSE,medium_airport,La Crosse Regional Airport,43.879002,-91.256699,655,NA,US,US-WI,La Crosse,yes,KLSE,LSE,LSE,http://www.lseairport.com/,https://en.wikipedia.org/wiki/La_Crosse_Municipal_Airport,"airport, regional"
3655,KLSF,medium_airport,Lawson Army Air Field,32.332546,-84.988003,232,NA,US,US-GA,Fort Benning,no,KLSF,LSF,LSF,,https://en.wikipedia.org/wiki/Lawson_Army_Airfield,Columbus
3656,KLSV,medium_airport,Nellis Air Force Base,36.23619843,-115.0339966,1870,NA,US,US-NV,Las Vegas,no,KLSV,LSV,LSV,http://www.nellis.af.mil/,https://en.wikipedia.org/wiki/Nellis_Air_Force_Base,"McCarran Field, Las Vegas AAF, Las Vegas AFB"
3657,KLTS,medium_airport,Altus Air Force Base,34.667099,-99.266701,1382,NA,US,US-OK,Altus,no,KLTS,LTS,LTS,http://www.altus.af.mil/,https://en.wikipedia.org/wiki/Altus_Air_Force_Base,
3658,KLUF,medium_airport,Luke Air Force Base,33.535,-112.383003,1085,NA,US,US-AZ,Glendale,no,KLUF,LUF,LUF,http://www.luke.af.mil/,https://en.wikipedia.org/wiki/Luke_Air_Force_Base,
3659,KLUK,medium_airport,Cincinnati Municipal Airport Lunken Field,39.10329819,-84.41860199,483,NA,US,US-OH,Cincinnati,no,KLUK,LUK,LUK,,https://en.wikipedia.org/wiki/Cincinnati_Municipal_Airport,
20386,KLVM,medium_airport,Mission Field,45.69940186,-110.447998,4660,NA,US,US-MT,Livingston,no,KLVM,LVM,LVM,http://www.parkcounty.org/site/Air_M_1.html#mf,https://en.wikipedia.org/wiki/Mission_Field,
20388,KLVS,medium_airport,Las Vegas Municipal Airport,35.654202,-105.141998,6877,NA,US,US-NM,Las Vegas,no,KLVS,LVS,LVS,http://www.lasvegasnm.gov/business/municipal_airport/index.php,https://en.wikipedia.org/wiki/Las_Vegas_Municipal_Airport,
20390,KLWB,medium_airport,Greenbrier Valley Airport,37.85829926,-80.39949799,2302,NA,US,US-WV,Lewisburg,no,KLWB,LWB,LWB,,https://en.wikipedia.org/wiki/Greenbrier_Valley_Airport,
3660,KLWM,medium_airport,Lawrence Municipal Airport,42.71720123,-71.12339783,148,NA,US,US-MA,Lawrence,no,KLWM,LWM,LWM,http://www.lawrencemunicipalairport.com/,https://en.wikipedia.org/wiki/Lawrence_Municipal_Airport_(Massachusetts),
20393,KLWS,medium_airport,Lewiston Nez Perce County Airport,46.37450027,-117.0149994,1442,NA,US,US-ID,Lewiston,yes,KLWS,LWS,LWS,,https://en.wikipedia.org/wiki/Lewiston-Nez_Perce_County_Airport,
3661,KLWT,medium_airport,Lewistown Municipal Airport,47.04930115,-109.4670029,4170,NA,US,US-MT,Lewistown,yes,KLWT,LWT,LWT,,https://en.wikipedia.org/wiki/Lewistown_Municipal_Airport,
3662,KLYH,medium_airport,Lynchburg Regional Airport - Preston Glenn Field,37.326698,-79.200401,938,NA,US,US-VA,Lynchburg,yes,KLYH,LYH,LYH,,https://en.wikipedia.org/wiki/Lynchburg_Regional_Airport,
3663,KMAF,medium_airport,Midland International Air and Space Port,31.942499,-102.202003,2871,NA,US,US-TX,Midland,yes,KMAF,MAF,MAF,,https://en.wikipedia.org/wiki/Midland_International_Airport,
20474,KMBG,medium_airport,Mobridge Municipal Airport,45.54650116,-100.4079971,1716,NA,US,US-SD,Mobridge,no,KMBG,MBG,MBG,,https://en.wikipedia.org/wiki/Mobridge_Municipal_Airport,
3664,KMBS,medium_airport,MBS International Airport,43.532902,-84.079597,668,NA,US,US-MI,Saginaw,yes,KMBS,MBS,MBS,http://www.mbsairport.org/,https://en.wikipedia.org/wiki/MBS_International_Airport,"Tri City Airport, Midland, Bay City"
3665,KMCB,medium_airport,McComb-Pike County Airport / John E Lewis Field,31.178499,-90.471901,413,NA,US,US-MS,McComb,no,KMCB,MCB,MCB,,https://en.wikipedia.org/wiki/McComb%E2%80%93Pike_County_Airport,
3666,KMCC,medium_airport,McClellan Airfield,38.667599,-121.401001,77,NA,US,US-CA,Sacramento,no,KMCC,MCC,MCC,,https://en.wikipedia.org/wiki/McClellan_Airfield,McClellan AFB
20480,KMCE,medium_airport,Merced Regional Macready Field,37.28469849,-120.5139999,155,NA,US,US-CA,Merced,no,KMCE,MCE,MCE,,https://en.wikipedia.org/wiki/Merced_Regional_Airport,
3667,KMCF,medium_airport,MacDill Air Force Base,27.8493,-82.521202,14,NA,US,US-FL,Tampa,no,KMCF,MCF,MCF,http://www.macdill.af.mil/,https://en.wikipedia.org/wiki/MacDill_Air_Force_Base,"Southeast Air Base - Tampa, MacDill Field"
3668,KMCI,large_airport,Kansas City International Airport,39.2976,-94.713898,1026,NA,US,US-MO,Kansas City,yes,KMCI,MCI,MCI,http://www.flykci.com/,https://en.wikipedia.org/wiki/Kansas_City_International_Airport,
20481,KMCK,medium_airport,Mc Cook Ben Nelson Regional Airport,40.20629883,-100.5920029,2583,NA,US,US-NE,Mc Cook,no,KMCK,MCK,MCK,,https://en.wikipedia.org/wiki/McCook_Regional_Airport,
3669,KMCN,medium_airport,Middle Georgia Regional Airport,32.69279861,-83.64920044,354,NA,US,US-GA,Macon,yes,KMCN,MCN,MCN,,https://en.wikipedia.org/wiki/Middle_Georgia_Regional_Airport,
3670,KMCO,large_airport,Orlando International Airport,28.42939949,-81.30899811,96,NA,US,US-FL,Orlando,yes,KMCO,MCO,MCO,http://www.orlandoairports.net/,https://en.wikipedia.org/wiki/Orlando_International_Airport,"Disney World,Epcot Center"
20482,KMCW,medium_airport,Mason City Municipal Airport,43.157799,-93.331299,1213,NA,US,US-IA,Clear Lake,no,KMCW,MCW,MCW,,,
3671,KMDH,medium_airport,Southern Illinois Airport,37.77809906,-89.2519989,411,NA,US,US-IL,Carbondale/Murphysboro,no,KMDH,MDH,MDH,,https://en.wikipedia.org/wiki/Southern_Illinois_Airport,
3672,KMDT,medium_airport,Harrisburg International Airport,40.193501,-76.763397,310,NA,US,US-PA,Harrisburg,yes,KMDT,MDT,MDT,http://www.flyhia.com/,https://en.wikipedia.org/wiki/Harrisburg_International_Airport,"Harrisburg, Lancaster, York, HIA, Middletown"
3673,KMDW,large_airport,Chicago Midway International Airport,41.785999,-87.752403,620,NA,US,US-IL,Chicago,yes,KMDW,MDW,MDW,https://www.flychicago.com/midway/home/pages/default.aspx,https://en.wikipedia.org/wiki/Midway_International_Airport,CHI
3674,KMEI,medium_airport,Key Field / Meridian Regional Airport,32.3326,-88.7519,297,NA,US,US-MS,Meridian,yes,KMEI,MEI,MEI,,https://en.wikipedia.org/wiki/Meridian_Regional_Airport,
3675,KMEM,large_airport,Memphis International Airport,35.04240036,-89.97669983,341,NA,US,US-TN,Memphis,yes,KMEM,MEM,MEM,,https://en.wikipedia.org/wiki/Memphis_International_Airport,
3676,KMER,medium_airport,Castle Airport,37.38050079,-120.5680008,191,NA,US,US-CA,Merced,no,KMER,MER,MER,,https://en.wikipedia.org/wiki/Castle_Airport,
3677,KMFD,medium_airport,Mansfield Lahm Regional Airport,40.82139969,-82.51660156,1297,NA,US,US-OH,Mansfield,no,KMFD,MFD,MFD,http://www.ci.mansfield.oh.us/index.php/lahm-airport,https://en.wikipedia.org/wiki/Mansfield_Lahm_Regional_Airport,
3678,KMFE,medium_airport,McAllen Miller International Airport,26.176141,-98.237965,107,NA,US,US-TX,McAllen,yes,KMFE,MFE,MFE,,https://en.wikipedia.org/wiki/McAllen-Miller_International_Airport,
3679,KMFR,medium_airport,Rogue Valley International Medford Airport,42.37419891,-122.8730011,1335,NA,US,US-OR,Medford,yes,KMFR,MFR,MFR,,https://en.wikipedia.org/wiki/Rogue_Valley_International-Medford_Airport,
3680,KMGE,medium_airport,Dobbins Air Reserve Base,33.915401,-84.516296,1068,NA,US,US-GA,Marietta,no,KMGE,MGE,MGE,http://www.dobbins.afrc.af.mil/,https://en.wikipedia.org/wiki/Dobbins_Air_Reserve_Base,"Rickenbacker Field, Marietta AAF, Marietta AFB, Dobbins AFB"
3681,KMGM,medium_airport,Montgomery Regional (Dannelly Field) Airport,32.300598,-86.393997,221,NA,US,US-AL,Montgomery,yes,KMGM,MGM,MGM,http://www.flymgm.com/,https://en.wikipedia.org/wiki/Montgomery_Regional_Airport,
3682,KMGW,medium_airport,Morgantown Municipal Airport Walter L. (Bill) Hart Field,39.643305,-79.917598,1248,NA,US,US-WV,Morgantown,yes,KMGW,MGW,MGW,,https://en.wikipedia.org/wiki/Morgantown_Municipal_Airport,
3683,KMHK,medium_airport,Manhattan Regional Airport,39.14099884,-96.67079926,1057,NA,US,US-KS,Manhattan,yes,KMHK,MHK,MHK,,https://en.wikipedia.org/wiki/Manhattan_Regional_Airport,
20506,KMHR,medium_airport,Sacramento Mather Airport,38.553902,-121.297997,98,NA,US,US-CA,Sacramento,yes,KMHR,MHR,MHR,http://www.sacramento.aero/mhr/,https://en.wikipedia.org/wiki/Sacramento_Mather_Airport,
3684,KMHT,medium_airport,Manchester-Boston Regional Airport,42.932598,-71.435699,266,NA,US,US-NH,Manchester,yes,KMHT,MHT,MHT,,https://en.wikipedia.org/wiki/Manchester-Boston_Regional_Airport,
3685,KMIA,large_airport,Miami International Airport,25.79319954,-80.29060364,8,NA,US,US-FL,Miami,yes,KMIA,MIA,MIA,http://www.miami-airport.com/,https://en.wikipedia.org/wiki/Miami_International_Airport,"MFW, South Florida"
3686,KMIB,medium_airport,Minot Air Force Base,48.4156,-101.358002,1667,NA,US,US-ND,Minot,no,KMIB,MIB,MIB,http://www.minot.af.mil/,https://en.wikipedia.org/wiki/Minot_Air_Force_Base,"5th Bomb Wing, 91st Space Wing"
3687,KMIE,medium_airport,Delaware County Johnson Field,40.242298,-85.395897,937,NA,US,US-IN,Muncie,no,KMIE,MIE,MIE,,https://en.wikipedia.org/wiki/Delaware_County_Airport,
3688,KMIV,medium_airport,Millville Municipal Airport,39.367802,-75.072197,85,NA,US,US-NJ,Millville,no,KMIV,MIV,MIV,,https://en.wikipedia.org/wiki/Millville_Executive_Airport,
3689,KMKC,medium_airport,Charles B. Wheeler Downtown Airport,39.12319946,-94.59279633,759,NA,US,US-MO,Kansas City,no,KMKC,MKC,MKC,,https://en.wikipedia.org/wiki/Charles_B._Wheeler_Downtown_Airport,
3690,KMKE,large_airport,General Mitchell International Airport,42.94720078,-87.89659882,723,NA,US,US-WI,Milwaukee,yes,KMKE,MKE,MKE,,https://en.wikipedia.org/wiki/General_Mitchell_International_Airport,
3691,KMKG,medium_airport,Muskegon County Airport,43.169498,-86.238197,629,NA,US,US-MI,Muskegon,yes,KMKG,MKG,MKG,,https://en.wikipedia.org/wiki/Muskegon_County_Airport,
3692,KMKL,medium_airport,McKellar-Sipes Regional Airport,35.599899,-88.915604,434,NA,US,US-TN,Jackson,yes,KMKL,MKL,MKL,http://mckellarsipes.com/,https://en.wikipedia.org/wiki/McKellar-Sipes_Regional_Airport,
3693,KMLB,medium_airport,Melbourne Orlando International Airport,28.1028,-80.645302,33,NA,US,US-FL,Melbourne,yes,KMLB,MLB,MLB,https://www.mlbair.com/,https://en.wikipedia.org/wiki/Melbourne_International_Airport,
3694,KMLC,medium_airport,Mc Alester Regional Airport,34.882401,-95.783501,770,NA,US,US-OK,Mc Alester,no,KMLC,MLC,MLC,,https://en.wikipedia.org/wiki/McAlester_Regional_Airport,
3695,KMLI,medium_airport,Quad City International Airport,41.448502,-90.5075,590,NA,US,US-IL,Moline,yes,KMLI,MLI,MLI,,https://en.wikipedia.org/wiki/Quad_City_International_Airport,
3696,KMLS,medium_airport,Miles City Airport - Frank Wiley Field,46.428001,-105.886002,2630,NA,US,US-MT,Miles City,yes,KMLS,MLS,MLS,,https://en.wikipedia.org/wiki/Miles_City_Municipal_Airport,
3697,KMLU,medium_airport,Monroe Regional Airport,32.510899,-92.037697,79,NA,US,US-LA,Monroe,yes,KMLU,MLU,MLU,,https://en.wikipedia.org/wiki/Monroe_Regional_Airport,
20532,KMMT,medium_airport,Mc Entire Joint National Guard Base,33.92079926,-80.80130005,254,NA,US,US-SC,Eastover,no,KMMT,MMT,MMT,,https://en.wikipedia.org/wiki/McEntire_Joint_National_Guard_Base,
3698,KMMU,medium_airport,Morristown Municipal Airport,40.79940033,-74.41490173,187,NA,US,US-NJ,Morristown,no,KMMU,MMU,MMU,,https://en.wikipedia.org/wiki/Morristown_Municipal_Airport,"Manhattan, New York City, NYC"
3699,KMMV,medium_airport,Mc Minnville Municipal Airport,45.19440079,-123.1360016,163,NA,US,US-OR,Mc Minnville,no,KMMV,,MMV,,https://en.wikipedia.org/wiki/McMinnville_Municipal_Airport,
3700,KMOB,medium_airport,Mobile Regional Airport,30.6912,-88.242798,219,NA,US,US-AL,Mobile,yes,KMOB,MOB,MOB,http://www.mobairport.com/,https://en.wikipedia.org/wiki/Mobile_Regional_Airport,
3701,KMOD,medium_airport,Modesto City Co-Harry Sham Field,37.625801,-120.954002,97,NA,US,US-CA,Modesto,no,KMOD,MOD,MOD,,https://en.wikipedia.org/wiki/Modesto_City-County_Airport,
3702,KMOT,medium_airport,Minot International Airport,48.25939941,-101.2799988,1716,NA,US,US-ND,Minot,yes,KMOT,MOT,MOT,,https://en.wikipedia.org/wiki/Minot_International_Airport,
20551,KMPV,medium_airport,Edward F Knapp State Airport,44.20349884,-72.56230164,1166,NA,US,US-VT,Barre/Montpelier,no,KMPV,MPV,MPV,,https://en.wikipedia.org/wiki/Edward_F._Knapp_State_Airport,
3703,KMQY,medium_airport,Smyrna Airport,36.00899887,-86.52010345,543,NA,US,US-TN,Smyrna,no,KMQY,MQY,MQY,http://www.smyrnaairport.com/,https://en.wikipedia.org/wiki/Smyrna_Airport_(Tennessee),Sewart AFB
3704,KMRB,medium_airport,Eastern WV Regional Airport/Shepherd Field,39.40190125,-77.98459625,565,NA,US,US-WV,Martinsburg,no,KMRB,MRB,MRB,http://www.wvairport.org/,https://en.wikipedia.org/wiki/Eastern_WV_Regional_Airport,
3705,KMRY,medium_airport,Monterey Peninsula Airport,36.5870018,-121.8430023,257,NA,US,US-CA,Monterey,yes,KMRY,MRY,MRY,,https://en.wikipedia.org/wiki/Monterey_Peninsula_Airport,
3706,KMSL,medium_airport,Northwest Alabama Regional Airport,34.74530029,-87.61019897,551,NA,US,US-AL,Muscle Shoals,yes,KMSL,MSL,MSL,,https://en.wikipedia.org/wiki/Northwest_Alabama_Regional_Airport,
3707,KMSN,medium_airport,Dane County Regional Truax Field,43.1399,-89.337502,887,NA,US,US-WI,Madison,yes,KMSN,MSN,MSN,,https://en.wikipedia.org/wiki/Dane_County_Regional_Airport,
3708,KMSO,medium_airport,Missoula International Airport,46.91630173,-114.0910034,3206,NA,US,US-MT,Missoula,yes,KMSO,MSO,MSO,,https://en.wikipedia.org/wiki/Missoula_International_Airport,
3709,KMSP,large_airport,Minneapolisâ€“Saint Paul International Airport / Woldâ€“Chamberlain Field,44.882,-93.221802,841,NA,US,US-MN,Minneapolis,yes,KMSP,MSP,MSP,http://www.mspairport.com/,https://en.wikipedia.org/wiki/Minneapolisâ€“Saint_Paul_International_Airport,
3710,KMSS,medium_airport,Massena International Airport Richards Field,44.936157,-74.844304,215,NA,US,US-NY,Massena,yes,KMSS,MSS,MSS,http://www.massenaworks.com/town/airport.asp,https://en.wikipedia.org/wiki/Massena_International_Airport,
3711,KMSY,large_airport,Louis Armstrong New Orleans International Airport,29.99340057,-90.25800323,4,NA,US,US-LA,New Orleans,yes,KMSY,MSY,MSY,,https://en.wikipedia.org/wiki/Louis_Armstrong_New_Orleans_International_Airport,
3712,KMTC,medium_airport,Selfridge Air National Guard Base Airport,42.613463,-82.836919,580,NA,US,US-MI,Mount Clemens,no,KMTC,MTC,MTC,,https://en.wikipedia.org/wiki/Selfridge_Air_National_Guard_Base,
20564,KMTH,medium_airport,The Florida Keys Marathon Airport,24.726101,-81.051399,5,NA,US,US-FL,Marathon,no,KMTH,MTH,MTH,http://marathonga.com/,https://en.wikipedia.org/wiki/Florida_Keys_Marathon_Airport,
20565,KMTJ,medium_airport,Montrose Regional Airport,38.50979996,-107.8939972,5759,NA,US,US-CO,Montrose,no,KMTJ,MTJ,MTJ,,,
3713,KMTN,medium_airport,Martin State Airport,39.325699,-76.413803,21,NA,US,US-MD,Baltimore,no,KMTN,MTN,MTN,,https://en.wikipedia.org/wiki/Martin_State_Airport,
3714,KMUI,medium_airport,Muir Army Air Field (Fort Indiantown Gap) Airport,40.435214,-76.568661,488,NA,US,US-PA,Fort Indiantown Gap(Annville),no,KMUI,MUI,MUI,,https://en.wikipedia.org/wiki/Muir_Army_Airfield,
3715,KMUO,medium_airport,Mountain Home Air Force Base,43.043598,-115.872002,2996,NA,US,US-ID,Mountain Home,no,KMUO,MUO,MUO,http://www.mountainhome.af.mil/,https://en.wikipedia.org/wiki/Mountain_Home_Air_Force_Base,
20581,KMWH,medium_airport,Grant County International Airport,47.20769882,-119.3199997,1189,NA,US,US-WA,Moses Lake,no,KMWH,MWH,MWH,http://www.portofmoseslake.com/the-center-of-washington-aviation/,https://en.wikipedia.org/wiki/Grant_County_International_Airport,"LRN, Larson AFB, Moses Lake AFB, Moses Lake AAB"
3716,KMXF,medium_airport,Maxwell Air Force Base,32.3829,-86.365799,171,NA,US,US-AL,Montgomery,no,KMXF,MXF,MXF,,https://en.wikipedia.org/wiki/Maxwell_Air_Force_Base,
20591,KMYL,medium_airport,McCall Municipal Airport,44.88970184,-116.1009979,5024,NA,US,US-ID,McCall,no,KMYL,MYL,MYL,http://www.mccall.id.us/services/airport.html,https://en.wikipedia.org/wiki/McCall_Municipal_Airport,
3717,KMYR,medium_airport,Myrtle Beach International Airport,33.67969894,-78.92829895,25,NA,US,US-SC,Myrtle Beach,yes,KMYR,MYR,MYR,,https://en.wikipedia.org/wiki/Myrtle_Beach_International_Airport,
3718,KMYV,medium_airport,Yuba County Airport,39.09780121,-121.5699997,64,NA,US,US-CA,Marysville,no,KMYV,MYV,MYV,http://www.yubacoairport.com/,https://en.wikipedia.org/wiki/Yuba_County_Airport,Marysville AAF
3719,KNBC,medium_airport,Beaufort MCAS - Merritt Field,32.47740173,-80.72319794,37,NA,US,US-SC,Beaufort,no,KNBC,,NBC,,https://en.wikipedia.org/wiki/Marine_Corps_Air_Station_Beaufort,BFT
3720,KNBG,medium_airport,New Orleans NAS JRB/Alvin Callender Field,29.82530022,-90.03500366,2,NA,US,US-LA,New Orleans,no,KNBG,NBG,NBG,,https://en.wikipedia.org/wiki/Naval_Air_Station_Joint_Reserve_Base_New_Orleans,
3721,KNCA,medium_airport,MCAS New River / McCutcheon Field,34.708401,-77.439697,26,NA,US,US-NC,Jacksonville,no,KNCA,,NCA,,,New River MCAS
20634,KNDZ,medium_airport,Whiting Field Naval Air Station South Airport,30.70439911,-87.02300262,177,NA,US,US-FL,Milton,no,KNDZ,,NDZ,,,
3722,KNEL,medium_airport,Lakehurst Maxfield Field Airport,40.03329849,-74.353302,101,NA,US,US-NJ,Lakehurst,no,KNEL,NEL,NEL,,https://en.wikipedia.org/wiki/Naval_Air_Engineering_Station_Lakehurst,"Maxfield Field, Hindenburg, Lakehurst NAES, Lakehurst Naval Air Engineering Station"
3723,KNEW,medium_airport,Lakefront Airport,30.04240036,-90.02829742,8,NA,US,US-LA,New Orleans,no,KNEW,NEW,NEW,http://www.lakefrontairport.com/,https://en.wikipedia.org/wiki/New_Orleans_Lakefront_Airport,
3724,KNFG,medium_airport,Camp Pendleton MCAS (Munn Field) Airport,33.30130005,-117.3550034,78,NA,US,US-CA,Oceanside,no,KNFG,,NFG,,https://en.wikipedia.org/wiki/Marine_Corps_Air_Station_Camp_Pendleton,Camp Pendleton MCAS
3725,KNFL,medium_airport,Fallon Naval Air Station,39.41659927,-118.7009964,3934,NA,US,US-NV,Fallon,no,KNFL,NFL,NFL,http://www.cnic.navy.mil/regions/cnrsw/installations/nas_fallon.html,https://en.wikipedia.org/wiki/Naval_Air_Station_Fallon,"Van Voorhis Field, Fallon NAS"
20639,KNFW,medium_airport,NAS Fort Worth JRB / Carswell Field,32.769199,-97.441498,650,NA,US,US-TX,Fort Worth,no,KNFW,FWH,NFW,http://www.cnic.navy.mil/regions/cnrse/installations/nas_jrb_fort_worth.html,https://en.wikipedia.org/wiki/Naval_Air_Station_Joint_Reserve_Base_Fort_Worth,"Carswell AFB, Tarrant Field"
3726,KNGP,medium_airport,Corpus Christi Naval Air Station/Truax Field,27.69260025,-97.29109955,18,NA,US,US-TX,Corpus Christi,no,KNGP,,NGP,,,
3727,KNGU,medium_airport,Norfolk Naval Station (Chambers Field),36.937599,-76.289299,17,NA,US,US-VA,Norfolk,no,KNGU,NGU,NGU,,https://en.wikipedia.org/wiki/Naval_Station_Norfolk,
3728,KNHK,medium_airport,Patuxent River Naval Air Station (Trapnell Field),38.285999,-76.411797,39,NA,US,US-MD,Patuxent River,no,KNHK,NHK,NHK,,https://en.wikipedia.org/wiki/Naval_Air_Station_Patuxent_River,
3729,KNHZ,medium_airport,Brunswick Executive Airport,43.89220047,-69.93859863,72,NA,US,US-ME,Brunswick,no,KBXM,NHZ,BXM,http://mrra.us/brunswick-executive-airport/,https://en.wikipedia.org/wiki/Brunswick_Executive_Airport,"KHNZ, Brunswick NAS"
20643,KNID,medium_airport,China Lake Naws (Armitage Field) Airport,35.6853981,-117.6920013,2283,NA,US,US-CA,China Lake,no,KNID,,NID,,https://en.wikipedia.org/wiki/Naval_Air_Weapons_Station_China_Lake,
3730,KNIP,medium_airport,Jacksonville Naval Air Station (Towers Field),30.2358,-81.680603,21,NA,US,US-FL,Jacksonville,no,KNIP,NIP,NIP,,https://en.wikipedia.org/wiki/Naval_Air_Station_Jacksonville,
3731,KNJK,medium_airport,El Centro NAF Airport (Vraciu Field),32.829201,-115.671996,-42,NA,US,US-CA,El Centro,no,KNJK,NJK,NJK,https://www.cnic.navy.mil/regions/cnrsw/installations/naf_el_centro.html,https://en.wikipedia.org/wiki/Naval_Air_Facility_El_Centro,"Naval Air Facility El Centro, MCAS El Centro"
3732,KNKT,medium_airport,Cherry Point MCAS /Cunningham Field/,34.90090179,-76.88069916,29,NA,US,US-NC,Cherry Point,no,KNKT,,NKT,,,Cherry Point MCAS
3733,KNKX,medium_airport,Miramar Marine Corps Air Station - Mitscher Field,32.86840057,-117.1429977,477,NA,US,US-CA,San Diego,no,KNKX,NKX,NKX,http://www.miramar.marines.mil/,https://en.wikipedia.org/wiki/Marine_Corps_Air_Station_Miramar,Miramar MCAS
20647,KNLC,medium_airport,Lemoore Naval Air Station (Reeves Field) Airport,36.33300018,-119.9520035,232,NA,US,US-CA,Lemoore,no,KNLC,NLC,NLC,http://www.cnic.navy.mil/regions/cnrsw/installations/nas_lemoore.html,https://en.wikipedia.org/wiki/Naval_Air_Station_Lemoore,
3734,KNMM,medium_airport,Naval Air Station Meridian / McCain Field,32.5531,-88.55406,316,NA,US,US-MS,Lauderdale,no,KNMM,,NMM,,,
3735,KNPA,medium_airport,Naval Air Station Pensacola Forrest Sherman Field,30.352699,-87.318604,28,NA,US,US-FL,Pensacola,no,KNPA,NPA,NPA,http://www.cnic.navy.mil/regions/cnrse/installations/nas_pensacola.html,https://en.wikipedia.org/wiki/Naval_Air_Station_Pensacola,"NAS, KNAS"
3736,KNQA,medium_airport,Millington-Memphis Airport,35.356701,-89.8703,320,NA,US,US-TN,Millington,no,KNQA,NQA,NQA,https://millingtonairport.com/,https://en.wikipedia.org/wiki/Millington-Memphis_Airport,"Millington Municipal, NAS Memphis, Millington Regional Jetport"
3737,KNQI,medium_airport,Kingsville Naval Air Station,27.50720024,-97.80970001,50,NA,US,US-TX,Kingsville,no,KNQI,NQI,NQI,http://www.cnic.navy.mil/regions/cnrse/installations/nas_kingsville.html,https://en.wikipedia.org/wiki/Naval_Air_Station_Kingsville,
3738,KNQX,medium_airport,Naval Air Station Key West/Boca Chica Field,24.57579994,-81.68890381,6,NA,US,US-FL,Key West,no,KNQX,NQX,NQX,http://www.cnic.navy.mil/regions/cnrse/installations/nas_key_west.html,https://en.wikipedia.org/wiki/Naval_Air_Station_Key_West,
20652,KNRB,medium_airport,Naval Station Mayport / Admiral David L McDonald Field,30.3911,-81.424698,15,NA,US,US-FL,Jacksonville,no,KNRB,NRB,NRB,http://www.cnic.navy.mil/regions/cnrse/installations/ns_mayport.html,https://en.wikipedia.org/wiki/Naval_Station_Mayport,
20656,KNSE,medium_airport,Whiting Field Naval Air Station - North,30.7241993,-87.02189636,199,NA,US,US-FL,Milton,no,KNSE,NSE,NSE,,https://en.wikipedia.org/wiki/Naval_Air_Station_Whiting_Field_%E2%80%93_North,
3739,KNTD,medium_airport,Point Mugu Naval Air Station (Naval Base Ventura Co),34.12030029,-119.1210022,13,NA,US,US-CA,Point Mugu,no,KNTD,NTD,NTD,,https://en.wikipedia.org/wiki/Naval_Air_Station_Point_Mugu,
3740,KNTU,medium_airport,Oceana Naval Air Station,36.820702,-76.033501,23,NA,US,US-VA,Virginia Beach,no,KNTU,NTU,NTU,,https://en.wikipedia.org/wiki/Naval_Air_Station_Oceana,Apollo Soucek Field
3741,KNUQ,medium_airport,Moffett Federal Airfield,37.4161,-122.049004,32,NA,US,US-CA,Mountain View,no,KNUQ,NUQ,NUQ,,https://en.wikipedia.org/wiki/Moffett_Federal_Airfield,
20661,KNUW,medium_airport,Whidbey Island Naval Air Station (Ault Field),48.351799,-122.655998,47,NA,US,US-WA,Oak Harbor,no,KNUW,NUW,NUW,,https://en.wikipedia.org/wiki/Naval_Air_Station_Whidbey_Island,
20666,KNXP,medium_airport,Twentynine Palms Strategic Expeditionary Landing Field,34.2962,-116.162003,2051,NA,US,US-CA,Twentynine Palms,no,KNXP,,NXP,,https://en.wikipedia.org/wiki/Twentynine_Palms_Strategic_Expeditionary_Landing_Field,
20669,KNYG,medium_airport,Quantico Marine Corps Airfield / Turner Field,38.501701,-77.305298,10,NA,US,US-VA,Quantico,no,KNYG,,NYG,,,
3961,KNYL,medium_airport,Yuma International Airport / Marine Corps Air Station Yuma,32.656601,-114.606003,213,NA,US,US-AZ,Yuma,yes,KNYL,YUM,NYL,,https://en.wikipedia.org/wiki/Yuma_International_Airport,"Yuma MCAS, Yuma Marine Corps Air Station, Formerly KYUM"
3743,KNZY,medium_airport,North Island Naval Air Station-Halsey Field,32.69919968,-117.2149963,26,NA,US,US-CA,San Diego,no,KNZY,NZY,NZY,,https://en.wikipedia.org/wiki/Naval_Air_Station_North_Island,
20709,KOAJ,medium_airport,Albert J Ellis Airport,34.829201,-77.612099,94,NA,US,US-NC,Richlands,yes,KOAJ,OAJ,OAJ,https://flyoaj.com/,https://en.wikipedia.org/wiki/Albert_J._Ellis_Airport,
3744,KOAK,large_airport,Metropolitan Oakland International Airport,37.721298,-122.221001,9,NA,US,US-CA,Oakland,yes,KOAK,OAK,OAK,http://www.oaklandairport.com/,https://en.wikipedia.org/wiki/Oakland_International_Airport,"QSF, QBA"
3745,KOFF,medium_airport,Offutt Air Force Base,41.11830139,-95.91249847,1052,NA,US,US-NE,Omaha,no,KOFF,OFF,OFF,http://www.offutt.af.mil/,https://en.wikipedia.org/wiki/Offutt_Air_Force_Base,
20722,KOFK,medium_airport,Karl Stefan Memorial Airport,41.98550034,-97.43509674,1573,NA,US,US-NE,Norfolk,no,KOFK,OFK,OFK,http://www.norfolkairportservices.com/default.htm,https://en.wikipedia.org/wiki/Norfolk_Regional_Airport,
20725,KOGB,medium_airport,Orangeburg Municipal Airport,33.45679855,-80.85949707,195,NA,US,US-SC,Orangeburg,no,KOGB,OGB,OGB,http://www.orangeburg.sc.us/index.php?option=com_content&view=article&id=18&Itemid=69,https://en.wikipedia.org/wiki/Orangeburg_Municipal_Airport,
3746,KOGD,medium_airport,Ogden Hinckley Airport,41.19589996,-112.012001,4473,NA,US,US-UT,Ogden,yes,KOGD,OGD,OGD,http://flyogden.com/,https://en.wikipedia.org/wiki/Ogden-Hinckley_Airport,
3747,KOKC,medium_airport,Will Rogers World Airport,35.393101,-97.6007,1295,NA,US,US-OK,Oklahoma City,yes,KOKC,OKC,OKC,,https://en.wikipedia.org/wiki/Will_Rogers_World_Airport,
20739,KOLF,medium_airport,L M Clayton Airport,48.0945015,-105.5749969,1986,NA,US,US-MT,Wolf Point,no,KOLF,OLF,OLF,,https://en.wikipedia.org/wiki/L._M._Clayton_Airport,
3749,KOLM,medium_airport,Olympia Regional Airport,46.9693985,-122.9029999,209,NA,US,US-WA,Olympia,no,KOLM,OLM,OLM,,https://en.wikipedia.org/wiki/Olympia_Airport,
20741,KOLS,medium_airport,Nogales International Airport,31.4177,-110.848,3955,NA,US,US-AZ,Nogales,no,KOLS,OLS,OLS,,https://en.wikipedia.org/wiki/Nogales_International_Airport,
3750,KOLU,medium_airport,Columbus Municipal Airport,41.44800186,-97.34259796,1447,NA,US,US-NE,Columbus,no,KOLU,,OLU,,,
3751,KOMA,medium_airport,Eppley Airfield,41.3032,-95.894096,984,NA,US,US-NE,Omaha,yes,KOMA,OMA,OMA,,https://en.wikipedia.org/wiki/Eppley_Airfield,
20751,KONO,medium_airport,Ontario Municipal Airport,44.0198,-117.013289,2193,NA,US,US-OR,Oregon,no,KONO,ONO,ONO,https://www.ontariooregon.org/airport.html,https://en.wikipedia.org/wiki/Ontario_Municipal_Airport,
20752,KONP,medium_airport,Newport Municipal Airport,44.580399,-124.057999,160,NA,US,US-OR,Newport,no,KONP,ONP,ONP,,https://en.wikipedia.org/wiki/Newport_Municipal_Airport_(Oregon),
3752,KONT,large_airport,Ontario International Airport,34.05599976,-117.6009979,944,NA,US,US-CA,Ontario,yes,KONT,ONT,ONT,,https://en.wikipedia.org/wiki/LA/Ontario_International_Airport,
20757,KOPF,medium_airport,Miami-Opa Locka Executive Airport,25.907,-80.278397,8,NA,US,US-FL,Miami,no,KOPF,OPF,OPF,http://www.miami-airport.com/html/opalocka.html,https://en.wikipedia.org/wiki/Miami-Opa_Locka_Executive_Airport,
3753,KOQU,medium_airport,Quonset State Airport,41.5970993,-71.41210175,18,NA,US,US-RI,North Kingstown,no,KOQU,NCO,OQU,,https://en.wikipedia.org/wiki/Quonset_State_Airport,Quonset Point NAS
3754,KORD,large_airport,Chicago O'Hare International Airport,41.9786,-87.9048,672,NA,US,US-IL,Chicago,yes,KORD,ORD,ORD,https://www.flychicago.com/ohare/home/pages/default.aspx,https://en.wikipedia.org/wiki/O'Hare_International_Airport,"CHI, Orchard Place"
3755,KORF,medium_airport,Norfolk International Airport,36.8946,-76.201202,26,NA,US,US-VA,Norfolk,yes,KORF,ORF,ORF,,https://en.wikipedia.org/wiki/Norfolk_International_Airport,
3756,KORH,medium_airport,Worcester Regional Airport,42.2673,-71.875702,1009,NA,US,US-MA,Worcester,yes,KORH,ORH,ORH,,https://en.wikipedia.org/wiki/Worcester-Metrowest-Boston_Airport,
3757,KOSH,medium_airport,Wittman Regional Airport,43.9844017,-88.55699921,808,NA,US,US-WI,Oshkosh,no,KOSH,OSH,OSH,http://www.wittmanairport.com/,https://en.wikipedia.org/wiki/Wittman_Regional_Airport,
3758,KOSU,medium_airport,The Ohio State University Airport - Don Scott Field,40.0798,-83.072998,905,NA,US,US-OH,Columbus,no,KOSU,OSU,OSU,https://osuairport.org/,https://en.wikipedia.org/wiki/Ohio_State_University_Airport,
3759,KOTH,medium_airport,Southwest Oregon Regional Airport,43.417099,-124.2460022,17,NA,US,US-OR,North Bend,yes,KOTH,OTH,OTH,,https://en.wikipedia.org/wiki/Southwest_Oregon_Regional_Airport,
3760,KOTM,medium_airport,Ottumwa Regional Airport,41.106368,-92.449837,845,NA,US,US-IA,Ottumwa,no,KOTM,OTM,OTM,,,
3761,KOWB,medium_airport,Owensboro Daviess County Airport,37.74010086,-87.16680145,407,NA,US,US-KY,Owensboro,yes,KOWB,OWB,OWB,,https://en.wikipedia.org/wiki/Owensboro-Daviess_County_Regional_Airport,
20777,KOWD,medium_airport,Norwood Memorial Airport,42.19049835,-71.17289734,49,NA,US,US-MA,Norwood,no,KOWD,OWD,OWD,http://www.ci.norwood.ma.us/Airport/Default.htm,https://en.wikipedia.org/wiki/Norwood_Memorial_Airport,
20785,KOXR,medium_airport,Oxnard Airport,34.20080185,-119.2070007,45,NA,US,US-CA,Oxnard,no,KOXR,OXR,OXR,,https://en.wikipedia.org/wiki/Oxnard_Airport,
3762,KOZR,medium_airport,Cairns AAF (Fort Rucker) Air Field,31.27569962,-85.71340179,301,NA,US,US-AL,Fort Rucker/Ozark,no,KOZR,OZR,OZR,,https://en.wikipedia.org/wiki/Cairns_Army_Airfield,
3763,KPAE,medium_airport,Snohomish County (Paine Field) Airport,47.9063,-122.281998,606,NA,US,US-WA,Everett,yes,KPAE,PAE,PAE,,https://en.wikipedia.org/wiki/Paine_Field,
3764,KPAH,medium_airport,Barkley Regional Airport,37.06079865,-88.77380371,410,NA,US,US-KY,Paducah,yes,KPAH,PAH,PAH,,https://en.wikipedia.org/wiki/Barkley_Regional_Airport,
3765,KPAM,medium_airport,Tyndall Air Force Base,30.069599,-85.575401,17,NA,US,US-FL,Panama City,no,KPAM,PAM,PAM,http://www.tyndall.af.mil/,https://en.wikipedia.org/wiki/Tyndall_Air_Force_Base,
20807,KPBF,medium_airport,"Pine Bluff Regional Airport, Grider Field",34.174121,-91.935643,206,NA,US,US-AR,Pine Bluff,no,KPBF,PBF,PBF,http://www.pbaviation.com,https://en.wikipedia.org/wiki/Grider_Field,
20808,KPBG,medium_airport,Plattsburgh International Airport,44.65090179,-73.4681015,234,NA,US,US-NY,Plattsburgh,yes,KPBG,PBG,PBG,http://www.plattsburghinternationalairport.com/,https://en.wikipedia.org/wiki/Plattsburgh_International_Airport,Plattsburgh Air Force Base
3766,KPBI,large_airport,Palm Beach International Airport,26.68320084,-80.09559631,19,NA,US,US-FL,West Palm Beach,yes,KPBI,PBI,PBI,,https://en.wikipedia.org/wiki/Palm_Beach_International_Airport,"MFW, South Florida"
3767,KPDK,medium_airport,DeKalb Peachtree Airport,33.87559891,-84.30200195,1003,NA,US,US-GA,Atlanta,no,KPDK,PDK,PDK,http://web.co.dekalb.ga.us/pdkairport/index.asp,https://en.wikipedia.org/wiki/DeKalb-Peachtree_Airport,
20815,KPDT,medium_airport,Eastern Oregon Regional Airport at Pendleton,45.695099,-118.841003,1497,NA,US,US-OR,Pendleton,yes,KPDT,PDT,PDT,,https://en.wikipedia.org/wiki/Eastern_Oregon_Regional_Airport,
3768,KPDX,large_airport,Portland International Airport,45.58869934,-122.5979996,31,NA,US,US-OR,Portland,yes,KPDX,PDX,PDX,,https://en.wikipedia.org/wiki/Portland_International_Airport,
20821,KPGA,medium_airport,Page Municipal Airport,36.92610168,-111.447998,4316,NA,US,US-AZ,Page,no,KPGA,PGA,PGA,,https://en.wikipedia.org/wiki/Page_Municipal_Airport,
20822,KPGD,medium_airport,Charlotte County Airport,26.9202,-81.990501,26,NA,US,US-FL,Punta Gorda,yes,KPGD,PGD,PGD,http://www.flypgd.com/,https://en.wikipedia.org/wiki/Punta_Gorda_Airport_(Florida),Punta Gorda AAF
20824,KPGV,medium_airport,Pitt Greenville Airport,35.6352005,-77.38529968,26,NA,US,US-NC,Greenville,no,KPGV,PGV,PGV,,https://en.wikipedia.org/wiki/Pitt-Greenville_Airport,
3770,KPHF,medium_airport,Newport News Williamsburg International Airport,37.131901,-76.492996,42,NA,US,US-VA,Newport News,yes,KPHF,PHF,PHF,,https://en.wikipedia.org/wiki/Newport_News/Williamsburg_International_Airport,
3771,KPHL,large_airport,Philadelphia International Airport,39.87189865,-75.2410965,36,NA,US,US-PA,Philadelphia,yes,KPHL,PHL,PHL,http://www.phl.org/,https://en.wikipedia.org/wiki/Philadelphia_International_Airport,
3772,KPHX,large_airport,Phoenix Sky Harbor International Airport,33.435302,-112.005905,1135,NA,US,US-AZ,Phoenix,yes,KPHX,PHX,PHX,http://phoenix.gov/skyharborairport/,https://en.wikipedia.org/wiki/Phoenix_Sky_Harbor_International_Airport,
3773,KPIA,medium_airport,General Wayne A. Downing Peoria International Airport,40.6642,-89.693298,660,NA,US,US-IL,Peoria,yes,KPIA,PIA,PIA,,https://en.wikipedia.org/wiki/General_Wayne_A._Downing_Peoria_International_Airport,Peoria International Airport
3774,KPIB,medium_airport,Hattiesburg Laurel Regional Airport,31.4671,-89.337097,298,NA,US,US-MS,Moselle,yes,KPIB,PIB,PIB,,https://en.wikipedia.org/wiki/Hattiesburg-Laurel_Regional_Airport,
3775,KPIE,medium_airport,St. Petersburg Clearwater International Airport,27.9102,-82.687401,11,NA,US,US-FL,Pinellas Park,yes,KPIE,PIE,PIE,,https://en.wikipedia.org/wiki/St._Petersburg-Clearwater_International_Airport,
3776,KPIH,medium_airport,Pocatello Regional Airport,42.90980148,-112.5960007,4452,NA,US,US-ID,Pocatello,yes,KPIH,PIH,PIH,,https://en.wikipedia.org/wiki/Pocatello_Regional_Airport,
3777,KPIR,medium_airport,Pierre Regional Airport,44.38270187,-100.2860031,1744,NA,US,US-SD,Pierre,yes,KPIR,PIR,PIR,,https://en.wikipedia.org/wiki/Pierre_Regional_Airport,
3778,KPIT,large_airport,Pittsburgh International Airport,40.49150085,-80.23290253,1203,NA,US,US-PA,Pittsburgh,yes,KPIT,PIT,PIT,,https://en.wikipedia.org/wiki/Pittsburgh_International_Airport,
3779,KPKB,medium_airport,Mid Ohio Valley Regional Airport,39.3451004,-81.43920135,858,NA,US,US-WV,Parkersburg,yes,KPKB,PKB,PKB,,https://en.wikipedia.org/wiki/Mid-Ohio_Valley_Regional_Airport,
3781,KPLN,medium_airport,Pellston Regional Airport of Emmet County Airport,45.57089996,-84.79669952,721,NA,US,US-MI,Pellston,yes,KPLN,PLN,PLN,,https://en.wikipedia.org/wiki/Pellston_Regional_Airport,
3782,KPMD,medium_airport,Palmdale Regional Airport / USAF Plant 42 Airport,34.629398,-118.084999,2543,NA,US,US-CA,Palmdale,no,KPMD,PMD,PMD,,https://en.wikipedia.org/wiki/LA/Palmdale_Regional_Airport,
20848,KPNA,medium_airport,Ralph Wenz Field,42.79550171,-109.8069992,7102,NA,US,US-WY,Pinedale,no,KPNA,PWY,PNA,http://www.pinedaleonline.com/pinedaleairport.HTM,https://en.wikipedia.org/wiki/Ralph_Wenz_Field,
20849,KPNC,medium_airport,Ponca City Regional Airport,36.73199844,-97.09980011,1008,NA,US,US-OK,Ponca City,no,KPNC,PNC,PNC,http://www.poncacityok.gov/index.aspx?nid=181,https://en.wikipedia.org/wiki/Ponca_City_Regional_Airport,
20850,KPNE,medium_airport,Northeast Philadelphia Airport,40.081902,-75.010597,120,NA,US,US-PA,Philadelphia,yes,KPNE,PNE,PNE,http://www.phl.org/pne/pne.html,https://en.wikipedia.org/wiki/Northeast_Philadelphia_Airport,
3783,KPNS,medium_airport,Pensacola International Airport,30.4734,-87.1866,121,NA,US,US-FL,Pensacola,yes,KPNS,PNS,PNS,http://www.flypensacola.com/,https://en.wikipedia.org/wiki/Pensacola_Regional_Airport,
3784,KPOB,medium_airport,Pope Field,35.170898,-79.014503,217,NA,US,US-NC,Fort Bragg,no,KPOB,POB,POB,http://www.pope.af.mil/,https://en.wikipedia.org/wiki/Pope_Field,"Pope AFB, Pope Army Airfield"
3785,KPOE,medium_airport,Polk Army Air Field,31.0447998,-93.1917038,330,NA,US,US-LA,Fort Polk,no,KPOE,POE,POE,http://www.jrtc-polk.army.mil/,,
3786,KPOU,medium_airport,Dutchess County Airport,41.62659836,-73.88420105,165,NA,US,US-NY,Poughkeepsie,no,KPOU,POU,POU,,https://en.wikipedia.org/wiki/Dutchess_County_Airport,
3787,KPQI,medium_airport,Presque Isle International Airport,46.688999,-68.0448,534,NA,US,US-ME,Presque Isle,yes,KPQI,PQI,PQI,,https://en.wikipedia.org/wiki/Presque_Isle_International_Airport,Northern Maine Regional
3788,KPRB,medium_airport,Paso Robles Municipal Airport,35.67290115,-120.6269989,840,NA,US,US-CA,Paso Robles,no,KPRB,PRB,PRB,http://www.prcity.com/government/departments/publicworks/airport/,https://en.wikipedia.org/wiki/Paso_Robles_Municipal_Airport,
3789,KPRC,medium_airport,Prescott International Airport - Ernest A. Love Field,34.654499,-112.419998,5045,NA,US,US-AZ,Prescott,yes,KPRC,PRC,PRC,,https://en.wikipedia.org/wiki/Ernest_A._Love_Field,
3790,KPRX,medium_airport,Cox Field,33.63660049,-95.45079803,547,NA,US,US-TX,Paris,no,KPRX,PRX,PRX,,https://en.wikipedia.org/wiki/Cox_Field,Cox AAF
20870,KPSC,medium_airport,Tri Cities Airport,46.26470184,-119.1190033,410,NA,US,US-WA,Pasco,yes,KPSC,PSC,PSC,,,
3791,KPSM,medium_airport,Portsmouth International at Pease Airport,43.07789993,-70.82330322,100,NA,US,US-NH,Portsmouth,yes,KPSM,PSM,PSM,,https://en.wikipedia.org/wiki/Pease_International_Airport,
3792,KPSP,medium_airport,Palm Springs International Airport,33.8297,-116.507004,477,NA,US,US-CA,Palm Springs,yes,KPSP,PSP,PSP,http://www.palmspringsca.gov/index.aspx?page=270,https://en.wikipedia.org/wiki/Palm_Springs_International_Airport,Palm Springs Air Base
3793,KPTK,medium_airport,Oakland County International Airport,42.66550064,-83.42009735,980,NA,US,US-MI,Pontiac,no,KPTK,PTK,PTK,https://www.oakgov.com/aviation/ocia,https://en.wikipedia.org/wiki/Oakland_County_International_Airport,"Pontiac Municipal Airport, Oakland-Pontiac Airport"
3794,KPUB,medium_airport,Pueblo Memorial Airport,38.289101,-104.497002,4726,NA,US,US-CO,Pueblo,yes,KPUB,PUB,PUB,,https://en.wikipedia.org/wiki/Pueblo_Memorial_Airport,
20883,KPUW,medium_airport,Pullman Moscow Regional Airport,46.7439,-117.110001,2556,NA,US,US-WA,Pullman/Moscow,yes,KPUW,PUW,PUW,http://www.pullman-wa.gov/airport/,https://en.wikipedia.org/wiki/Pullman-Moscow_Regional_Airport,
3795,KPVD,large_airport,Theodore Francis Green State Airport,41.725038,-71.425668,55,NA,US,US-RI,Warwick,yes,KPVD,PVD,PVD,,https://en.wikipedia.org/wiki/T._F._Green_Airport,
20890,KPVU,medium_airport,Provo-Utah Lake International Airport,40.2192,-111.723,4497,NA,US,US-UT,Provo,yes,KPVU,PVU,PVU,http://www.provo.org/city-services/airport,https://en.wikipedia.org/wiki/Provo_Municipal_Airport,
20896,KPWK,medium_airport,Chicago Executive Airport,42.114222,-87.901494,647,NA,US,US-IL,Chicago/Prospect Heights/Wheeling,no,KPWK,PWK,PWK,http://chiexec.com/,https://en.wikipedia.org/wiki/Chicago_Executive_Airport,
3796,KPWM,large_airport,Portland International Jetport,43.646198,-70.309303,76,NA,US,US-ME,Portland,yes,KPWM,PWM,PWM,,https://en.wikipedia.org/wiki/Portland_International_Jetport,
3797,KPWT,medium_airport,Bremerton National Airport,47.49020004,-122.7649994,444,NA,US,US-WA,Bremerton,no,KPWT,PWT,PWT,https://en.wikipedia.org/wiki/Bremerton_National_Airport,https://en.wikipedia.org/wiki/Bremerton_National_Airport,
3837,KRAL,medium_airport,Riverside Municipal Airport,33.9519,-117.445,819,NA,US,US-CA,Riverside,no,KRAL,RAL,RAL,http://www.riversideca.gov/airport/,https://en.wikipedia.org/wiki/Riverside_Municipal_Airport,Riverside Arlington
3838,KRAP,medium_airport,Rapid City Regional Airport,44.04529953,-103.0569992,3204,NA,US,US-SD,Rapid City,yes,KRAP,RAP,RAP,,https://en.wikipedia.org/wiki/Rapid_City_Regional_Airport,
3839,KRBL,medium_airport,Red Bluff Municipal Airport,40.15069962,-122.2519989,352,NA,US,US-CA,Red Bluff,no,KRBL,RBL,RBL,,https://en.wikipedia.org/wiki/Red_Bluff_Municipal_Airport,
3840,KRCA,medium_airport,Ellsworth Air Force Base,44.14500046,-103.1039963,3276,NA,US,US-SD,Rapid City,no,KRCA,RCA,RCA,http://www.ellsworth.af.mil/,https://en.wikipedia.org/wiki/Ellsworth_Air_Force_Base,28th Bomb Wing
3841,KRDD,medium_airport,Redding Municipal Airport,40.50899887,-122.2929993,505,NA,US,US-CA,Redding,yes,KRDD,RDD,RDD,,https://en.wikipedia.org/wiki/Redding_Municipal_Airport,
3842,KRDG,medium_airport,Reading Regional Airport (Carl A Spaatz Field),40.378502,-75.965202,344,NA,US,US-PA,Reading,yes,KRDG,RDG,RDG,,https://en.wikipedia.org/wiki/Reading_Regional_Airport,
3843,KRDM,medium_airport,Roberts Field,44.2541008,-121.1500015,3080,NA,US,US-OR,Redmond,yes,KRDM,RDM,RDM,,https://en.wikipedia.org/wiki/Roberts_Field,
20922,KRDR,medium_airport,Grand Forks Air Force Base,47.96110153,-97.40119934,913,NA,US,US-ND,Grand Forks,no,KRDR,RDR,RDR,http://www.grandforks.af.mil/,https://en.wikipedia.org/wiki/Grand_Forks_Air_Force_Base,
3844,KRDU,large_airport,Raleigh Durham International Airport,35.87760162,-78.78749847,435,NA,US,US-NC,Raleigh/Durham,yes,KRDU,RDU,RDU,,https://en.wikipedia.org/wiki/Raleigh-Durham_International_Airport,
3845,KRFD,medium_airport,Chicago Rockford International Airport,42.1954,-89.097198,742,NA,US,US-IL,Chicago/Rockford,yes,KRFD,RFD,RFD,,https://en.wikipedia.org/wiki/Chicago/Rockford_International_Airport,
3846,KRHI,medium_airport,Rhinelander Oneida County Airport,45.63119888,-89.46749878,1624,NA,US,US-WI,Rhinelander,yes,KRHI,RHI,RHI,,https://en.wikipedia.org/wiki/Rhinelander-Oneida_County_Airport,
3847,KRIC,large_airport,Richmond International Airport,37.50519943,-77.31970215,167,NA,US,US-VA,Richmond,yes,KRIC,RIC,RIC,,https://en.wikipedia.org/wiki/Richmond_International_Airport,
20931,KRIL,medium_airport,Garfield County Regional Airport,39.526299,-107.726997,5548,NA,US,US-CO,Rifle,no,KRIL,RIL,RIL,http://www.rifleairport.com/,https://en.wikipedia.org/wiki/Garfield_County_Regional_Airport,Rifle Airport
3849,KRIV,medium_airport,March Air Reserve Base,33.880699,-117.259003,1536,NA,US,US-CA,Riverside,no,KRIV,RIV,RIV,,https://en.wikipedia.org/wiki/March_Air_Reserve_Base,
20933,KRIW,medium_airport,Riverton Regional Airport,43.06420136,-108.4599991,5525,NA,US,US-WY,Riverton,no,KRIW,RIW,RIW,,https://en.wikipedia.org/wiki/Riverton_Regional_Airport,
3850,KRKS,medium_airport,Southwest Wyoming Regional Airport,41.5942,-109.065001,6764,NA,US,US-WY,Rock Springs,yes,KRKS,RKS,RKS,,https://en.wikipedia.org/wiki/Rock_Springs_-_Sweetwater_County_Airport,Rock Springs Sweetwater County
20940,KRME,medium_airport,Griffiss International Airport,43.23379898,-75.40699768,504,NA,US,US-NY,Rome,no,KRME,RME,RME,http://www.ocgov.net/oneida/airport,https://en.wikipedia.org/wiki/Griffiss_Airfield,
3851,KRMG,medium_airport,Richard B Russell Airport,34.3506012,-85.15799713,644,NA,US,US-GA,Rome,no,KRMG,RMG,RMG,http://www.romefloyd.com/EconomicDevelopment/Airport/tabid/306/Default.aspx,https://en.wikipedia.org/wiki/Richard_B._Russell_Airport,Towers Field
3852,KRND,medium_airport,Randolph Air Force Base,29.529699,-98.2789,761,NA,US,US-TX,Universal City,no,KRND,RND,RND,http://www.military.com/base-guide/randolph-air-force-base,https://en.wikipedia.org/wiki/Randolph_Air_Force_Base,
20944,KRNH,medium_airport,New Richmond Regional Airport,45.14830017,-92.5381012,998,NA,US,US-WI,New Richmond,no,KRNH,,RNH,,,
3853,KRNO,large_airport,Reno Tahoe International Airport,39.49909973,-119.7679977,4415,NA,US,US-NV,Reno,yes,KRNO,RNO,RNO,,https://en.wikipedia.org/wiki/Reno-Tahoe_International_Airport,
3854,KROA,medium_airport,Roanokeâ€“Blacksburg Regional Airport,37.3255,-79.975403,1175,NA,US,US-VA,Roanoke,yes,KROA,ROA,ROA,http://www.roanokeairport.com/,https://en.wikipedia.org/wiki/Roanoke%E2%80%93Blacksburg_Regional_Airport,Woodrum Field
3855,KROC,medium_airport,Frederick Douglass Greater Rochester International Airport,43.1189,-77.672401,559,NA,US,US-NY,Rochester,yes,KROC,ROC,ROC,https://rocairport.com/,https://en.wikipedia.org/wiki/Greater_Rochester_International_Airport,
3856,KROW,medium_airport,Roswell Air Center Airport,33.301601,-104.530998,3671,NA,US,US-NM,Roswell,yes,KROW,ROW,ROW,,https://en.wikipedia.org/wiki/Roswell_International_Air_Center,"Roswell Army Air Field, Walker Air Force Base"
20962,KRSL,medium_airport,Russell Municipal Airport,38.87210083,-98.8117981,1862,NA,US,US-KS,Russell,no,KRSL,RSL,RSL,http://www.russellcity.org/airport.php,,
3857,KRST,medium_airport,Rochester International Airport,43.908298,-92.5,1317,NA,US,US-MN,Rochester,yes,KRST,RST,RST,,https://en.wikipedia.org/wiki/Rochester_International_Airport,
3858,KRSW,large_airport,Southwest Florida International Airport,26.53619957,-81.75520325,30,NA,US,US-FL,Fort Myers,yes,KRSW,RSW,RSW,http://www.flylcpa.com/,https://en.wikipedia.org/wiki/Southwest_Florida_International_Airport,
3859,KRUT,medium_airport,Rutland - Southern Vermont Regional Airport,43.5294,-72.9496,787,NA,US,US-VT,Rutland,yes,KRUT,RUT,RUT,,https://en.wikipedia.org/wiki/Rutland_State_Airport,
20972,KRVS,medium_airport,Richard Lloyd Jones Jr Airport,36.03960037,-95.98459625,638,NA,US,US-OK,Tulsa,no,KRVS,RVS,RVS,http://www.tulsaairports.com/general-aviation/r-l-jones/,https://en.wikipedia.org/wiki/Richard_Lloyd_Jones_Jr._Airport,Riverside Airport
20973,KRWF,medium_airport,Redwood Falls Municipal Airport,44.54719925,-95.08229828,1024,NA,US,US-MN,Redwood Falls,no,KRWF,RWF,RWF,,,
3860,KRWI,medium_airport,Rocky Mount Wilson Regional Airport,35.85630035,-77.89189911,159,NA,US,US-NC,Rocky Mount,no,KRWI,RWI,RWI,,,
20974,KRWL,medium_airport,Rawlins Municipal Airport/Harvey Field,41.80559921,-107.1999969,6813,NA,US,US-WY,Rawlins,no,KRWL,RWL,RWL,http://www.wyomingairports.org/index.php?/main/airports_detail/rawlins_municipal_airport/,https://en.wikipedia.org/wiki/Rawlins_Municipal_Airport,
20981,KRYY,medium_airport,Cobb County International Airport-McCollum Field,34.01316,-84.59721,1040,NA,US,US-GA,Atlanta,no,KRYY,,RYY,,https://en.wikipedia.org/wiki/Cobb_County_Airport,
3861,KSAC,medium_airport,Sacramento Executive Airport,38.51250076,-121.4929962,24,NA,US,US-CA,Sacramento,no,KSAC,SAC,SAC,http://www.sacramento.aero/sac/,https://en.wikipedia.org/wiki/Sacramento_Executive_Airport,"Sutterville Aerodrome, Sacramento Municipal"
21033,KSAF,medium_airport,Santa Fe Municipal Airport,35.61709976,-106.0889969,6348,NA,US,US-NM,Santa Fe,no,KSAF,SAF,SAF,,,
3862,KSAN,large_airport,San Diego International Airport,32.73360062,-117.1900024,17,NA,US,US-CA,San Diego,yes,KSAN,SAN,SAN,http://www.san.org/,https://en.wikipedia.org/wiki/San_Diego_International_Airport,Lindbergh Field
3863,KSAT,large_airport,San Antonio International Airport,29.533701,-98.469803,809,NA,US,US-TX,San Antonio,yes,KSAT,SAT,SAT,https://www.sanantonio.gov/aviation,https://en.wikipedia.org/wiki/San_Antonio_International_Airport,
3864,KSAV,large_airport,Savannah Hilton Head International Airport,32.12760162,-81.20210266,50,NA,US,US-GA,Savannah,yes,KSAV,SAV,SAV,,https://en.wikipedia.org/wiki/Savannah/Hilton_Head_International_Airport,
3865,KSAW,medium_airport,Sawyer International Airport,46.3536,-87.395401,1221,NA,US,US-MI,Gwinn,yes,KSAW,MQT,SAW,http://www.sawyerairport.com/,https://en.wikipedia.org/wiki/Sawyer_International_Airport,
3866,KSBA,medium_airport,Santa Barbara Municipal Airport,34.42620087,-119.8399963,13,NA,US,US-CA,Santa Barbara,yes,KSBA,SBA,SBA,,https://en.wikipedia.org/wiki/Santa_Barbara_Airport,
3867,KSBD,medium_airport,San Bernardino International Airport,34.095402,-117.235001,1159,NA,US,US-CA,San Bernardino,yes,KSBD,SBD,SBD,http://sbdairport.com/,https://en.wikipedia.org/wiki/San_Bernardino_International_Airport,"Norton AFB, San Bernardino Air Depot"
3868,KSBN,medium_airport,South Bend Regional Airport,41.708698,-86.317299,799,NA,US,US-IN,South Bend,yes,KSBN,SBN,SBN,,https://en.wikipedia.org/wiki/South_Bend_Regional_Airport,
3869,KSBP,medium_airport,San Luis County Regional Airport,35.23680115,-120.6419983,212,NA,US,US-CA,San Luis Obispo,yes,KSBP,SBP,SBP,http://www.sloairport.com/,https://en.wikipedia.org/wiki/San_Luis_Obispo_County_Regional_Airport,SLO Airport
3870,KSBY,medium_airport,Salisbury Ocean City Wicomico Regional Airport,38.34049988,-75.51029968,52,NA,US,US-MD,Salisbury,yes,KSBY,SBY,SBY,,https://en.wikipedia.org/wiki/Wicomico_Regional_Airport,
3871,KSCH,medium_airport,Schenectady County Airport,42.85250092,-73.92890167,378,NA,US,US-NY,Schenectady,no,KSCH,SCH,SCH,http://www.schenectadycounty.com/FullStory.aspx?m=100&amid=432,https://en.wikipedia.org/wiki/Schenectady_County_Airport,
3872,KSCK,medium_airport,Stockton Metropolitan Airport,37.89419937,-121.237999,33,NA,US,US-CA,Stockton,no,KSCK,SCK,SCK,http://www.sjgov.org/airport/,https://en.wikipedia.org/wiki/Stockton_Metropolitan_Airport,
3873,KSDF,large_airport,Louisville Muhammad Ali International Airport,38.1744,-85.736,501,NA,US,US-KY,Louisville,yes,KSDF,SDF,SDF,http://www.flylouisville.com,https://en.wikipedia.org/wiki/Louisville_International_Airport,"Louisville International, Standiford Field"
3874,KSDM,medium_airport,Brown Field Municipal Airport,32.572639,-116.980019,526,NA,US,US-CA,San Diego,no,KSDM,SDM,SDM,http://www.sandiego.gov/airports/brown/,https://en.wikipedia.org/wiki/Brown_Field_Municipal_Airport,
21046,KSDY,medium_airport,Sidney - Richland Regional Airport,47.706902,-104.193001,1985,NA,US,US-MT,Sidney,no,KSDY,SDY,SDY,,https://en.wikipedia.org/wiki/Sidney%E2%80%93Richland_Municipal_Airport,
3875,KSEA,large_airport,Seattleâ€“Tacoma International Airport,47.449162,-122.311134,433,NA,US,US-WA,Seattle,yes,KSEA,SEA,SEA,,https://en.wikipedia.org/wiki/Seattle%E2%80%93Tacoma_International_Airport,
3876,KSFB,large_airport,Orlando Sanford International Airport,28.77759933,-81.23750305,55,NA,US,US-FL,Orlando,yes,KSFB,SFB,SFB,,https://en.wikipedia.org/wiki/Orlando_Sanford_International_Airport,
3877,KSFF,medium_airport,Felts Field,47.682899,-117.321925,1953,NA,US,US-WA,Spokane,no,KSFF,SFF,SFF,http://feltsfield.spokaneairports.net/,https://en.wikipedia.org/wiki/Felts_Field_Airport,Parkwater Airstrip
3878,KSFO,large_airport,San Francisco International Airport,37.61899948,-122.375,13,NA,US,US-CA,San Francisco,yes,KSFO,SFO,SFO,http://www.flysfo.com/,https://en.wikipedia.org/wiki/San_Francisco_International_Airport,"QSF, QBA"
3879,KSGF,medium_airport,Springfield Branson National Airport,37.245701,-93.388603,1268,NA,US,US-MO,Springfield,yes,KSGF,SGF,SGF,,https://en.wikipedia.org/wiki/Springfield/Branson_National_Airport,
3880,KSGH,medium_airport,Springfield-Beckley Municipal Airport,39.84030151,-83.84020233,1051,NA,US,US-OH,Springfield,no,KSGH,SGH,SGH,http://www.airparkohio.com/beckly_airport.html,https://en.wikipedia.org/wiki/Springfield-Beckley_Municipal_Airport,
21061,KSGJ,medium_airport,Northeast Florida Regional Airport,29.9592,-81.339798,10,NA,US,US-FL,St Augustine,yes,KSGJ,UST,SGJ,http://www.flynf.com/,https://en.wikipedia.org/wiki/St._Augustine_Airport,"St Augustine Airport, NAAS St. Augustine"
21062,KSGR,medium_airport,Sugar Land Regional Airport,29.62229919,-95.65650177,82,NA,US,US-TX,Houston,no,KSGR,SGR,SGR,http://www.sugarlandtx.gov/index.aspx?nid=1073,https://en.wikipedia.org/wiki/Sugar_Land_Regional_Airport,Hull Field
21065,KSGU,medium_airport,St George Regional Airport,37.036389,-113.510306,2941,NA,US,US-UT,St George,yes,KSGU,SGU,SGU,https://www.flysgu.org,https://en.wikipedia.org/wiki/St._George_Regional_Airport,DXZ
21066,KSHD,medium_airport,Shenandoah Valley Regional Airport,38.263802,-78.8964,1201,NA,US,US-VA,Weyers Cave,yes,KSHD,SHD,SHD,,https://en.wikipedia.org/wiki/Shenandoah_Valley_Regional_Airport,"Harrisonburg, Staunton, Waynesboro"
3881,KSHR,medium_airport,Sheridan County Airport,44.76919937,-106.9800034,4021,NA,US,US-WY,Sheridan,yes,KSHR,SHR,SHR,,https://en.wikipedia.org/wiki/Sheridan_County_Airport,
3882,KSHV,medium_airport,Shreveport Regional Airport,32.446602,-93.8256,258,NA,US,US-LA,Shreveport,yes,KSHV,SHV,SHV,,https://en.wikipedia.org/wiki/Shreveport_Regional_Airport,
3883,KSJC,large_airport,Norman Y. Mineta San Jose International Airport,37.362452,-121.929188,62,NA,US,US-CA,San Jose,yes,KSJC,SJC,SJC,https://www.flysanjose.com/,https://en.wikipedia.org/wiki/San_Jose_International_Airport,
3884,KSJT,medium_airport,San Angelo Regional Mathis Field,31.35770035,-100.4960022,1919,NA,US,US-TX,San Angelo,yes,KSJT,SJT,SJT,,https://en.wikipedia.org/wiki/San_Angelo_Regional_Airport,
3885,KSKA,medium_airport,Fairchild Air Force Base,47.615101,-117.655998,2461,NA,US,US-WA,Spokane,no,KSKA,SKA,SKA,http://www.fairchild.af.mil/,https://en.wikipedia.org/wiki/Fairchild_Air_Force_Base,
3886,KSKF,medium_airport,Lackland Air Force Base,29.38419914,-98.58110046,691,NA,US,US-TX,San Antonio,no,KSKF,SKF,SKF,,https://en.wikipedia.org/wiki/Lackland_Air_Force_Base,"Kelly Field Annex, Lackland AFB"
3887,KSLC,large_airport,Salt Lake City International Airport,40.785749,-111.979746,4227,NA,US,US-UT,Salt Lake City,yes,KSLC,SLC,SLC,,https://en.wikipedia.org/wiki/Salt_Lake_City_International_Airport,
3888,KSLE,medium_airport,Salem Municipal Airport/McNary Field,44.90950012,-123.0029984,214,NA,US,US-OR,Salem,no,KSLE,SLE,SLE,http://www.flysalem.com/,https://en.wikipedia.org/wiki/McNary_Field,4OR1
3889,KSLI,medium_airport,Los Alamitos Army Air Field,33.79000092,-118.052002,32,NA,US,US-CA,Los Alamitos,no,KSLI,,SLI,,https://en.wikipedia.org/wiki/Los_Alamitos_Army_Airfield,
3890,KSLK,medium_airport,Adirondack Regional Airport,44.38691,-74.204629,1663,NA,US,US-NY,Saranac Lake,yes,KSLK,SLK,SLK,,https://en.wikipedia.org/wiki/Adirondack_Regional_Airport,
3891,KSLN,medium_airport,Salina Municipal Airport,38.79100037,-97.65219879,1288,NA,US,US-KS,Salina,yes,KSLN,SLN,SLN,,https://en.wikipedia.org/wiki/Salina_Municipal_Airport,
21085,KSME,medium_airport,Lake Cumberland Regional Airport,37.05339813,-84.61589813,927,NA,US,US-KY,Somerset,no,KSME,SME,SME,,https://en.wikipedia.org/wiki/Lake_Cumberland_Regional_Airport,
3892,KSMF,large_airport,Sacramento International Airport,38.69540024,-121.5910034,27,NA,US,US-CA,Sacramento,yes,KSMF,SMF,SMF,,https://en.wikipedia.org/wiki/Sacramento_International_Airport,
21086,KSMN,medium_airport,Lemhi County Airport,45.12379837,-113.8809967,4043,NA,US,US-ID,Salmon,no,KSMN,SMN,SMN,http://lemhicountyairport.com/,https://en.wikipedia.org/wiki/Lemhi_County_Airport,
21087,KSMO,medium_airport,Santa Monica Municipal Airport,34.0158,-118.450996,170,NA,US,US-CA,Santa Monica,no,KSMO,SMO,SMO,http://www.smgov.net/departments/airport/,https://en.wikipedia.org/wiki/Santa_Monica_Airport,Clover Field
3893,KSMX,medium_airport,Santa Maria Public Airport Captain G Allan Hancock Field,34.898899,-120.457001,261,NA,US,US-CA,Santa Maria,yes,KSMX,SMX,SMX,,https://en.wikipedia.org/wiki/Santa_Maria_Public_Airport,
3894,KSNA,large_airport,John Wayne Airport-Orange County Airport,33.675701,-117.867996,56,NA,US,US-CA,Santa Ana,yes,KSNA,SNA,SNA,http://www.ocair.com/,https://en.wikipedia.org/wiki/John_Wayne_Airport,"Disney, Disneyland, Orange County"
3895,KSNS,medium_airport,Salinas Municipal Airport,36.66279984,-121.6060028,85,NA,US,US-CA,Salinas,no,KSNS,SNS,SNS,http://www.ci.salinas.ca.us/services/airport/airport.cfm,https://en.wikipedia.org/wiki/Salinas_Municipal_Airport,
21094,KSNY,medium_airport,Sidney Municipal-Lloyd W Carr Field,41.10129929,-102.9850006,4313,NA,US,US-NE,Sidney,no,KSNY,SNY,SNY,http://www.cityofsidney.org/283/Airport,https://en.wikipedia.org/wiki/Sidney_Municipal_Airport_(Nebraska),
21095,KSOA,medium_airport,Sonora Municipal Airport,30.58569908,-100.6490021,2140,NA,US,US-TX,Sonora,no,KSOA,,SOA,,,E29
3897,KSPI,medium_airport,Abraham Lincoln Capital Airport,39.844101,-89.677902,598,NA,US,US-IL,Springfield,yes,KSPI,SPI,SPI,,https://en.wikipedia.org/wiki/Abraham_Lincoln_Capital_Airport,
3898,KSPS,medium_airport,Sheppard Air Force Base / Wichita Falls Municipal Airport,33.9888,-98.491898,1019,NA,US,US-TX,Wichita Falls,yes,KSPS,SPS,SPS,http://www.flywichitafalls.net/,https://en.wikipedia.org/wiki/Wichita_Falls_Municipal_Airport,Sheppard Air Force Base
3899,KSRQ,medium_airport,Sarasota Bradenton International Airport,27.395399,-82.554398,30,NA,US,US-FL,Sarasota/Bradenton,yes,KSRQ,SRQ,SRQ,,https://en.wikipedia.org/wiki/Sarasota-Bradenton_International_Airport,
3900,KSRR,medium_airport,Sierra Blanca Regional Airport,33.462799,-105.535004,6814,NA,US,US-NM,Alto,no,KSRR,RUI,SRR,,https://en.wikipedia.org/wiki/Sierra_Blanca_Regional_Airport,Ruidoso
3901,KSSC,medium_airport,Shaw Air Force Base,33.972698,-80.470596,241,NA,US,US-SC,Sumter,no,KSSC,SSC,SSC,http://www.shaw.af.mil/,https://en.wikipedia.org/wiki/Shaw_Air_Force_Base,
21109,KSSF,medium_airport,Stinson Municipal Airport,29.33699989,-98.47109985,577,NA,US,US-TX,San Antonio,no,KSSF,SSF,SSF,http://www.sanantonio.gov/SSF.aspx,https://en.wikipedia.org/wiki/Stinson_Municipal_Airport,
3902,KSSI,medium_airport,St Simons Island Airport,31.1518,-81.391296,19,NA,US,US-GA,St Simons Island,no,KSSI,SSI,SSI,http://www.goldenisles.com/listing/mckinnon-st-simons-island-airport,https://en.wikipedia.org/wiki/Malcolm_McKinnon_Airport,"Malcolm McKinnon, NAS St. Simons Island, Brunswick"
3903,KSTC,medium_airport,Saint Cloud Regional Airport,45.5466,-94.059898,1031,NA,US,US-MN,Saint Cloud,yes,KSTC,STC,STC,,https://en.wikipedia.org/wiki/St._Cloud_Regional_Airport,
3904,KSTJ,medium_airport,Rosecrans Memorial Airport,39.77190018,-94.90969849,826,NA,US,US-MO,St Joseph,no,KSTJ,STJ,STJ,http://www.stjoemo.info/index.aspx?NID=303,https://en.wikipedia.org/wiki/Rosecrans_Memorial_Airport,
3905,KSTL,large_airport,St Louis Lambert International Airport,38.748697,-90.370003,618,NA,US,US-MO,St Louis,yes,KSTL,STL,STL,https://www.flystl.com/,https://en.wikipedia.org/wiki/St._Louis_Lambert_International_Airport,Lambert St Louis
3906,KSTP,medium_airport,St Paul Downtown Holman Field,44.93450165,-93.05999756,705,NA,US,US-MN,St Paul,no,KSTP,STP,STP,,https://en.wikipedia.org/wiki/St._Paul_Downtown_Airport,
21114,KSTS,medium_airport,Charles M. Schulz Sonoma County Airport,38.50899887,-122.8130035,128,NA,US,US-CA,Santa Rosa,yes,KSTS,STS,STS,http://www.sonomacountyairport.org/,https://en.wikipedia.org/wiki/Charles_M._Schulz_-_Sonoma_County_Airport,
21118,KSUN,medium_airport,Friedman Memorial Airport,43.50439835,-114.2959976,5318,NA,US,US-ID,Hailey,yes,KSUN,SUN,SUN,,https://en.wikipedia.org/wiki/Friedman_Memorial_Airport,
3907,KSUS,medium_airport,Spirit of St Louis Airport,38.662102,-90.652,463,NA,US,US-MO,St Louis,no,KSUS,SUS,SUS,http://spiritairport.com/spiritairport/index.jsp,https://en.wikipedia.org/wiki/Spirit_of_St._Louis_Airport,
3908,KSUU,medium_airport,Travis Air Force Base,38.262699,-121.927002,62,NA,US,US-CA,Fairfield,no,KSUU,SUU,SUU,http://www.travis.af.mil/,https://en.wikipedia.org/wiki/Travis_Air_Force_Base,
3909,KSUX,medium_airport,Sioux Gateway Airport / Brigadier General Bud Day Field,42.397605,-96.382237,1098,NA,US,US-IA,Sioux City,yes,KSUX,SUX,SUX,https://www.sioux-city.org/government/departments-a-f/airport,https://en.wikipedia.org/wiki/Sioux_Gateway_Airport,"Col. Bud Day, Sioux City AB, Sioux City AAB"
29695,KSUZ,medium_airport,Saline County Regional Airport,34.590599,-92.479401,390,NA,US,US-AR,Benton,no,KSUZ,,SUZ,http://www.salinecounty.org/airport_new_site.htm,https://en.wikipedia.org/wiki/Saline_County_Regional_Airport,"M99, Watts Field"
3910,KSVN,medium_airport,Hunter Army Air Field,32.00999832,-81.14569855,41,NA,US,US-GA,Savannah,no,KSVN,SVN,SVN,http://www.stewart.army.mil/units/home.asp?id=186,https://en.wikipedia.org/wiki/Hunter_Army_Airfield,
3911,KSWF,medium_airport,New York Stewart International Airport,41.504101,-74.104797,491,NA,US,US-NY,Newburgh,yes,KSWF,SWF,SWF,,https://en.wikipedia.org/wiki/Stewart_International_Airport,
3912,KSWO,medium_airport,Stillwater Regional Airport,36.16120148,-97.08570099,1000,NA,US,US-OK,Stillwater,no,KSWO,SWO,SWO,http://stillwater.org/government/city_facilities/stillwater_regional_airport/,https://en.wikipedia.org/wiki/Stillwater_Regional_Airport,
3913,KSYR,large_airport,Syracuse Hancock International Airport,43.11119843,-76.10630035,421,NA,US,US-NY,Syracuse,yes,KSYR,SYR,SYR,http://www.syrairport.org/,https://en.wikipedia.org/wiki/Syracuse_Hancock_International_Airport,
3914,KSZL,medium_airport,Whiteman Air Force Base,38.730301,-93.547897,870,NA,US,US-MO,Knob Noster,no,KSZL,SZL,SZL,http://www.whiteman.af.mil/,https://en.wikipedia.org/wiki/Whiteman_Air_Force_Base,Sedalia Glider Base
3915,KTBN,medium_airport,Waynesville-St. Robert Regional Airport-Forney Field,37.7416,-92.140701,1159,NA,US,US-MO,Fort Leonard Wood,yes,KTBN,TBN,TBN,,https://en.wikipedia.org/wiki/Waynesville_Regional_Airport_at_Forney_Field,
3916,KTCC,medium_airport,Tucumcari Municipal Airport,35.18280029,-103.6029968,4065,NA,US,US-NM,Tucumcari,no,KTCC,TCC,TCC,http://www.cityoftucumcari.com/airport.html,https://en.wikipedia.org/wiki/Tucumcari_Municipal_Airport,
3917,KTCL,medium_airport,Tuscaloosa Regional Airport,33.22060013,-87.61139679,170,NA,US,US-AL,Tuscaloosa,no,KTCL,TCL,TCL,http://www.tuscaloosa.com/Government/Departments/Transportation/airport,https://en.wikipedia.org/wiki/Tuscaloosa_Regional_Airport,
3918,KTCM,medium_airport,McChord Air Force Base,47.137699,-122.475998,322,NA,US,US-WA,Tacoma,no,KTCM,TCM,TCM,,https://en.wikipedia.org/wiki/McChord_Air_Force_Base,
3919,KTCS,medium_airport,Truth or Consequences Municipal Airport,33.2369,-107.272003,4853,NA,US,US-NM,Truth or Consequences,no,KTCS,TCS,TCS,http://www.torcnm.org/departments/airport.html,https://en.wikipedia.org/wiki/Truth_or_Consequences_Municipal_Airport,
3920,KTEB,medium_airport,Teterboro Airport,40.85010147,-74.06079865,9,NA,US,US-NJ,Teterboro,no,KTEB,TEB,TEB,http://www.teb.com/,https://en.wikipedia.org/wiki/Teterboro_Airport,"Manhattan, New York City, NYC"
3921,KTIK,medium_airport,Tinker Air Force Base,35.4147,-97.386597,1291,NA,US,US-OK,Oklahoma City,no,KTIK,TIK,TIK,http://www.tinker.af.mil/,https://en.wikipedia.org/wiki/Tinker_Air_Force_Base,Midwest Air Depot
3922,KTIW,medium_airport,Tacoma Narrows Airport,47.26789856,-122.5780029,294,NA,US,US-WA,Tacoma,no,KTIW,TIW,TIW,,https://en.wikipedia.org/wiki/Tacoma_Narrows_Airport,
3923,KTIX,medium_airport,Space Coast Regional Airport,28.51479912,-80.79920197,34,NA,US,US-FL,Titusville,no,KTIX,TIX,TIX,,https://en.wikipedia.org/wiki/Space_Coast_Regional_Airport,
3924,KTLH,medium_airport,Tallahassee Regional Airport,30.3965,-84.350304,81,NA,US,US-FL,Tallahassee,yes,KTLH,TLH,TLH,,https://en.wikipedia.org/wiki/Tallahassee_Regional_Airport,
21204,KTMB,medium_airport,Miami Executive Airport,25.6479,-80.4328,8,NA,US,US-FL,Miami,no,KTMB,TMB,TMB,http://www.miami-airport.com/kendall_tamiami.asp,https://en.wikipedia.org/wiki/Miami_Executive_Airport,Kendall-Tamiami Executive Airport
21212,KTOI,medium_airport,Troy Municipal Airport at N Kenneth Campbell Field,31.860399,-86.012101,398,NA,US,US-AL,Troy,no,KTOI,TOI,TOI,http://www.troyal.gov/KTOI,https://en.wikipedia.org/wiki/Troy_Municipal_Airport,
3925,KTOL,medium_airport,Eugene F. Kranz Toledo Express Airport,41.5868,-83.8078,683,NA,US,US-OH,Toledo,yes,KTOL,TOL,TOL,,https://en.wikipedia.org/wiki/Toledo_Express_Airport,
21213,KTOP,medium_airport,Philip Billard Municipal Airport,39.069899,-95.622606,881,NA,US,US-KS,Topeka,no,KTOP,TOP,TOP,http://www.mtaa-topeka.org/billard-airport,https://en.wikipedia.org/wiki/Philip_Billard_Municipal_Airport,
3926,KTPA,large_airport,Tampa International Airport,27.97550011,-82.53320313,26,NA,US,US-FL,Tampa,yes,KTPA,TPA,TPA,,https://en.wikipedia.org/wiki/Tampa_International_Airport,
21216,KTPH,medium_airport,Tonopah Airport,38.06019974,-117.086998,5430,NA,US,US-NV,Tonopah,no,KTPH,TPH,TPH,http://www.tonopahnevada.com/airport.html,https://en.wikipedia.org/wiki/Tonopah_Airport,
3927,KTPL,medium_airport,Draughon Miller Central Texas Regional Airport,31.15250015,-97.40779877,682,NA,US,US-TX,Temple,no,KTPL,TPL,TPL,,,
3928,KTRI,medium_airport,Tri-Cities Regional TN/VA Airport,36.475201,-82.407401,1519,NA,US,US-TN,Blountville,yes,KTRI,TRI,TRI,,https://en.wikipedia.org/wiki/Tri-Cities_Regional_Airport,
21220,KTRK,medium_airport,Truckee Tahoe Airport,39.31999969,-120.1399994,5900,NA,US,US-CA,Truckee,no,KTRK,TKF,TRK,,https://en.wikipedia.org/wiki/Truckee_Tahoe_Airport,
21222,KTRM,medium_airport,Jacqueline Cochran Regional Airport,33.62670135,-116.1600037,-115,NA,US,US-CA,Palm Springs,no,KTRM,TRM,TRM,http://www.rcjcra.com/,https://en.wikipedia.org/wiki/Jacqueline_Cochran_Regional_Airport,"Thermal Airport, Desert Resorts Regional Airport, Thermal AAF"
21228,KTTD,medium_airport,Portland Troutdale Airport,45.54940033,-122.401001,39,NA,US,US-OR,Portland,no,KTTD,TTD,TTD,https://www2.portofportland.com/Airports/Troutdale/,https://en.wikipedia.org/wiki/Portland%E2%80%93Troutdale_Airport,
3929,KTTN,medium_airport,Trenton Mercer Airport,40.27669907,-74.81349945,213,NA,US,US-NJ,Trenton,yes,KTTN,TTN,TTN,,https://en.wikipedia.org/wiki/Trenton-Mercer_Airport,
21230,KTTS,medium_airport,NASA Shuttle Landing Facility Airport,28.615,-80.694504,10,NA,US,US-FL,Titusville,no,KTTS,,TTS,,https://en.wikipedia.org/wiki/Shuttle_Landing_Facility,
3930,KTUL,large_airport,Tulsa International Airport,36.19839859,-95.88809967,677,NA,US,US-OK,Tulsa,yes,KTUL,TUL,TUL,,https://en.wikipedia.org/wiki/Tulsa_International_Airport,
3931,KTUP,medium_airport,Tupelo Regional Airport,34.26810074,-88.76989746,346,NA,US,US-MS,Tupelo,yes,KTUP,TUP,TUP,,https://en.wikipedia.org/wiki/Tupelo_Regional_Airport,
3932,KTUS,medium_airport,Tucson International Airport / Morris Air National Guard Base,32.115004,-110.938053,2643,NA,US,US-AZ,Tucson,yes,KTUS,TUS,TUS,https://www.flytucson.com/,https://en.wikipedia.org/wiki/Tucson_International_Airport,"tucson, tucson international, morris angb"
3933,KTVC,medium_airport,Cherry Capital Airport,44.74140167,-85.5821991,624,NA,US,US-MI,Traverse City,yes,KTVC,TVC,TVC,,https://en.wikipedia.org/wiki/Cherry_Capital_Airport,
3934,KTVL,medium_airport,Lake Tahoe Airport,38.89390182,-119.9950027,6264,NA,US,US-CA,South Lake Tahoe,no,KTVL,TVL,TVL,,https://en.wikipedia.org/wiki/Lake_Tahoe_Airport,
3935,KTWF,medium_airport,Joslin Field Magic Valley Regional Airport,42.4818,-114.487999,4154,NA,US,US-ID,Twin Falls,yes,KTWF,TWF,TWF,,https://en.wikipedia.org/wiki/Magic_Valley_Regional_Airport,
3936,KTXK,medium_airport,Texarkana Regional Airport (Webb Field),33.453701,-93.990997,390,NA,US,US-AR,Texarkana,yes,KTXK,TXK,TXK,,https://en.wikipedia.org/wiki/Texarkana_Regional_Airport,
3937,KTYR,medium_airport,Tyler Pounds Regional Airport,32.35409927,-95.40239716,544,NA,US,US-TX,Tyler,yes,KTYR,TYR,TYR,,https://en.wikipedia.org/wiki/Tyler_Pounds_Regional_Airport,
3938,KTYS,medium_airport,McGhee Tyson Airport,35.811001,-83.994003,981,NA,US,US-TN,Alcoa,yes,KTYS,TYS,TYS,,https://en.wikipedia.org/wiki/McGhee_Tyson_Airport,Knoxville
21261,KU42,medium_airport,South Valley Regional Airport,40.619499,-111.992996,4607,NA,US,US-UT,Salt Lake City,no,,,U42,,https://en.wikipedia.org/wiki/Salt_Lake_City_Municipal_2_Airport,
21280,KUAO,medium_airport,Aurora State Airport,45.24710083,-122.7699966,200,NA,US,US-OR,Aurora,no,KUAO,,UAO,,https://en.wikipedia.org/wiki/Aurora_State_Airport,
3940,KUIN,medium_airport,Quincy Regional Baldwin Field,39.94269943,-91.19460297,768,NA,US,US-IL,Quincy,yes,KUIN,UIN,UIN,,https://en.wikipedia.org/wiki/Quincy_Regional_Airport,
3941,KUKI,medium_airport,Ukiah Municipal Airport,39.125999,-123.200996,614,NA,US,US-CA,Ukiah,no,KUKI,UKI,UKI,http://www.cityofukiah.com/ukiah-airport/,https://en.wikipedia.org/wiki/Ukiah_Municipal_Airport,
21300,KUNV,medium_airport,University Park Airport,40.849374,-77.84852,1239,NA,US,US-PA,State College,yes,KUNV,SCE,UNV,http://universityparkairport.com/,https://en.wikipedia.org/wiki/University_Park_Airport,
3942,KUOX,medium_airport,University Oxford Airport,34.38430023,-89.53679657,452,NA,US,US-MS,Oxford,no,KUOX,UOX,UOX,http://airport.olemiss.edu/,https://en.wikipedia.org/wiki/University-Oxford_Airport,
21304,KUTS,medium_airport,Huntsville Regional Airport,30.74690056,-95.58719635,363,NA,US,US-TX,Huntsville,no,KUTS,HTV,UTS,,https://en.wikipedia.org/wiki/Huntsville_Regional_Airport,"T39, Bruce Brothers Huntsville Regional Airport, Huntsville Municipal Airport"
3943,KVAD,medium_airport,Moody Air Force Base,30.96780014,-83.19300079,233,NA,US,US-GA,Valdosta,no,KVAD,VAD,VAD,http://www.moody.af.mil/,https://en.wikipedia.org/wiki/Moody_Air_Force_Base,
3944,KVBG,medium_airport,Vandenberg Space Force Base,34.737301,-120.584,369,NA,US,US-CA,Lompoc,no,KVBG,VBG,VBG,,https://en.wikipedia.org/wiki/Vandenberg_Air_Force_Base,
3945,KVCT,medium_airport,Victoria Regional Airport,28.8526001,-96.91850281,115,NA,US,US-TX,Victoria,yes,KVCT,VCT,VCT,,https://en.wikipedia.org/wiki/Victoria_Regional_Airport,
21318,KVEL,medium_airport,Vernal Regional Airport,40.440899,-109.510002,5278,NA,US,US-UT,Vernal,yes,KVEL,VEL,VEL,,https://en.wikipedia.org/wiki/Vernal_Airport,
21321,KVGT,medium_airport,North Las Vegas Metropolitan International Airport,36.210701,-115.194,2205,NA,US,US-NV,Las Vegas,no,KVGT,VGT,VGT,http://www.vgt.aero/index.html,https://en.wikipedia.org/wiki/North_Las_Vegas_Airport,"Northtown Airport, Las Vegas North Air Terminal"
21325,KVIS,medium_airport,Visalia Municipal Airport,36.318699,-119.392998,295,NA,US,US-CA,Visalia,no,KVIS,VIS,VIS,,https://en.wikipedia.org/wiki/Visalia_Municipal_Airport,
3946,KVLD,medium_airport,Valdosta Regional Airport,30.78249931,-83.27670288,203,NA,US,US-GA,Valdosta,yes,KVLD,VLD,VLD,,https://en.wikipedia.org/wiki/Valdosta_Regional_Airport,
21333,KVNY,medium_airport,Van Nuys Airport,34.20980072,-118.4899979,802,NA,US,US-CA,Van Nuys,no,KVNY,VNY,VNY,,https://en.wikipedia.org/wiki/Van_Nuys_Airport,
3947,KVOK,medium_airport,Volk Field,43.93899918,-90.25340271,912,NA,US,US-WI,Camp Douglas,no,KVOK,VOK,VOK,http://www.volkfield.ang.af.mil/,https://en.wikipedia.org/wiki/Volk_Field_Air_National_Guard_Base,"Camp Williams,"
3948,KVPS,medium_airport,Destin-Fort Walton Beach Airport,30.4832,-86.525398,87,NA,US,US-FL,Valparaiso,yes,KVPS,VPS,VPS,http://www.flyvps.com/,https://en.wikipedia.org/wiki/Destin%E2%80%93Fort_Walton_Beach_Airport,Eglin AFB
3949,KVPZ,medium_airport,Porter County Municipal Airport,41.45399857,-87.00710297,770,NA,US,US-IN,Valparaiso,no,KVPZ,VPZ,VPZ,http://www.vpz.org/,https://en.wikipedia.org/wiki/Porter_County_Municipal_Airport,
3950,KVRB,medium_airport,Vero Beach Regional Airport,27.6556,-80.417901,24,NA,US,US-FL,Vero Beach,no,KVRB,VRB,VRB,http://verobeachairport.org/,https://en.wikipedia.org/wiki/Vero_Beach_Municipal_Airport,Vero Beach Municipal
21339,KVTN,medium_airport,Miller Field,42.856211,-100.549192,2596,NA,US,US-NE,Valentine,no,KVTN,VTN,VTN,,https://en.wikipedia.org/wiki/Miller_Field_(airport),Valentine Municipal Airport
21358,KW63,medium_airport,Lake Country Regional Airport,36.59579849,-78.56009674,421,NA,US,US-VA,Clarksville,no,KW63,,W63,,,
21375,KWJF,medium_airport,General William J Fox Airfield,34.7411,-118.219002,2351,NA,US,US-CA,Lancaster,no,KWJF,WJF,WJF,,https://en.wikipedia.org/wiki/General_William_J._Fox_Airfield,
21379,KWMC,medium_airport,Winnemucca Municipal Airport,40.89659882,-117.8059998,4308,NA,US,US-NV,Winnemucca,no,KWMC,WMC,WMC,,https://en.wikipedia.org/wiki/Winnemucca_Municipal_Airport,
3951,KWRB,medium_airport,Robins Air Force Base,32.640099,-83.591904,294,NA,US,US-GA,Warner Robins,no,KWRB,WRB,WRB,http://www.robins.af.mil/,https://en.wikipedia.org/wiki/Robins_Air_Force_Base,
3952,KWRI,medium_airport,Mc Guire Air Force Base,40.0155983,-74.59169769,131,NA,US,US-NJ,Wrightstown,no,KWRI,WRI,WRI,http://www.mcguire.af.mil/,https://en.wikipedia.org/wiki/McGuire_Air_Force_Base,
3953,KWRL,medium_airport,Worland Municipal Airport,43.965698,-107.950996,4227,NA,US,US-WY,Worland,no,KWRL,WRL,WRL,,https://en.wikipedia.org/wiki/Worland_Municipal_Airport,
3954,KWWD,medium_airport,Cape May County Airport,39.00849915,-74.90830231,23,NA,US,US-NJ,Wildwood,no,KWWD,WWD,WWD,,https://en.wikipedia.org/wiki/Cape_May_Airport,
21386,KWWR,medium_airport,West Woodward Airport,36.438,-99.5226667,2189,NA,US,US-OK,Woodward,no,KWWR,WWR,WWR,http://www.cityofwoodward.com/airport-89/,https://en.wikipedia.org/wiki/West_Woodward_Airport,
3955,KWYS,medium_airport,Yellowstone Airport,44.68840027,-111.1179962,6649,NA,US,US-MT,West Yellowstone,no,KWYS,WYS,WYS,,https://en.wikipedia.org/wiki/Yellowstone_Airport,
3956,KXMR,medium_airport,Cape Canaveral SFS Skid Strip,28.4676,-80.566597,10,NA,US,US-FL,Cocoa Beach,no,KXMR,,XMR,,https://en.wikipedia.org/wiki/Cape_Canaveral_AFS_Skid_Strip,
21410,KXNA,medium_airport,Northwest Arkansas Regional Airport,36.281898,-94.306801,1287,NA,US,US-AR,Fayetteville/Springdale/Rogers,yes,KXNA,XNA,XNA,http://www.flyxna.com/,https://en.wikipedia.org/wiki/Northwest_Arkansas_Regional_Airport,"Bentonville, Rogers"
28148,KXTA,medium_airport,Homey (Area 51) Airport,37.23500061,-115.810997,4462,NA,US,US-NV,Groom Lake,no,KXTA,,,,https://en.wikipedia.org/wiki/Area_51,"Dreamland, Paradise Ranch, Home Base, Watertown Strip"
3957,KYIP,medium_airport,Willow Run Airport,42.23789978,-83.53040314,716,NA,US,US-MI,Detroit,no,KYIP,YIP,YIP,,https://en.wikipedia.org/wiki/Willow_Run_Airport,DTT
3958,KYKM,medium_airport,Yakima Air Terminal McAllister Field,46.56819916,-120.5439987,1099,NA,US,US-WA,Yakima,yes,KYKM,YKM,YKM,,https://en.wikipedia.org/wiki/Yakima_Air_Terminal,
3959,KYKN,medium_airport,Chan Gurney Municipal Airport,42.91669846,-97.3859024,1306,NA,US,US-SD,Yankton,no,KYKN,YKN,YKN,http://www.cityofyankton.org/publicworks/airport/,https://en.wikipedia.org/wiki/Chan_Gurney_Municipal_Airport,
3960,KYNG,medium_airport,Youngstown Warren Regional Airport,41.26070023,-80.67910004,1192,NA,US,US-OH,Youngstown/Warren,no,KYNG,YNG,YNG,,https://en.wikipedia.org/wiki/Youngstown-Warren_Regional_Airport,
3967,KZZV,medium_airport,Zanesville Municipal Airport,39.94440079,-81.89209747,900,NA,US,US-OH,Zanesville,no,KZZV,ZZV,ZZV,,https://en.wikipedia.org/wiki/Zanesville_Municipal_Airport,
5336,PAAQ,medium_airport,"Warren ""Bud"" Woods Palmer Municipal Airport",61.594898,-149.08901,242,NA,US,US-AK,Palmer,no,PAAQ,PAQ,PAQ,,https://en.wikipedia.org/wiki/Palmer_Municipal_Airport,"Palmer Muni, Palmer Buddy Woods Municipal"
5337,PABA,medium_airport,Barter Island Long Range Radar Station Airport,70.134003,-143.582001,2,NA,US,US-AK,Barter Island,no,PABA,BTI,BTI,,https://en.wikipedia.org/wiki/Barter_Island_LRRS_Airport,
5338,PABE,medium_airport,Bethel Airport,60.77980042,-161.8379974,126,NA,US,US-AK,Bethel,yes,PABE,BET,BET,,https://en.wikipedia.org/wiki/Bethel_Airport,
5339,PABI,medium_airport,Allen Army Airfield,63.99449921,-145.7220001,1291,NA,US,US-AK,Delta Junction Ft Greely,no,PABI,BIG,BIG,,https://en.wikipedia.org/wiki/Allen_Army_Airfield00000000000000,Big Delta Army Airfield
5340,PABL,medium_airport,Buckland Airport,65.981598,-161.149002,31,NA,US,US-AK,Buckland,no,PABL,BKC,BVK,,https://en.wikipedia.org/wiki/Buckland_Airport,7K5
5342,PABR,medium_airport,Wiley Post Will Rogers Memorial Airport,71.285402,-156.766008,44,NA,US,US-AK,UtqiaÄ¡vik,yes,PABR,BRW,BRW,,https://en.wikipedia.org/wiki/Wiley_Post-Will_Rogers_Memorial_Airport,Barrow
5343,PABT,medium_airport,Bettles Airport,66.91390228,-151.529007,647,NA,US,US-AK,Bettles,no,PABT,BTT,BTT,,https://en.wikipedia.org/wiki/Bettles_Airport,
5344,PABV,medium_airport,Birchwood Airport,61.41650009,-149.5070038,83,NA,US,US-AK,Birchwood,no,PABV,,BCV,,,
5345,PACD,medium_airport,Cold Bay Airport,55.2061,-162.725006,96,NA,US,US-AK,Cold Bay,no,PACD,CDB,CDB,,https://en.wikipedia.org/wiki/Cold_Bay_Airport,
5346,PACL,medium_airport,Clear Airport,64.299738,-149.117432,552,NA,US,US-AK,Clear,no,PACL,,Z84,,https://en.wikipedia.org/wiki/Clear_Airport,
5347,PACM,medium_airport,Scammon Bay Airport,61.84529877,-165.5709991,14,NA,US,US-AK,Scammon Bay,no,PACM,SCM,SCM,,,
5348,PACV,medium_airport,Merle K (Mudhole) Smith Airport,60.491798,-145.477997,54,NA,US,US-AK,Cordova,yes,PACV,CDV,CDV,,https://en.wikipedia.org/wiki/Merle_K._(Mudhole)_Smith_Airport,Cordova Mile 13
5349,PACZ,medium_airport,Cape Romanzof LRRS Airport,61.78030014,-166.0390015,464,NA,US,US-AK,Cape Romanzof,no,PACZ,CZF,CZF,,https://en.wikipedia.org/wiki/Cape_Romanzof_LRRS_Airport,
5350,PADE,medium_airport,Deering Airport,66.069603,-162.766006,21,NA,US,US-AK,Deering,no,PADE,DRG,DEE,,https://en.wikipedia.org/wiki/Deering_Airport,0Z0
16092,PADK,medium_airport,Adak Airport,51.883564,-176.642783,18,NA,US,US-AK,Adak,yes,PADK,ADK,ADK,,https://en.wikipedia.org/wiki/Adak_Airport,
5351,PADL,medium_airport,Dillingham Airport,59.04470062,-158.5050049,81,NA,US,US-AK,Dillingham,yes,PADL,DLG,DLG,,https://en.wikipedia.org/wiki/Dillingham_Airport,
5352,PADM,medium_airport,Marshall Don Hunter Sr Airport,61.86429977,-162.026001,103,NA,US,US-AK,Marshall,yes,PADM,MLL,MDM,,https://en.wikipedia.org/wiki/Marshall_Don_Hunter_Sr._Airport,3A5
5353,PADQ,medium_airport,Kodiak Airport,57.75,-152.4940033,78,NA,US,US-AK,Kodiak,yes,PADQ,ADQ,ADQ,,https://en.wikipedia.org/wiki/Kodiak_Airport,
5354,PADU,medium_airport,Tom Madsen (Dutch Harbor) Airport,53.89881,-166.544996,22,NA,US,US-AK,Unalaska,yes,PADU,DUT,DUT,,https://en.wikipedia.org/wiki/Unalaska_Airport,"Dutch Harbor, Unalaska"
5355,PAED,medium_airport,Elmendorf Air Force Base,61.251709,-149.807097,212,NA,US,US-AK,Anchorage,no,PAED,EDF,EDF,,https://en.wikipedia.org/wiki/Elmendorf_Air_Force_Base,
5356,PAEH,medium_airport,Cape Newenham LRRS Airport,58.64640045,-162.0630035,541,NA,US,US-AK,Cape Newenham,no,PAEH,EHM,EHM,,https://en.wikipedia.org/wiki/Cape_Newenham_LRRS_Airport,
5357,PAEI,medium_airport,Eielson Air Force Base,64.66570282,-147.102005,547,NA,US,US-AK,Fairbanks,no,PAEI,EIL,EIL,,https://en.wikipedia.org/wiki/Eielson_Air_Force_Base,
5358,PAEM,medium_airport,Emmonak Airport,62.78609848,-164.4909973,13,NA,US,US-AK,Emmonak,yes,PAEM,EMK,ENM,,https://en.wikipedia.org/wiki/Emmonak_Airport,
5359,PAEN,medium_airport,Kenai Municipal Airport,60.57310104,-151.2449951,99,NA,US,US-AK,Kenai,no,PAEN,ENA,ENA,,https://en.wikipedia.org/wiki/Kenai_Municipal_Airport,
5360,PAFA,large_airport,Fairbanks International Airport,64.81510162,-147.8560028,439,NA,US,US-AK,Fairbanks,yes,PAFA,FAI,FAI,,https://en.wikipedia.org/wiki/Fairbanks_International_Airport,
5361,PAFB,medium_airport,Ladd Army Airfield,64.837502,-147.613998,454,NA,US,US-AK,Fairbanks,no,PAFB,FBK,FBK,,https://en.wikipedia.org/wiki/Ladd_Army_Airfield,Fort Wainwright
5362,PAFE,medium_airport,Kake Airport,56.961312,-133.910202,172,NA,US,US-AK,Kake,no,PAFE,,AFE,,https://en.wikipedia.org/wiki/Kake_Airport,K23
5363,PAFM,medium_airport,Ambler Airport,67.107043,-157.854308,334,NA,US,US-AK,Ambler,no,PAFM,ABL,AFM,,https://en.wikipedia.org/wiki/Ambler_Airport,Z60
5365,PAGA,medium_airport,Edward G. Pitka Sr Airport,64.73619843,-156.9369965,153,NA,US,US-AK,Galena,no,PAGA,GAL,GAL,,https://en.wikipedia.org/wiki/Edward_G._Pitka_Sr._Airport,
5367,PAGK,medium_airport,Gulkana Airport,62.155859,-145.454662,1586,NA,US,US-AK,Gulkana,no,PAGK,GKN,GKN,,https://en.wikipedia.org/wiki/Gulkana_Airport,
5368,PAGM,medium_airport,Gambell Airport,63.76679993,-171.7330017,27,NA,US,US-AK,Gambell,no,PAGM,GAM,GAM,,https://en.wikipedia.org/wiki/Gambell_Airport,
5369,PAGS,medium_airport,Gustavus Airport,58.4253006,-135.7070007,35,NA,US,US-AK,Gustavus,yes,PAGS,GST,GST,,https://en.wikipedia.org/wiki/Gustavus_Airport,
17619,PAHC,medium_airport,Holy Cross Airport,62.18830109,-159.7749939,70,NA,US,US-AK,Holy Cross,yes,PAHC,HCR,HCA,,https://en.wikipedia.org/wiki/Holy_Cross_Airport,4Z4
5370,PAHL,medium_airport,Huslia Airport,65.69789886,-156.3509979,220,NA,US,US-AK,Huslia,no,PAHL,HSL,HLA,,https://en.wikipedia.org/wiki/Huslia_Airport,
5372,PAHN,medium_airport,Haines Airport,59.24380112,-135.5240021,15,NA,US,US-AK,Haines,yes,PAHN,HNS,HNS,,https://en.wikipedia.org/wiki/Haines_Airport,
5373,PAHO,medium_airport,Homer Airport,59.64559937,-151.477005,84,NA,US,US-AK,Homer,no,PAHO,HOM,HOM,,https://en.wikipedia.org/wiki/Homer_Airport,
5374,PAHP,medium_airport,Hooper Bay Airport,61.52389908,-166.1470032,13,NA,US,US-AK,Hooper Bay,no,PAHP,HPB,HPB,,https://en.wikipedia.org/wiki/Hooper_Bay_Airport,
5375,PAII,medium_airport,Egegik Airport,58.184386,-157.374873,92,NA,US,US-AK,Egegik,yes,PAII,EGX,EII,,https://en.wikipedia.org/wiki/Egegik_Airport,
5376,PAIK,medium_airport,Bob Baker Memorial Airport,66.97599792,-160.4369965,166,NA,US,US-AK,Kiana,no,PAIK,IAN,IAN,,https://en.wikipedia.org/wiki/Bob_Baker_Memorial_Airport,
5377,PAIL,medium_airport,Iliamna Airport,59.75439835,-154.9109955,192,NA,US,US-AK,Iliamna,no,PAIL,ILI,ILI,,https://en.wikipedia.org/wiki/Iliamna_Airport,
5378,PAIM,medium_airport,Indian Mountain LRRS Airport,65.99279785,-153.7039948,1273,NA,US,US-AK,Utopia Creek,no,PAIM,UTO,UTO,,https://en.wikipedia.org/wiki/Indian_Mountain_LRRS_Airport,
5379,PAJN,medium_airport,Juneau International Airport,58.35499954,-134.576004,21,NA,US,US-AK,Juneau,yes,PAJN,JNU,JNU,,https://en.wikipedia.org/wiki/Juneau_International_Airport,
5380,PAKN,medium_airport,King Salmon Airport,58.677845,-156.651965,73,NA,US,US-AK,King Salmon,yes,PAKN,AKN,AKN,,https://en.wikipedia.org/wiki/King_Salmon_Airport,Naknek Air Force Base
5381,PAKP,medium_airport,Anaktuvuk Pass Airport,68.13359833,-151.7429962,2102,NA,US,US-AK,Anaktuvuk Pass,no,PAKP,AKP,AKP,,https://en.wikipedia.org/wiki/Anaktuvuk_Pass_Airport,
5382,PAKT,medium_airport,Ketchikan International Airport,55.35559845,-131.7140045,89,NA,US,US-AK,Ketchikan,yes,PAKT,KTN,KTN,,https://en.wikipedia.org/wiki/Ketchikan_International_Airport,
5383,PAKW,medium_airport,Klawock Airport,55.579201,-133.076004,80,NA,US,US-AK,Klawock,no,PAKW,KLW,AKW,,https://en.wikipedia.org/wiki/Klawock_Airport,9Z1
5385,PALU,medium_airport,Cape Lisburne LRRS Airport,68.87509918,-166.1100006,16,NA,US,US-AK,Cape Lisburne,no,PALU,LUR,LUR,,https://en.wikipedia.org/wiki/Cape_Lisburne_LRRS_Airport,
21844,PAMC,medium_airport,McGrath Airport,62.95289993,-155.6060028,341,NA,US,US-AK,McGrath,yes,PAMC,MCG,MCG,,https://en.wikipedia.org/wiki/McGrath_Airport,
5386,PAMR,medium_airport,Merrill Field,61.21350098,-149.8439941,137,NA,US,US-AK,Anchorage,no,PAMR,MRI,MRI,,https://en.wikipedia.org/wiki/Merrill_Field,
5387,PAMY,medium_airport,Mekoryuk Airport,60.37139893,-166.2709961,48,NA,US,US-AK,Mekoryuk,no,PAMY,MYU,MYU,,,
5388,PANC,large_airport,Ted Stevens Anchorage International Airport,61.1744,-149.996002,152,NA,US,US-AK,Anchorage,yes,PANC,ANC,ANC,,https://en.wikipedia.org/wiki/Ted_Stevens_Anchorage_International_Airport,
16291,PANI,medium_airport,Aniak Airport,61.58160019,-159.5429993,88,NA,US,US-AK,Aniak,yes,PANI,ANI,ANI,,https://en.wikipedia.org/wiki/Aniak_Airport,
5390,PANN,medium_airport,Nenana Municipal Airport,64.548772,-149.074516,362,NA,US,US-AK,Nenana,no,PANN,ENN,ENN,,https://en.wikipedia.org/wiki/Nenana_Municipal_Airport,
5391,PANT,medium_airport,Annette Island Airport,55.037026,-131.572695,119,NA,US,US-AK,Metlakatla,yes,PANT,ANN,ANN,,https://en.wikipedia.org/wiki/Annette_Island_Airport,
5392,PANV,medium_airport,Anvik Airport,62.646702,-160.190994,291,NA,US,US-AK,Anvik,yes,PANV,ANV,ANV,,https://en.wikipedia.org/wiki/Anvik_Airport,
5393,PAOM,medium_airport,Nome Airport,64.5121994,-165.4450073,37,NA,US,US-AK,Nome,yes,PAOM,OME,OME,,https://en.wikipedia.org/wiki/Nome_Airport,
5394,PAOR,medium_airport,Northway Airport,62.9612999,-141.9290009,1715,NA,US,US-AK,Northway,no,PAOR,ORT,ORT,,https://en.wikipedia.org/wiki/Northway_Airport,
5395,PAOT,medium_airport,Ralph Wien Memorial Airport,66.88469696,-162.598999,14,NA,US,US-AK,Kotzebue,yes,PAOT,OTZ,OTZ,,https://en.wikipedia.org/wiki/Ralph_Wien_Memorial_Airport,
5396,PAPB,medium_airport,St George Airport,56.577345,-169.663823,125,NA,US,US-AK,St George,yes,PAPB,STG,PBV,,https://en.wikipedia.org/wiki/St._George_Airport_(Alaska),A8L
5397,PAPC,medium_airport,Port Clarence Coast Guard Station,65.25370026,-166.8589935,10,NA,US,US-AK,Port Clarence,no,PAPC,KPC,KPC,,https://en.wikipedia.org/wiki/Port_Clarence_Coast_Guard_Station,
5398,PAPG,medium_airport,Petersburg James A Johnson Airport,56.80170059,-132.9450073,111,NA,US,US-AK,Petersburg,yes,PAPG,PSG,PSG,,https://en.wikipedia.org/wiki/Petersburg_James_A._Johnson_Airport,
5399,PAPH,medium_airport,Port Heiden Airport,56.959359,-158.62106,95,NA,US,US-AK,Port Heiden,no,PAPH,PTH,PTH,,,
5400,PAPM,medium_airport,Platinum Airport,59.01139832,-161.8200073,15,NA,US,US-AK,Platinum,no,PAPM,PTU,PTU,,,
5401,PAQT,medium_airport,Nuiqsut Airport,70.209999,-151.005998,38,NA,US,US-AK,Nuiqsut,no,PAQT,NUI,AQT,,https://en.wikipedia.org/wiki/Nuiqsut_Airport,10AK
5402,PARC,medium_airport,Arctic Village Airport,68.1147,-145.578995,2092,NA,US,US-AK,Arctic Village,yes,PARC,ARC,ARC,,https://en.wikipedia.org/wiki/Arctic_Village_Airport,
5403,PARY,medium_airport,Ruby Airport,64.72720337,-155.4700012,658,NA,US,US-AK,Ruby,no,PARY,RBY,RBY,,,
5404,PASA,medium_airport,Savoonga Airport,63.686401,-170.492996,53,NA,US,US-AK,Savoonga,no,PASA,SVA,SVA,,https://en.wikipedia.org/wiki/Savoonga_Airport,
5405,PASC,medium_airport,Deadhorse Airport,70.19470215,-148.4649963,65,NA,US,US-AK,Deadhorse,yes,PASC,SCC,SCC,,https://en.wikipedia.org/wiki/Deadhorse_Airport,
5406,PASD,medium_airport,Sand Point Airport,55.31499863,-160.522995,21,NA,US,US-AK,Sand Point,no,PASD,SDP,SDP,,,
5407,PASH,medium_airport,Shishmaref Airport,66.249604,-166.089112,12,NA,US,US-AK,Shishmaref,no,PASH,SHH,SHH,,https://en.wikipedia.org/wiki/Shishmaref_Airport,K09
5408,PASI,medium_airport,Sitka Rocky Gutierrez Airport,57.04710007,-135.3619995,21,NA,US,US-AK,Sitka,yes,PASI,SIT,SIT,,https://en.wikipedia.org/wiki/Sitka_Rocky_Gutierrez_Airport,
5409,PASM,medium_airport,St Mary's Airport,62.0605011,-163.302002,312,NA,US,US-AK,St Mary's,no,PASM,KSM,KSM,,https://en.wikipedia.org/wiki/St._Mary's_Airport_(Alaska),
5410,PASN,medium_airport,St Paul Island Airport,57.166311,-170.222555,63,NA,US,US-AK,St Paul Island,yes,PASN,SNP,SNP,,https://en.wikipedia.org/wiki/St._Paul_Island_Airport,Pribilof
5411,PASV,medium_airport,Sparrevohn LRRS Airport,61.09740067,-155.5740051,1585,NA,US,US-AK,Sparrevohn,no,PASV,SVW,SVW,,https://en.wikipedia.org/wiki/Sparrevohn_LRRS_Airport,
5412,PASX,medium_airport,Soldotna Airport,60.474935,-151.038471,113,NA,US,US-AK,Soldotna,no,PASX,SXQ,SXQ,,,
5413,PASY,medium_airport,Eareckson Air Station,52.71229935,174.1139984,95,NA,US,US-AK,Shemya,no,PASY,SYA,SYA,,https://en.wikipedia.org/wiki/Eareckson_Air_Station,
5414,PATG,medium_airport,Togiak Airport,59.05279922,-160.3970032,21,NA,US,US-AK,Togiak Village,no,PATG,TOG,TOG,,,
24910,PATK,medium_airport,Talkeetna Airport,62.32049942,-150.0939941,358,NA,US,US-AK,Talkeetna,no,PATK,TKA,TKA,,https://en.wikipedia.org/wiki/Talkeetna_Airport,
5415,PATL,medium_airport,Tatalina LRRS Airport,62.89440155,-155.977005,964,NA,US,US-AK,Takotna,no,PATL,TLJ,TLJ,,https://en.wikipedia.org/wiki/Tatalina_LRRS_Airport,
5416,PATQ,medium_airport,Atqasuk Edward Burnell Sr Memorial Airport,70.46704,-157.436013,96,NA,US,US-AK,Atqasuk,no,PATQ,ATK,ATK,,https://en.wikipedia.org/wiki/Atqasuk_Edward_Burnell_Sr._Memorial_Airport,Z46
5418,PAVD,medium_airport,Valdez Pioneer Field,61.1339,-146.248001,121,NA,US,US-AK,Valdez,no,PAVD,VDZ,VDZ,,https://en.wikipedia.org/wiki/Valdez_Airport,Valdez Number 2
5419,PAVL,medium_airport,Kivalina Airport,67.73619843,-164.5630035,13,NA,US,US-AK,Kivalina,no,PAVL,KVL,KVL,,,
5420,PAWD,medium_airport,Seward Airport,60.130478,-149.418612,22,NA,US,US-AK,Seward,no,PAWD,SWD,SWD,,,
5421,PAWG,medium_airport,Wrangell Airport,56.48429871,-132.3699951,49,NA,US,US-AK,Wrangell,yes,PAWG,WRG,WRG,,https://en.wikipedia.org/wiki/Wrangell_Airport,
5422,PAWI,medium_airport,Wainwright Airport,70.638,-159.994995,41,NA,US,US-AK,Wainwright,no,PAWI,AIN,AWI,,https://en.wikipedia.org/wiki/Wainwright_Airport_(Alaska),5WW
5423,PAWN,medium_airport,Noatak Airport,67.56610107,-162.9750061,88,NA,US,US-AK,Noatak,no,PAWN,WTK,WTK,,,
5424,PAWS,medium_airport,Wasilla Airport,61.57170105,-149.5399933,354,NA,US,US-AK,Wasilla,no,PAWS,WWA,IYS,,https://en.wikipedia.org/wiki/Wasilla_Airport,
26343,PAYA,medium_airport,Yakutat Airport,59.508717,-139.660435,33,NA,US,US-AK,Yakutat,yes,PAYA,YAK,YAK,,https://en.wikipedia.org/wiki/Yakutat_Airport,
5429,PFYU,medium_airport,Fort Yukon Airport,66.57150269,-145.25,433,NA,US,US-AK,Fort Yukon,no,PFYU,FYU,FYU,,https://en.wikipedia.org/wiki/Fort_Yukon_Airport,
5441,PHBK,medium_airport,Barking Sands Airport,22.0228,-159.785004,23,OC,US,US-HI,Kekaha,no,PHBK,BKH,BKH,,https://en.wikipedia.org/wiki/Pacific_Missile_Range_Facility,"Pacific Missle Range Facility Barking Sands, Kauai"
5444,PHHN,medium_airport,Hana Airport,20.795601,-156.014008,78,OC,US,US-HI,Hana,yes,PHHN,HNM,HNM,,https://en.wikipedia.org/wiki/Hana_Airport,
335883,PHIK,medium_airport,Hickam Air Force Base,21.335278,-157.948333,13,OC,US,US-HI,Honolulu,no,PHIK,HIK,HIK,https://www.hickam.af.mil,https://en.wikipedia.org/wiki/Hickam_Air_Force_Base,
5446,PHJH,medium_airport,Kapalua Airport,20.9629,-156.673004,256,OC,US,US-HI,Lahaina,yes,PHJH,JHM,JHM,,https://en.wikipedia.org/wiki/Kapalua_Airport,
5447,PHJR,medium_airport,Kalaeloa Airport,21.3074,-158.070009,30,OC,US,US-HI,Kapolei,no,PHJR,JRF,JRF,http://airports.hawaii.gov/jrf/,https://en.wikipedia.org/wiki/Kalaeloa_Airport,"NAX, Naval Air Station Barbers Point, John Rodgers Field"
5448,PHKO,medium_airport,Ellison Onizuka Kona International Airport at Keahole,19.738783,-156.045603,47,OC,US,US-HI,Kailua-Kona,yes,PHKO,KOA,KOA,,https://en.wikipedia.org/wiki/Kona_International_Airport,
5449,PHLI,medium_airport,Lihue Airport,21.976,-159.339005,153,OC,US,US-HI,Lihue,yes,PHLI,LIH,LIH,,https://en.wikipedia.org/wiki/Lihu'e_Airport,
5450,PHMK,medium_airport,Molokai Airport,21.152901,-157.095993,454,OC,US,US-HI,Kaunakakai,yes,PHMK,MKK,MKK,,https://en.wikipedia.org/wiki/Molokai_Airport,
5451,PHMU,medium_airport,Waimea Kohala Airport,20.001301,-155.667999,2671,OC,US,US-HI,Waimea (Kamuela),yes,PHMU,MUE,MUE,,https://en.wikipedia.org/wiki/Waimea-Kohala_Airport,
5452,PHNG,medium_airport,Kaneohe Bay MCAS (Marion E. Carl Field) Airport,21.4505,-157.768005,24,OC,US,US-HI,Kaneohe,no,PHNG,NGF,NGF,http://www.mcbhawaii.marines.mil/Units/SubordinateCommands/MarineCorpsAirStation.aspx,https://en.wikipedia.org/wiki/Marine_Corps_Air_Station_Kaneohe_Bay,
5453,PHNL,large_airport,Daniel K Inouye International Airport,21.32062,-157.924228,13,OC,US,US-HI,Honolulu,yes,PHNL,HNL,HNL,http://airports.hawaii.gov/hnl/,https://en.wikipedia.org/wiki/Daniel_K._Inouye_International_Airport,"Hickam Air Force Base, HIK, PHIK, KHNL, Honolulu International"
5454,PHNY,medium_airport,Lanai Airport,20.785675,-156.951324,1308,OC,US,US-HI,Lanai City,yes,PHNY,LNY,LNY,,https://en.wikipedia.org/wiki/Lanai_Airport,
5455,PHOG,medium_airport,Kahului Airport,20.898543,-156.431212,54,OC,US,US-HI,Kahului,yes,PHOG,OGG,OGG,,https://en.wikipedia.org/wiki/Kahului_Airport,
5457,PHTO,medium_airport,Hilo International Airport,19.721399,-155.048004,38,OC,US,US-HI,Hilo,yes,PHTO,ITO,ITO,,https://en.wikipedia.org/wiki/Hilo_International_Airport,
5495,PPIZ,medium_airport,Point Lay LRRS Airport,69.73290253,-163.0050049,22,NA,US,US-AK,Point Lay,no,PPIZ,PIZ,PIZ,,https://en.wikipedia.org/wiki/Point_Lay_LRRS_Airport,
45999,US-0086,medium_airport,Jim's Private Airport,33.59790039,-84.14440155,890,NA,US,US-GA,Conyers,no,,,,,,
313358,US-0254,medium_airport,Yuma Auxiliary Army Airfield 2,32.547501,-114.511786,,NA,US,US-AZ,Yuma,no,,,,,,yuma
324440,US-0571,medium_airport,Williston Basin International Airport,48.258387,-103.748797,2344,NA,US,US-ND,Williston,yes,KXWA,XWA,XWA,http://www.xwaproject.com/,https://en.wikipedia.org/wiki/Williston_Basin_International_Airport,
